id,category,legalName,RoadNameAddress,AdministrativeNeighborhood,LegalStatusNeighborhood,telephone
12605,카페,논,전북 군산시 회현면 회현초교1길 47,회현면,회현면,
12602,카페,카페마실,전북 군산시 회현면 회현로 182,회현면,회현면,063-465-3555
12600,한식,자매식당,전북 군산시 회현면 회현로 180-1,회현면,회현면,
12598,술집,여그여 동무야,전북 군산시 회현면 회현로 178,회현면,회현면,
12596,분식,해바라기분식&식당,전북 군산시 회현면 회현로 175,회현면,회현면,
12595,카페,회현커피,전북 군산시 회현면 회현로 123,회현면,회현면,063-466-0958
12586,한식,노방촌,전북 군산시 회현면 자골윗길 62,회현면,회현면,063-466-5284
12582,한식,어장어,전북 군산시 회현면 대위로 199,회현면,회현면,063-466-5556
12581,한식,감나무집,전북 군산시 회현면 대위로 199,회현면,회현면,063-466-3858
12580,카페,모예의정원,전북 군산시 회현면 대위로 172,회현면,회현면,063-446-8172
12577,중식,그린반점,전북 군산시 회현면 광지산길 3,회현면,회현면,
12576,한식,연도식당,전북 군산시 회현면 회현로 185,회현면,회현면,063-466-6193
12575,한식,이레식당,전북 군산시 회현면 회현로 180,회현면,회현면,063-466-6046
12574,치킨,진미통닭,전북 군산시 회현면 회현로 180,회현면,회현면,063-466-6075
12573,한식,깐치뎅이,전북 군산시 회현면 회현로 178,회현면,회현면,063-466-0221
12571,한식,그린식당,전북 군산시 회현면 회현로 175,회현면,회현면,
12568,한식,신선가든,전북 군산시 회현면 대위안길 45,회현면,회현면,063-466-6162
12566,한식,돈삼겹,전북 군산시 회현면 대위로 423,회현면,회현면,
12485,한식,아리랑식당,전북 군산시 내항2길 255,해신동,해망동,063-442-3780
12456,카페,크라프트(CRAFT),전북 군산시 평화길 9,중앙동,평화동,
12435,아시아음식,미쓰비,전북 군산시 평화길 43-1,중앙동,평화동,
12426,한식,윤파전,전북 군산시 평화길 22,중앙동,평화동,
12420,한식,유가네식당,전북 군산시 신영1길 5,중앙동,평화동,063-446-0788
12406,중식,흑룡각,전북 군산시 아리랑로 20,월명동,창성동,063-445-2216
12398,한식,구불길,전북 군산시 월명로 452,월명동,창성동,063-446-0092
12396,술집,정담,전북 군산시 아리랑로 25-1,월명동,창성동,
12392,한식,돌섬 세꼬시,전북 군산시 지곡로 8,수송동,지곡동,
12391,카페,카페투게더,전북 군산시 지곡로 76,수송동,지곡동,
12388,한식,1인자24시감자탕뼈해장국,전북 군산시 지곡로 6,수송동,지곡동,
12382,간식,젤라또공대,전북 군산시 지곡로 36,수송동,지곡동,
12380,한식,최가밥상,전북 군산시 지곡로 31,수송동,지곡동,063-465-4969
12375,카페,오가다커피숍,전북 군산시 지곡로 23,수송동,지곡동,063-468-6650
12374,한식,민선상회 앤 잭아저씨,전북 군산시 지곡로 20,수송동,지곡동,063-466-7302
12373,한식,송가네삼겹살,전북 군산시 지곡로 15,수송동,지곡동,063-465-6027
12372,술집,로얄자카르타(지곡점),전북 군산시 지곡로 15,수송동,지곡동,063-462-1108
12371,한식,군산숯불갈비 지곡점,전북 군산시 지곡로 14,수송동,지곡동,063-488-5355
12369,술집,알둥지,전북 군산시 지곡로 12,수송동,지곡동,063-467-6024
12367,한식,시골집얼큰한뼈해장국,전북 군산시 지곡로 10,수송동,지곡동,063-465-7773
12361,한식,닭코,전북 군산시 상지곡안4길 29-8,수송동,지곡동,063-465-0732
12357,한식,장가네,전북 군산시 백토로 215-1,수송동,지곡동,063-464-5292
12356,한식,한남생고깃간,전북 군산시 계산2길 92,수송동,지곡동,
12353,카페,정담전통찻집,전북 군산시 의료원로 96,수송동,지곡동,
12351,음식점,둥이식당,전북 군산시 의료원로 90-1,수송동,지곡동,
12346,뷔페,부흥부페식당,전북 군산시 의료원로 78,수송동,지곡동,
12342,한식,황해회집,전북 군산시 의료원로 60,수송동,지곡동,063-464-6838
12334,카페,단지이것,전북 군산시 의료원로 50,수송동,지곡동,063-462-0735
12328,한식,양평해장국 지곡점,전북 군산시 의료원로 40,수송동,지곡동,
12325,카페,나비드 (주식회사 대영테크 군산의료원지점),전북 군산시 의료원로 27,수송동,지곡동,063-466-0472
12322,카페,하이브런치,전북 군산시 의료원로 26,수송동,지곡동,063-471-8752
12320,간식,멤,전북 군산시 의료원로 108,수송동,지곡동,
12312,한식,조박사설렁탕,전북 군산시 월명로 118,수송동,지곡동,063-465-7313
12307,한식,주먹고기,전북 군산시 신평안길 28,수송동,지곡동,063-464-8481
12306,중식,한반도양꼬치&훠궈무한리필,전북 군산시 신평안길 16-1,수송동,지곡동,
12303,양식,개화당,전북 군산시 신평안길 64,수송동,지곡동,
12301,한식,군산한식,전북 군산시 신평안길 60-3,수송동,지곡동,
12296,한식,너와나의연탄구이,전북 군산시 신평안길 46-12,수송동,지곡동,063-463-2298
12295,한식,류대감 칼국수,전북 군산시 신평안길 46-10,수송동,지곡동,063-452-6055
12290,한식,조마루뼈다귀,전북 군산시 신평안길 25,수송동,지곡동,063-461-5156
12289,한식,큰솥단지,전북 군산시 신평안길 18,수송동,지곡동,063-464-8708
12288,한식,바른국밥,전북 군산시 신평안길 18,수송동,지곡동,
12287,술집,와와치킨호프,전북 군산시 신평안길 17,수송동,지곡동,063-468-1303
12286,일식,어청도,전북 군산시 신평안길 16-4,수송동,지곡동,063-465-3727
12284,카페,카페GY지요,전북 군산시 신평길 9,수송동,지곡동,
12282,한식,아오미복집,전북 군산시 신평길 7,수송동,지곡동,063-462-2007
12278,한식,군산홍어,전북 군산시 신평길 33-3,수송동,지곡동,063-468-8994
12277,치킨,처갓집양념치킨앤드수산식당,전북 군산시 신평길 33-2,수송동,지곡동,
12270,한식,가나순대,전북 군산시 신평길 15,수송동,지곡동,063-467-5353
12269,한식,군산로스,전북 군산시 신평길 11,수송동,지곡동,
12268,한식,지리산흑돼지연탄생구이,전북 군산시 신평3길 8,수송동,지곡동,063-465-1326
12267,카페,라루나,전북 군산시 신평3길 26,수송동,지곡동,
12265,일식,오대양참치,전북 군산시 신평3길 14,수송동,지곡동,063-468-7115
12263,술집,터키블루,전북 군산시 신평2길 8,수송동,지곡동,
12262,한식,수배로스,전북 군산시 신평2길 3,수송동,지곡동,063-471-4636
12260,한식,원조우정식당,전북 군산시 신평2길 16-4,수송동,지곡동,
12259,한식,고기고기또고기,전북 군산시 신평2길 15,수송동,지곡동,063-462-6070
12258,아시아음식,타이,전북 군산시 신평2길 14,수송동,지곡동,063-465-5526
12257,술집,단호프,전북 군산시 신평2길 12-8,수송동,지곡동,
12256,한식,더삼겹,전북 군산시 신평2길 12-8,수송동,지곡동,
12255,한식,해왕정,전북 군산시 신평2길 12-4,수송동,지곡동,063-467-8210
12253,한식,오뚜기회관,전북 군산시 신평1길 7,수송동,지곡동,063-468-6266
12250,중식,대북경,전북 군산시 신평1길 3,수송동,지곡동,063-471-1123
12249,중식,양자강,전북 군산시 신평1길 1-6,수송동,지곡동,063-467-3400
12248,한식,원조별미뼈해장국,전북 군산시 신평1길 15,수송동,지곡동,
12245,카페,플랜비컴퍼니 AirPort1,전북 군산시 신평1길 11-2,수송동,지곡동,
12244,한식,대인식당,전북 군산시 신평1길 11,수송동,지곡동,
12243,한식,다다복집,전북 군산시 신평3길 4,수송동,지곡동,063-471-0633
12242,한식,굴나라칼국수,전북 군산시 신지길 7,수송동,지곡동,063-467-4242
12237,한식,번지농장돌판아구찜,전북 군산시 신지길 84,수송동,지곡동,063-461-6565
12236,술집,읍내생맥주,전북 군산시 신지길 74,수송동,지곡동,
12235,술집,읍내생맥주,전북 군산시 신지길 74,수송동,지곡동,
12230,한식,바우네 나주곰탕,전북 군산시 신지길 66,수송동,지곡동,063-463-9997
12229,한식,군산갈매기숯불구이,전북 군산시 신지길 66,수송동,지곡동,
12228,카페,음악이야기,전북 군산시 신지길 66,수송동,지곡동,063-464-5110
12227,술집,청담동말자싸롱지곡점,전북 군산시 신지길 65,수송동,지곡동,
12226,한식,신지길양푼갈비,전북 군산시 신지길 64,수송동,지곡동,063-463-7705
12225,술집,크라운호프 군산지곡점,전북 군산시 신지길 63,수송동,지곡동,063-461-7080
12224,술집,크라운호프 군산지곡점,전북 군산시 신지길 63,수송동,지곡동,
12223,한식,지곡동구공탄,전북 군산시 신지길 61,수송동,지곡동,063-465-9080
12222,한식,지곡한우,전북 군산시 신지길 58,수송동,지곡동,063-471-5592
12217,한식,다원푸드,전북 군산시 신지길 44,수송동,지곡동,
12214,간식,뽀랩(BBOLAB)베이킹연구소,전북 군산시 신지길 43,수송동,지곡동,
12212,간식,문's도넛,전북 군산시 신지길 35,수송동,지곡동,063-471-0042
12209,분식,지니분식,전북 군산시 신지길 21,수송동,지곡동,063-466-4912
12200,간식,해피토스트,전북 군산시 신지길 20,수송동,지곡동,063-471-3334
12187,분식,군산지곡점 감탄,전북 군산시 신지길 11,수송동,지곡동,063-462-2332
12185,카페,메가엠지씨커피 군산지곡점,전북 군산시 신지길 10,수송동,지곡동,063-467-7784
12184,중식,면사무소,전북 군산시 신지길 10,수송동,지곡동,
12182,한식,보석정,전북 군산시 상지곡안4길 1,수송동,지곡동,063-468-8484
12181,카페,커피몬스터,전북 군산시 상지곡안4길 9,수송동,지곡동,
12178,한식,오구제이오케이(59 JOK),전북 군산시 상지곡안4길 7-2,수송동,지곡동,063-471-5353
12177,한식,토실배기,전북 군산시 상지곡안4길 7-1,수송동,지곡동,063-462-1792
12176,한식,장수영양돌솥밥,전북 군산시 상지곡안4길 69,수송동,지곡동,
12174,카페,피오커피(FIOH COFFEE),전북 군산시 상지곡안4길 62,수송동,지곡동,
12173,한식,산고을,전북 군산시 상지곡안4길 59,수송동,지곡동,063-464-8989
12172,한식,명정장어구이,전북 군산시 상지곡안4길 58,수송동,지곡동,063-467-8820
12168,한식,청하순대 지곡점,전북 군산시 상지곡안4길 42-1,수송동,지곡동,063-462-7377
12167,한식,삼은갈비,전북 군산시 상지곡안4길 42,수송동,지곡동,063-462-2545
12166,한식,오리일번지,전북 군산시 상지곡안4길 40,수송동,지곡동,063-467-5255
12162,한식,원조소문난집,전북 군산시 상지곡안4길 33-1,수송동,지곡동,
12159,카페,다향,전북 군산시 상지곡안4길 28,수송동,지곡동,063-465-1613
12158,한식,아구에꽃이피네,전북 군산시 상지곡안4길 27,수송동,지곡동,063-467-3950
12152,한식,이조복집,전북 군산시 상지곡안4길 17,수송동,지곡동,063-468-3733
12148,치킨,멕시카나나운2지곡점,전북 군산시 상지곡안3길 6,수송동,지곡동,063-468-2259
12147,일식,오양참치지곡점,전북 군산시 상지곡안3길 32,수송동,지곡동,063-468-8934
12143,한식,명승지,전북 군산시 상지곡안3길 30-8,수송동,지곡동,063-462-0881
12140,한식,은파종점,전북 군산시 상지곡안3길 25,수송동,지곡동,063-463-3316
12138,카페,커피베이군산여상점,전북 군산시 상지곡안3길 17,수송동,지곡동,063-464-5808
12137,술집,원일호프,전북 군산시 상지곡안3길 15,수송동,지곡동,
12136,카페,썬플라워&꽃마실차마실,전북 군산시 상지곡안2길 7-2,수송동,지곡동,063-467-1577
12135,도시락,월명도시락,전북 군산시 상지곡안2길 7-1,수송동,지곡동,063-466-1272
12134,일식,죽향참치,전북 군산시 상지곡안2길 6,수송동,지곡동,063-468-1910
12133,카페,인사동찻집,전북 군산시 상지곡안2길 4-7,수송동,지곡동,063-465-3048
12132,음식점,맥화,전북 군산시 상지곡안2길 4-3,수송동,지곡동,
12124,양식,더스파게티하우스,전북 군산시 상지곡안2길 19,수송동,지곡동,063-461-5502
12123,일식,쿠모(KUMO),전북 군산시 상지곡안2길 19,수송동,지곡동,063-465-2221
12121,카페,카페다 군산시점,전북 군산시 상지곡안2길 18,수송동,지곡동,063-467-2744
12120,한식,옥류관,전북 군산시 상지곡안2길 17-5,수송동,지곡동,063-463-5654
12119,중식,자미원,전북 군산시 상지곡안2길 17-3,수송동,지곡동,
12118,한식,사시미 한점,전북 군산시 상지곡안2길 15,수송동,지곡동,
12117,중식,용해장,전북 군산시 상지곡안1길 8,수송동,지곡동,
12116,한식,오늘도물회아귀찜,전북 군산시 상지곡안1길 34,수송동,지곡동,063-468-2422
12115,식품,제이에스푸드,전북 군산시 상지곡안1길 32,수송동,지곡동,063-468-1277
12113,일식,단초밥,전북 군산시 상지곡안1길 24,수송동,지곡동,063-468-0741
12109,한식,뽀빠이냉면 지곡점,전북 군산시 상지곡안1길 22,수송동,지곡동,063-466-1785
12106,한식,뽀빠이갈비,전북 군산시 상지곡안1길 20-3,수송동,지곡동,063-468-1785
12105,카페,에이비씨커피(지곡점),전북 군산시 상지곡안1길 20-2,수송동,지곡동,063-468-7909
12104,분식,밀마당,전북 군산시 상지곡안1길 18,수송동,지곡동,063-463-2227
12101,치킨,호식이두마리치킨(지곡점),전북 군산시 상지곡안1길 12-1,수송동,지곡동,063-467-6682
12100,한식,자매식당,전북 군산시 상지곡안3길 6,수송동,지곡동,
12098,한식,보리네홍어마을,전북 군산시 상지곡3길 41,수송동,지곡동,063-464-4470
12095,한식,자갈마당,전북 군산시 상지곡3길 6,수송동,지곡동,063-468-4999
12094,한식,복있는 섬,전북 군산시 상지곡3길 52,수송동,지곡동,063-461-4566
12093,술집,닷찌,전북 군산시 상지곡3길 52,수송동,지곡동,
12092,술집,역전할머니맥주 지곡점,전북 군산시 상지곡3길 52,수송동,지곡동,
12091,술집,언제나,전북 군산시 상지곡3길 50,수송동,지곡동,
12090,한식,어도원,전북 군산시 상지곡3길 49,수송동,지곡동,063-463-4343
12089,한식,군산소식당,전북 군산시 상지곡3길 47,수송동,지곡동,
12087,한식,청담즉석숯불장어구이,전북 군산시 상지곡3길 46,수송동,지곡동,063-461-2100
12086,한식,호호불닭발,전북 군산시 상지곡3길 44,수송동,지곡동,063-467-0980
12085,한식,화수목즉석숯불장어구이전문점,전북 군산시 상지곡3길 43,수송동,지곡동,063-467-1780
12084,한식,미진이네,전북 군산시 상지곡3길 43,수송동,지곡동,
12081,한식,경원해물아구찜,전북 군산시 상지곡3길 3-1,수송동,지곡동,063-467-0608
12080,일식,사쿠라,전북 군산시 상지곡3길 3,수송동,지곡동,
12079,일식,사쿠라,전북 군산시 상지곡3길 3,수송동,지곡동,
12074,한식,푸른바다 찜&탕,전북 군산시 상지곡2길 9-3,수송동,지곡동,063-466-5982
12072,술집,간바레,전북 군산시 상지곡2길 6,수송동,지곡동,063-466-1870
12071,한식,춘천닭갈비 지곡점,전북 군산시 상지곡2길 4,수송동,지곡동,063-445-4116
12070,술집,해신포차,전북 군산시 상지곡2길 4,수송동,지곡동,
12069,술집,군산가맥,전북 군산시 상지곡2길 3,수송동,지곡동,
12065,술집,쌍둥이네가맥,전북 군산시 상지곡2길 1,수송동,지곡동,
12062,일식,영희네주방,전북 군산시 상지곡1길 49,수송동,지곡동,063-467-6470
12061,한식,참옻닭,전북 군산시 상지곡1길 43,수송동,지곡동,063-461-0779
12060,한식,안주랑찌개랑,전북 군산시 상지곡1길 41,수송동,지곡동,063-463-3466
12058,카페,지곡동,전북 군산시 상지곡1길 39,수송동,지곡동,
12052,한식,황금어장,전북 군산시 상지곡1길 20,수송동,지곡동,063-464-2266
12051,술집,수요일,전북 군산시 상지곡1길 14-6,수송동,지곡동,063-466-8253
12040,간식,천사카롱,전북 군산시 백토로 241,수송동,지곡동,
12037,카페,르빠니에,전북 군산시 백토로 239,수송동,지곡동,063-732-7514
12026,카페,더리터 군산은파점,전북 군산시 백토로 231,수송동,지곡동,063-466-2310
12025,치킨,교촌지킨지곡점,전북 군산시 백토로 231,수송동,지곡동,063-465-1993
12024,퓨전요리,본죽&비빔밥 지곡점,전북 군산시 백토로 231,수송동,지곡동,
12023,퓨전요리,본죽 지곡점,전북 군산시 백토로 231,수송동,지곡동,063-467-9777
12019,간식,파리바게뜨군산지곡점,전북 군산시 백토로 229,수송동,지곡동,
12017,양식,피자샵,전북 군산시 백토로 219-1,수송동,지곡동,063-467-0017
12015,패스트푸드,맘스터치 군산지곡점,전북 군산시 백토로 219,수송동,지곡동,
12014,카페,순수그릭,전북 군산시 백토로 217,수송동,지곡동,
12013,양식,피자알볼로군산점,전북 군산시 백토로 217,수송동,지곡동,063-464-8495
12012,도시락,나리네 반찬,전북 군산시 백토로 215,수송동,지곡동,
12006,치킨,다사랑치킨피자전문점지곡점,전북 군산시 백토로 209-1,수송동,지곡동,063-463-9915
12004,카페,모짜르트,전북 군산시 백토로 203,수송동,지곡동,
11999,카페,카페세라잔,전북 군산시 동지곡길 63-2,수송동,지곡동,
11994,간식,안녕구름,전북 군산시 동지곡길 53,수송동,지곡동,
11989,카페,바우향,전북 군산시 동지곡길 40,수송동,지곡동,063-465-5236
11988,치킨,비비큐나운지곡점,전북 군산시 동지곡길 38,수송동,지곡동,063-468-9292
11987,카페,카페베네은파호수점,전북 군산시 동지곡길 177-4,수송동,지곡동,
11986,카페,안영순 베이커리카페,전북 군산시 동지곡길 171,수송동,지곡동,
11981,카페,하버브릿지,전북 군산시 당북길 5,수송동,지곡동,
11979,한식,죽고을,전북 군산시 당북길 5,수송동,지곡동,063-468-1087
11978,한식,김치이야기,전북 군산시 당북길 5,수송동,지곡동,063-465-2200
11976,한식,대감집,전북 군산시 당북길 11,수송동,지곡동,
11975,음식점,정식당,전북 군산시 당북길 11,수송동,지곡동,063-732-1004
11971,한식,골목집,전북 군산시 계산로 87-6,수송동,지곡동,063-467-0720
11958,카페,이디야 지곡동점,전북 군산시 계산로 89,수송동,지곡동,
11956,분식,하루김밥,전북 군산시 계산로 89,수송동,지곡동,063-462-0545
11954,한식,예가명태찜,전북 군산시 계산로 87-8,수송동,지곡동,063-461-7779
11953,술집,투다리(지곡점),전북 군산시 계산로 87-8,수송동,지곡동,063-462-0066
11948,술집,도서관,전북 군산시 계산로 87-6,수송동,지곡동,
11947,치킨,BHC 군산지곡점,전북 군산시 계산로 87-6,수송동,지곡동,063-468-0528
11946,간식,더달달,전북 군산시 계산로 87-6,수송동,지곡동,
11945,술집,힘찬맥주,전북 군산시 계산로 87-6,수송동,지곡동,
11944,간식,라셀(LASel),전북 군산시 계산로 87-6,수송동,지곡동,063-910-1123
11942,한식,아궁이순대국밥,전북 군산시 계산로 87-6,수송동,지곡동,
11937,카페,커피베이지곡예가점,전북 군산시 계산로 87-12,수송동,지곡동,063-466-9279
11936,한식,고기어때,전북 군산시 계산로 87-10,수송동,지곡동,
11935,중식,풍미중화요리,전북 군산시 계산로 87-10,수송동,지곡동,063-468-2288
11909,양식,59쌀피자 지곡점,전북 군산시 계산로 71,수송동,지곡동,063-462-5979
11907,한식,진미면 막국수,전북 군산시 계산2길 98,수송동,지곡동,063-464-5414
11906,한식,"은파소머리국밥, 설원칡냉면",전북 군산시 계산2길 93,수송동,지곡동,063-462-5678
11904,한식,강식당,전북 군산시 계산2길 90,수송동,지곡동,
11903,카페,청춘다방,전북 군산시 계산2길 84,수송동,지곡동,
11877,술집,귀빈,전북 군산시 미원안길 38,흥남동,중앙로3가,063-446-2488
11875,한식,뚱이네,전북 군산시 미원로 131-6,흥남동,중앙로3가,
11873,한식,공주네집,전북 군산시 미원로 131-4,흥남동,중앙로3가,
11856,한식,골목식당,전북 군산시 대명2길 13,흥남동,중앙로3가,
11844,치킨,네네치킨 중앙점,전북 군산시 중앙로 94,중앙동,중앙로2가,063-445-4479
11839,카페,설고당,전북 군산시 중앙로 126-3,중앙동,중앙로2가,
11838,카페,한콩커피,전북 군산시 중앙로 126-3,중앙동,중앙로2가,063-445-9777
11824,간식,빵빵한 하루,전북 군산시 중앙로 108,중앙동,중앙로2가,063-443-0023
11818,카페,꽃다방,전북 군산시 중앙로 105,중앙동,중앙로2가,
11812,뷔페,맛나다한끼,전북 군산시 싸전길 4,중앙동,중앙로2가,063-462-8787
11809,분식,스마일분식,전북 군산시 둔배미길 40,중앙동,중앙로2가,
11808,한식,엄마손식당,전북 군산시 대명2길 33-3,중앙동,중앙로2가,063-442-9768
11799,간식,베스킨라빈스(군산시영동점),전북 군산시 중앙로 139,중앙동,중앙로1가,063-445-3025
11793,간식,커플토스트,전북 군산시 중앙로 172-1,중앙동,중앙로1가,063-442-8653
11788,일식,희락,전북 군산시 구영7길 73,중앙동,중앙로1가,063-445-4456
11784,한식,제일식당,전북 군산시 중앙로 206,중앙동,중앙로1가,
11782,카페,카페디레마,전북 군산시 중앙로 205,중앙동,중앙로1가,
11781,유흥시설,파랑새,전북 군산시 중앙로 204,중앙동,중앙로1가,
11779,카페,오라에스프레소,전북 군산시 중앙로 201,중앙동,중앙로1가,
11778,카페,카페 찰리,전북 군산시 중앙로 200,중앙동,중앙로1가,
11775,치킨,맥시칸치킨,전북 군산시 중앙로 197-1,중앙동,중앙로1가,063-471-9919
11773,건어물,군산고래밥,전북 군산시 중앙로 196,중앙동,중앙로1가,
11772,카페,레어커피,전북 군산시 중앙로 195,중앙동,중앙로1가,
11764,한식,군산칼국수보쌈,전북 군산시 중앙로 182,중앙동,중앙로1가,063-446-0506
11763,카페,소풍,전북 군산시 중앙로 181,중앙동,중앙로1가,
11761,간식,㈜이성당,전북 군산시 중앙로 177,중앙동,중앙로1가,063-445-0020
11758,한식,군일분식,전북 군산시 중앙로 165-1,중앙동,중앙로1가,063-442-9005
11744,한식,본죽중앙점,전북 군산시 중앙로 146-1,중앙동,중앙로1가,063-442-7288
11730,간식,파리바게뜨 중앙점,전북 군산시 중앙로 136,중앙동,중앙로1가,063-446-8208
11729,카페,하버브릿지중앙로,전북 군산시 중앙로 135,중앙동,중앙로1가,063-443-7889
11727,카페,꽃잎카페,전북 군산시 중앙로 133-2,중앙동,중앙로1가,
11718,카페,리오,전북 군산시 우체통거리1길 17,중앙동,중앙로1가,
11716,패스트푸드,명랑핫도그,전북 군산시 영동로 29-2,중앙동,중앙로1가,
11704,카페,에이앤디(AND),전북 군산시 구영7길 95,중앙동,중앙로1가,
11703,한식,이화,전북 군산시 구영7길 77,중앙동,중앙로1가,
11702,한식,우미네,전북 군산시 구영7길 74,중앙동,중앙로1가,063-468-1234
11701,한식,가보자,전북 군산시 구영7길 72,중앙동,중앙로1가,
11699,카페,바다샌드,전북 군산시 구영6길 96,중앙동,중앙로1가,
11697,한식,2500냥 국시집,전북 군산시 구영6길 96,중앙동,중앙로1가,063-442-5770
11695,카페,커피벨트,전북 군산시 구영6길 85,중앙동,중앙로1가,063-466-0958
11693,한식,나들목 월명점,전북 군산시 구영6길 83,중앙동,중앙로1가,063-465-6545
11690,카페,수목원,전북 군산시 구영5길 81,중앙동,중앙로1가,063-445-5330
11689,한식,청사초롱,전북 군산시 구영4길 8,중앙동,중앙로1가,063-440-3138
11688,카페,미다원,전북 군산시 구영4길 4,중앙동,중앙로1가,063-462-2132
11685,한식,다루군산점,전북 군산시 해망로 89,중앙동,중동,
11675,한식,중동칼국수,전북 군산시 신금길 49,중앙동,중동,063-442-6218
11673,카페,서래포구마을,전북 군산시 서래안2길 22,중앙동,중동,
11670,치킨,티바두마리치킨중동대명점,전북 군산시 서래로 51,중앙동,중동,
11657,한식,서래애물총칼국수,전북 군산시 구암3.1로 71-9,중앙동,중동,063-445-4454
11656,카페,오산상회,전북 군산시 구암3.1로 71-7,중앙동,중동,
11655,한식,국일식당,전북 군산시 평화길 99-4,중앙동,죽성동,063-445-2716
11640,한식,세정식당,전북 군산시 평화길 100-3,중앙동,죽성동,063-445-0466
11636,한식,완주옥,전북 군산시 큰샘길 42,중앙동,죽성동,063-445-2644
11633,한식,장미칼국수,전북 군산시 큰샘길 26,중앙동,죽성동,063-446-1789
11607,한식,반야돌솥밥,전북 군산시 싸전길 22-1,중앙동,죽성동,063-442-5606
11606,한식,경원아나고,전북 군산시 싸전길 22,중앙동,죽성동,063-445-7775
11600,일식,이가소바,전북 군산시 싸전길 21,중앙동,죽성동,
11599,도시락,밥심도시락,전북 군산시 싸전길 19,중앙동,죽성동,
11595,한식,옛날팥죽,전북 군산시 싸전길 15-1,중앙동,죽성동,063-442-8884
11590,한식,송가네숯불갈비,전북 군산시 진포로 165,조촌동,조촌동,063-446-8005
11589,한식,청하순대,전북 군산시 진포로 185,조촌동,조촌동,
11588,한식,조촌이층집,전북 군산시 진포로 183,조촌동,조촌동,063-442-8483
11586,한식,주공순대,전북 군산시 진포로 180,조촌동,조촌동,063-451-8880
11585,한식,시골순대,전북 군산시 진포로 177-2,조촌동,조촌동,063-445-0969
11583,한식,바다산붕장어,전북 군산시 진포로 177,조촌동,조촌동,063-445-7550
11582,한식,우리들식당,전북 군산시 진포로 177,조촌동,조촌동,
11581,한식,뚱이네 뼈다귀탕,전북 군산시 진포로 177,조촌동,조촌동,063-445-0322
11580,한식,우리들 해장국,전북 군산시 진포로 177,조촌동,조촌동,
11579,한식,전통순대국밥,전북 군산시 진포로 175,조촌동,조촌동,063-446-2431
11577,카페,다옴,전북 군산시 진포로 174,조촌동,조촌동,063-451-4728
11576,치킨,네네치킨조촌점,전북 군산시 진포로 169,조촌동,조촌동,063-446-4492
11573,한식,불타는 곱창,전북 군산시 진포로 169,조촌동,조촌동,
11572,한식,은영 순대국밥,전북 군산시 진포로 169,조촌동,조촌동,063-442-6991
11569,한식,1974연탄시절,전북 군산시 진포로 161,조촌동,조촌동,063-442-7772
11566,한식,서심세꼬시,전북 군산시 진포로 155,조촌동,조촌동,
11565,한식,이화식당,전북 군산시 진포로 155,조촌동,조촌동,063-442-4469
11564,한식,서해칼국수,전북 군산시 진포로 155,조촌동,조촌동,
11563,일식,왕돈까스,전북 군산시 조촌안5길 73,조촌동,조촌동,063-452-8280
11560,한식,대청마루 조촌점(시청),전북 군산시 조촌안5길 68,조촌동,조촌동,
11557,한식,오성산생삼겹,전북 군산시 조촌안4길 20,조촌동,조촌동,
11549,한식,군산옥,전북 군산시 조촌안3길 25,조촌동,조촌동,063-452-1340
11547,술집,뿡이네,전북 군산시 조촌안3길 26,조촌동,조촌동,
11542,한식,외갓집족발 조촌점,전북 군산시 조촌안3길 19,조촌동,조촌동,063-452-9997
11540,한식,이가매생이수제비칼국수,전북 군산시 조촌안3길 19,조촌동,조촌동,063-451-0208
11538,한식,추억의연탄갈비,전북 군산시 조촌안3길 16,조촌동,조촌동,
11537,치킨,호식이두마리치킨 조촌경암점,전북 군산시 조촌안3길 15,조촌동,조촌동,
11530,카페,포엠커피,전북 군산시 조촌안2길 18,조촌동,조촌동,
11526,카페,카페 속초,전북 군산시 조촌안1길 22,조촌동,조촌동,
11523,패스트푸드,커피콩볶는샌드위치(군산시청점),전북 군산시 조촌안1길 19,조촌동,조촌동,063-453-4455
11520,한식,일등동태찌개와 낙지볶음,전북 군산시 조촌안1길 14,조촌동,조촌동,063-451-1125
11513,한식,육대장군산시청점,전북 군산시 조촌로 38,조촌동,조촌동,063-452-9973
11506,양식,임실치즈피자,전북 군산시 조촌로 105,조촌동,조촌동,063-452-0019
11502,간식,스마일꽈배기,전북 군산시 조촌로 90,조촌동,조촌동,
11501,한식,불 만난 스테이크,전북 군산시 조촌로 90,조촌동,조촌동,063-910-9103
11498,치킨,노랑통닭 군산조촌점,전북 군산시 조촌로 86,조촌동,조촌동,063-452-2527
11494,한식,고우담본점,전북 군산시 조촌로 82,조촌동,조촌동,063-452-5999
11492,간식,르빵메종,전북 군산시 조촌로 79,조촌동,조촌동,063-451-3200
11489,분식,오병이어,전북 군산시 조촌로 74,조촌동,조촌동,
11486,한식,위대한 푸드,전북 군산시 조촌로 66,조촌동,조촌동,063-453-4222
11483,한식,닥엔돈스 군산조촌점,전북 군산시 조촌로 57,조촌동,조촌동,063-452-9282
11480,분식,알찬김밥,전북 군산시 조촌로 48,조촌동,조촌동,
11474,한식,인생설렁탕 군산시청점,전북 군산시 조촌로 36,조촌동,조촌동,063-451-0991
11473,중식,홍짜장,전북 군산시 조촌로 36,조촌동,조촌동,
11472,샤브샤브,등촌샤브칼국수,전북 군산시 조촌로 23,조촌동,조촌동,
11467,일식,황금초밥,전북 군산시 조촌로 168,조촌동,조촌동,063-732-1437
11466,술집,머시기수산회포차,전북 군산시 조촌로 168,조촌동,조촌동,
11465,치킨,신이내린닭 군산조촌점,전북 군산시 조촌로 168,조촌동,조촌동,063-445-2174
11461,카페,베이트리,전북 군산시 조촌로 163-1,조촌동,조촌동,
11450,간식,(유)다음 던킨도너츠 동군산병원점,전북 군산시 조촌로 149,조촌동,조촌동,063-452-9266
11449,퓨전요리,본죽&비빔밥 카페 동군산병원점,전북 군산시 조촌로 149,조촌동,조촌동,
11438,중식,은아반점,전북 군산시 조촌로 115,조촌동,조촌동,063-452-1221
11435,카페,엔제리너스조촌점,전북 군산시 조촌로 111,조촌동,조촌동,063-453-8778
11434,패스트푸드,롯데리아조촌디티점,전북 군산시 조촌로 111,조촌동,조촌동,063-461-0774
11433,카페,라임이즈,전북 군산시 조촌로 110,조촌동,조촌동,
11412,한식,왕궁해물칼국수,전북 군산시 양안로 46,조촌동,조촌동,
11409,한식,일품한우식당,전북 군산시 백릉로 112,조촌동,조촌동,063-442-9252
11401,한식,흥원칡냉면,전북 군산시 조촌5길 57,조촌동,조촌동,063-452-5660
11400,한식,바다마을,전북 군산시 조촌5길 78-6,조촌동,조촌동,063-451-3400
11399,카페,유한회사 미미카페,전북 군산시 조촌5길 74-6,조촌동,조촌동,063-453-0105
11398,중식,허선생짬뽕,전북 군산시 조촌5길 69,조촌동,조촌동,063-912-9090
11397,카페,메이드인태리,전북 군산시 조촌5길 68,조촌동,조촌동,
11394,카페,커피아오로,전북 군산시 조촌4길 22,조촌동,조촌동,063-453-9988
11392,한식,영신옥,전북 군산시 조촌4길 80,조촌동,조촌동,063-452-4092
11391,한식,군산해물찜,전북 군산시 조촌4길,조촌동,조촌동,
11390,치킨,수원왕갈비통닭&찐곱도리식당,전북 군산시 조촌4길 87,조촌동,조촌동,
11388,간식,"카페,열사흘",전북 군산시 조촌4길 78,조촌동,조촌동,
11382,치킨,구어진닭시청점,전북 군산시 조촌4길 37,조촌동,조촌동,
11380,한식,정이가,전북 군산시 조촌4길 36,조촌동,조촌동,063-452-1044
11379,한식,모정김치찌게,전북 군산시 조촌4길 34-4,조촌동,조촌동,063-461-0102
11377,일식,꽃보다초밥,전북 군산시 조촌4길 33-4,조촌동,조촌동,
11376,한식,순이칼국수,전북 군산시 조촌4길 33-4,조촌동,조촌동,
11374,한식,신우2호점 소머리 국밥,전북 군산시 조촌4길 32,조촌동,조촌동,063-452-9896
11373,한식,신우식당2호점소머리국밥,전북 군산시 조촌4길 32,조촌동,조촌동,063-452-9896
11371,한식,오매맛있는족발,전북 군산시 조촌4길 31,조촌동,조촌동,
11370,중식,대영반점,전북 군산시 조촌4길 31,조촌동,조촌동,063-452-0886
11369,한식,또치네삼겹살,전북 군산시 조촌4길 31,조촌동,조촌동,063-453-6505
11367,한식,본가,전북 군산시 조촌4길 30-5,조촌동,조촌동,
11366,샤브샤브,소담촌,전북 군산시 조촌4길 3,조촌동,조촌동,
11364,분식,얌샘김밥 군산시청점,전북 군산시 조촌4길 3,조촌동,조촌동,063-732-3378
11360,일식,오유미당 군산시청점,전북 군산시 조촌4길 3,조촌동,조촌동,063-912-9595
11359,카페,투썸플레이스 군산시청점,전북 군산시 조촌4길 3,조촌동,조촌동,063-451-2320
11357,한식,명동국수,전북 군산시 조촌4길 27,조촌동,조촌동,063-452-5152
11355,한식,나루터,전북 군산시 조촌4길 25,조촌동,조촌동,
11353,중식,군산짬뽕,전북 군산시 조촌4길 24-9,조촌동,조촌동,063-453-3689
11351,한식,군산김치칼국수,전북 군산시 조촌4길 24-4,조촌동,조촌동,063-452-7711
11349,한식,한가네추어탕,전북 군산시 조촌4길 20,조촌동,조촌동,063-453-3322
11348,카페,빽다방 군산시청점,전북 군산시 조촌4길 15,조촌동,조촌동,
11346,카페,에이비씨커피시청점,전북 군산시 조촌4길 13,조촌동,조촌동,063-452-1237
11345,치킨,멕시카나 조촌점,전북 군산시 조촌4길 13,조촌동,조촌동,063-453-7999
11342,한식,죽이야기 시청점,전북 군산시 조촌4길 11,조촌동,조촌동,063-471-6233
11341,카페,숲이야기,전북 군산시 조촌4길 11,조촌동,조촌동,
11337,한식,천리향,전북 군산시 조촌3길 29,조촌동,조촌동,063-452-7272
11336,중식,메이란,전북 군산시 조촌3길 19,조촌동,조촌동,
11335,중식,중화성,전북 군산시 조촌3길 12,조촌동,조촌동,063-451-9000
11332,한식,밥짓는부엌,전북 군산시 조촌2길 30-4,조촌동,조촌동,063-451-7509
11331,한식,풍미정,전북 군산시 조촌2길 24,조촌동,조촌동,063-451-2233
11327,한식,명가람갈비,전북 군산시 조촌2길 46,조촌동,조촌동,063-451-9924
11325,한식,고가네왕족발보쌈,전북 군산시 조촌2길 34,조촌동,조촌동,
11324,한식,영심이푸드,전북 군산시 조촌2길 20,조촌동,조촌동,063-442-8000
11320,뷔페,부흥부폐식당,전북 군산시 양촌1길 38,조촌동,조촌동,063-443-1223
11317,일식,바다애향기,전북 군산시 양안로 82,조촌동,조촌동,
11316,한식,가연,전북 군산시 양안로 51,조촌동,조촌동,
11315,한식,콩뿌리콩나물국밥시청점,전북 군산시 양안로 50-1,조촌동,조촌동,063-451-0631
11314,술집,투다리,전북 군산시 양안로 143,조촌동,조촌동,063-453-9792
11309,간식,파리바게뜨조촌점,전북 군산시 양안로 122,조촌동,조촌동,063-452-0167
11306,음식점,육지&해녀,전북 군산시 양안로 99,조촌동,조촌동,
11304,한식,연탄일번지,전북 군산시 양안로 97,조촌동,조촌동,
11300,한식,가람갈비,전북 군산시 양안로 81,조촌동,조촌동,063-464-8100
11297,한식,햇살마루청둥오리,전북 군산시 양안로 76,조촌동,조촌동,063-451-5291
11295,카페,아프리카커피가게,전북 군산시 양안로 74,조촌동,조촌동,
11294,간식,자유로 베이커리,전북 군산시 양안로 64,조촌동,조촌동,063-451-1379
11289,한식,선미집,전북 군산시 양안로 47,조촌동,조촌동,063-452-5375
11288,한식,다올바지락죽,전북 군산시 양안로 32,조촌동,조촌동,063-452-1612
11287,한식,예술냉면칼국수(시청점),전북 군산시 양안로 32,조촌동,조촌동,
11286,양식,키친후가,전북 군산시 양안로 32,조촌동,조촌동,063-451-1217
11284,카페,라모크커피공장군산점,전북 군산시 양안로 19,조촌동,조촌동,
11283,한식,가로수식당,전북 군산시 양안로 19,조촌동,조촌동,
11282,양식,피자스쿨 군산조촌점,전북 군산시 양안로 147,조촌동,조촌동,
11276,분식,분식시간,전북 군산시 양안로 137,조촌동,조촌동,063-451-0739
11272,간식,빵바구니,전북 군산시 양안로 137,조촌동,조촌동,063-451-0855
11264,치킨,멕시칸치킨,전북 군산시 양안로 122,조촌동,조촌동,
11259,분식,다사랑분식,전북 군산시 양안로 117,조촌동,조촌동,063-451-5209
11258,술집,해바라기가맥,전북 군산시 양안로 107,조촌동,조촌동,
11257,양식,베테랑생돈까스앤커피,전북 군산시 양안로 103-1,조촌동,조촌동,063-452-5582
11256,양식,피자나라치킨공주 군산조촌점,전북 군산시 양안로 103,조촌동,조촌동,063-454-8115
11255,한식,정석통바베큐족구이,전북 군산시 양안로 103,조촌동,조촌동,063-452-3434
11253,분식,스쿨푸드 군산점,전북 군산시 양안3길 22,조촌동,조촌동,
11249,한식,토속해장국,전북 군산시 신촌2길 8-2,조촌동,조촌동,063-452-5388
11248,한식,소머리국밥과돈까스,전북 군산시 신촌2길 7-7,조촌동,조촌동,
11246,한식,몽실정,전북 군산시 신촌2길 4-6,조촌동,조촌동,063-453-8184
11245,한식,최가네식당,전북 군산시 신촌2길 4-3,조촌동,조촌동,
11244,한식,신선옥,전북 군산시 신촌2길 8-4,조촌동,조촌동,
11235,일식,오마이카츠 군산시청점,전북 군산시 시청로 8-6,조촌동,조촌동,
11234,한식,윤씨네해장국,전북 군산시 시청로 29,조촌동,조촌동,063-445-8361
11228,카페,군산장애인종합복지관 운영 꿈앤카페,전북 군산시 시청로 17,조촌동,조촌동,063-466-7981
11227,카페,아프리카커피초콜릿군산시청점,전북 군산시 시청로 16,조촌동,조촌동,063-452-1543
11225,한식,미가옥,전북 군산시 시청로 10,조촌동,조촌동,063-452-0905
11217,한식,현대곱창,전북 군산시 부골2길 49,조촌동,조촌동,
11215,양식,피자굼터,전북 군산시 부골2길 52,조촌동,조촌동,063-453-9494
11211,한식,찜탕명가,전북 군산시 부골2길 50,조촌동,조촌동,063-453-0103
11210,술집,마실호프,전북 군산시 부골2길 49,조촌동,조촌동,
11209,한식,동군산삼겹,전북 군산시 부골2길 49,조촌동,조촌동,
11208,한식,길포차,전북 군산시 부골2길 47-6,조촌동,조촌동,063-451-7658
11207,술집,(유)디앤제이유통,전북 군산시 부골2길 47-6,조촌동,조촌동,063-452-9258
11206,한식,솥뚜껑일번지,전북 군산시 부골2길 47-4,조촌동,조촌동,063-451-1131
11205,한식,두찜 군산조촌점,전북 군산시 부골2길 47-11,조촌동,조촌동,063-453-5678
11204,술집,엘배강,전북 군산시 부골2길 47-11,조촌동,조촌동,
11202,양식,리에또쿠치나,전북 군산시 부골2길 39,조촌동,조촌동,063-451-8817
11197,중식,자장면시키신분,전북 군산시 부골2길 14-12,조촌동,조촌동,063-452-8277
11191,술집,짠,전북 군산시 부골1길 39,조촌동,조촌동,
11189,한식,시루향기 조촌점,전북 군산시 부골1길 1,조촌동,조촌동,063-451-9922
11187,중식,장강,전북 군산시 법원로 89,조촌동,조촌동,063-453-8846
11186,한식,진수성찬,전북 군산시 법원로 17,조촌동,조촌동,
11185,한식,서민옥,전북 군산시 법원로 98,조촌동,조촌동,
11184,카페,카페아몬드,전북 군산시 법원로 86,조촌동,조촌동,
11181,카페,더리터 군산법원점,전북 군산시 법원로 63,조촌동,조촌동,063-732-0929
11178,카페,웨이브(Wave),전북 군산시 법원로 57,조촌동,조촌동,
11170,카페,리오보,전북 군산시 법원로 35,조촌동,조촌동,063-452-0722
11169,한식,거목아리랑,전북 군산시 법원로 20,조촌동,조촌동,
11164,한식,주식회사 더본조촌,전북 군산시 번영로 151,조촌동,조촌동,063-451-6111
11161,카페,카페푸른초장,전북 군산시 번영로 203,조촌동,조촌동,
11151,한식,진나루해장국,전북 군산시 번영로 173,조촌동,조촌동,
11141,한식,군산순대국밥,전북 군산시 백릉안5길 13,조촌동,조촌동,063-451-0871
11128,한식,연정가든,전북 군산시 백릉로 99-5,조촌동,조촌동,063-446-4719
11125,간식,펀펀케이크,전북 군산시 백릉로 94,조촌동,조촌동,
11123,식품판매,지호식당,전북 군산시 백릉로 89,조촌동,조촌동,063-910-6555
11116,한식,우리밥상,전북 군산시 백릉로 76,조촌동,조촌동,063-451-5033
11113,카페,눈카페,전북 군산시 백릉로 71,조촌동,조촌동,
11104,치킨,비에이치씨조촌점,전북 군산시 백릉로 56,조촌동,조촌동,
11102,간식,바게뜨과자점,전북 군산시 백릉로 46,조촌동,조촌동,063-445-7803
11098,분식,훈짱 왕만두,전북 군산시 백릉로 36,조촌동,조촌동,063-445-2629
11097,음식점,코코수산,전북 군산시 백릉로 222,조촌동,조촌동,063-466-8809
11091,분식,누나네호떡,전북 군산시 백릉로 203,조촌동,조촌동,
11087,한식,최종희부뚜막디오션점,전북 군산시 백릉로 198,조촌동,조촌동,
11078,음식점,맛있는 김밥,전북 군산시 백릉로 162,조촌동,조촌동,063-451-6247
11076,한식,장인족발,전북 군산시 백릉로 162,조촌동,조촌동,
11071,카페,하이이(HYEE),전북 군산시 백릉로 151,조촌동,조촌동,
11070,분식,바삭분식,전북 군산시 백릉로 151,조촌동,조촌동,
11068,한식,호돌이해물등뼈짐,전북 군산시 백릉로 151,조촌동,조촌동,063-442-6665
11060,치킨,다사랑치킨 조촌점,전북 군산시 백릉로 124-7,조촌동,조촌동,063-452-0505
11056,한식,대로식당,전북 군산시 백릉로 118,조촌동,조촌동,
11055,식품판매,집밥진수성찬,전북 군산시 백릉로 116-1,조촌동,조촌동,063-912-9611
11054,치킨,충만치킨 조촌점,전북 군산시 백릉로 114-1,조촌동,조촌동,063-451-9279
11048,카페,소담,전북 군산시 백릉로 102,조촌동,조촌동,
11047,일식,새우랑소바랑,전북 군산시 백릉로 102,조촌동,조촌동,
11038,카페,벌크커피 조촌점,전북 군산시 궁포안2길 27,조촌동,조촌동,
11035,아시아음식,포메인 군산점,전북 군산시 궁포안2길 27,조촌동,조촌동,
11034,분식,청년다방 조촌점,전북 군산시 궁포안2길 27,조촌동,조촌동,
11028,카페,카페드롭탑 키움병원점,전북 군산시 궁포안2길 24,조촌동,조촌동,
11027,술집,생활맥주,전북 군산시 궁포안2길 20,조촌동,조촌동,
11026,중식,단성무이,전북 군산시 궁포안2길 20,조촌동,조촌동,
11021,한식,무쏘무한리필군산조촌점,전북 군산시 궁포3로 7,조촌동,조촌동,063-453-9292
11020,음식점,고기에마음을담다,전북 군산시 궁포3로 7,조촌동,조촌동,
11019,치킨,비에이치씨(BHC)롯데몰점,전북 군산시 궁포3로 7,조촌동,조촌동,
11018,술집,부라보맥주 군산조촌점,전북 군산시 궁포3로 7,조촌동,조촌동,063-442-5909
11017,한식,육회먹은 연어,전북 군산시 궁포3로 7,조촌동,조촌동,063-446-9059
11016,양식,다온's Bistro,전북 군산시 궁포3로 7,조촌동,조촌동,063-445-8054
11004,퓨전요리,본죽앤비빔밥cafe군산디오션점,전북 군산시 궁포3로 5,조촌동,조촌동,063-452-1400
10995,간식,뚜레쥬르 군산디오션점,전북 군산시 궁포3로 14,조촌동,조촌동,
10994,간식,이삭토스트 디오션점,전북 군산시 궁포3로 14,조촌동,조촌동,
10992,일식,연초밥,전북 군산시 궁포3로 14,조촌동,조촌동,063-443-3456
10991,일식,유부공방 군산점,전북 군산시 궁포3로 14,조촌동,조촌동,
10990,양식,유로코피자군산점,전북 군산시 궁포3로 14,조촌동,조촌동,063-445-1010
10989,분식,신전떡볶이 조촌점,전북 군산시 궁포3로 14,조촌동,조촌동,063-911-8977
10988,카페,더리터 군산디오션점,전북 군산시 궁포3로 14,조촌동,조촌동,063-912-9319
10987,일식,용우동 디오션시티점,전북 군산시 궁포3로 14,조촌동,조촌동,
10977,술집,역전할머니맥주 조촌점,전북 군산시 궁포3로 13,조촌동,조촌동,
10976,한식,국수나무 디오션점,전북 군산시 궁포3로 13,조촌동,조촌동,063-445-4863
10975,한식,군자대한곱창군산조촌점,전북 군산시 궁포3로 13,조촌동,조촌동,
10972,술집,인쌩맥주 디오션점,전북 군산시 궁포3로 13,조촌동,조촌동,
10971,술집,쉼표맥주 조촌점,전북 군산시 궁포3로 13,조촌동,조촌동,
10970,패스트푸드,맘스터치 조촌점,전북 군산시 궁포3로 13,조촌동,조촌동,063-445-1478
10966,카페,빽다방 군산조촌디오션점,전북 군산시 궁포3로 12,조촌동,조촌동,
10965,음식점,94대패,전북 군산시 궁포3로 12,조촌동,조촌동,
10964,카페,꼬소한지수네,전북 군산시 궁포2로 4,조촌동,조촌동,063-732-9609
10962,한식,양평해장국구암앤드오션점,전북 군산시 궁포2로 4,조촌동,조촌동,
10961,술집,투다리(푸르지오점),전북 군산시 궁포2로 4,조촌동,조촌동,063-445-0853
10935,치킨,비비큐(BBQ)군산조촌점,전북 군산시 궁포2로 20,조촌동,조촌동,063-446-9285
10914,카페,원유로 스페셜티 군산디오션시티점,전북 군산시 궁포1로 48,조촌동,조촌동,
10912,샐러드,샐러드박스 군산디오션점,전북 군산시 궁포1로 48,조촌동,조촌동,063-445-9990
10911,패스트푸드,에그존샌드베이,전북 군산시 궁포1로 48,조촌동,조촌동,063-446-3311
10909,아시아음식,탄탄면공방 군산디오션시티점,전북 군산시 궁포1로 48,조촌동,조촌동,
10908,일식,수유리우동집(군산디오션점),전북 군산시 궁포1로 48,조촌동,조촌동,063-445-3355
10903,카페,더벤티군산디오션점,전북 군산시 궁포1로 46,조촌동,조촌동,063-446-2433
10902,치킨,지코바 조촌점,전북 군산시 궁포1로 46,조촌동,조촌동,
10900,치킨,공만치킨 디오션점,전북 군산시 궁포1로 46,조촌동,조촌동,063-442-0442
10898,일식,우수,전북 군산시 궁포1로 44,조촌동,조촌동,
10896,간식,글로어 군산조촌점,전북 군산시 궁포1로 44,조촌동,조촌동,
10892,한식,최성광참숯불닭갈비,전북 군산시 궁포1로 24-9,조촌동,조촌동,
10891,간식,던킨도너츠,전북 군산시 궁포1로 24-9,조촌동,조촌동,
10890,카페,투썸플레이스군산디오션시티,전북 군산시 궁포1로 24-9,조촌동,조촌동,063-446-3858
10888,치킨,교촌치킨 구암조촌점,전북 군산시 궁포1로 24-5,조촌동,조촌동,063-445-8292
10885,분식,신포우리만두롯데몰점,전북 군산시 궁포1로 24-5,조촌동,조촌동,063-446-1244
10884,카페,바빈스커피 군산조촌점,전북 군산시 궁포1로 24-5,조촌동,조촌동,063-443-1962
10883,카페,공차 군산조촌점,전북 군산시 궁포1로 24-5,조촌동,조촌동,
10880,카페,에이비씨커피(조촌점),전북 군산시 궁포1로 24-5,조촌동,조촌동,
10879,카페,설빙조촌점,전북 군산시 궁포1로 24-5,조촌동,조촌동,063-443-0433
10878,분식,고봉민김밥인 조촌점,전북 군산시 궁포1로 24-5,조촌동,조촌동,063-446-2480
10877,카페,마마아쁘(조촌점),전북 군산시 궁포1로 24-5,조촌동,조촌동,063-445-0010
10876,한식,가장맛있는족발조촌점,전북 군산시 궁포1로 24-5,조촌동,조촌동,
10873,한식,명동면옥,전북 군산시 궁포1로 24-3,조촌동,조촌동,
10871,간식,파리바게뜨군산디오션점,전북 군산시 궁포1로 24-3,조촌동,조촌동,
10868,치킨,푸라닭,전북 군산시 궁포1로 24-3,조촌동,조촌동,
10867,양식,피자먹다 조촌점,전북 군산시 궁포1로 24-3,조촌동,조촌동,063-443-0010
10865,한식,경원해물찜아구찜,전북 군산시 궁포1로 24-3,조촌동,조촌동,063-468-2242
10863,분식,불스떡볶이동군산점,전북 군산시 궁포1로 24-3,조촌동,조촌동,063-452-9898
10860,한식,궁전꽃게장본점,전북 군산시 궁포1로 24-3,조촌동,조촌동,063-466-6677
10837,한식,불타는명태찜,전북 군산시 경촌2길 38,조촌동,조촌동,063-442-1573
10836,한식,원조군산아구,전북 군산시 경촌2길 36-6,조촌동,조촌동,063-445-5063
10835,한식,연도식당,전북 군산시 경촌2길 36-3,조촌동,조촌동,063-452-7536
10834,카페,이디야커피 조촌점,전북 군산시 경촌2길 36-2,조촌동,조촌동,
10833,한식,정가네묵은지생갈비찜,전북 군산시 경촌2길 36-16,조촌동,조촌동,
10832,카페,모나미(monami),전북 군산시 경촌2길 36-1,조촌동,조촌동,063-443-1034
10825,한식,신돈쪽갈비,전북 군산시 경암로 48,조촌동,조촌동,063-442-9903
10823,한식,으뜸갈비,전북 군산시 경암3길 5,조촌동,조촌동,063-446-2799
10822,한식,금강꽃게장,전북 군산시 진포로 210,조촌동,조촌동,063-443-5760
10814,양식,피자마루조촌점,전북 군산시 경기장로 141,조촌동,조촌동,063-451-1082
10812,간식,못난이꽈배기,전북 군산시 경기장로 141,조촌동,조촌동,
10804,한식,별미콩나물국밥,전북 군산시 검다메2길 3,조촌동,조촌동,063-452-2134
10800,한식,대정칼국수,전북 군산시 검다메2길 29-4,조촌동,조촌동,063-452-1140
10799,한식,원조설렁탕,전북 군산시 검다메2길 19,조촌동,조촌동,063-452-3455
10797,중식,루키차이나,전북 군산시 검다메2길 18-6,조촌동,조촌동,063-452-0203
10796,한식,조하영원조목살집,전북 군산시 검다메2길 18-5,조촌동,조촌동,063-467-0828
10793,카페,카페봄꿈,전북 군산시 검다메2길 10,조촌동,조촌동,
10792,간식,사월,전북 군산시 검다메1길 56,조촌동,조촌동,063-452-9888
10790,카페,MCL,전북 군산시 검다메1길 30,조촌동,조촌동,
10789,분식,걸작떡볶이치킨,전북 군산시 검다메1길 22,조촌동,조촌동,
10788,한식,정주식당,전북 군산시 검다메1길 17-8,조촌동,조촌동,063-452-5076
10787,한식,미림,전북 군산시 검다메1길 17-4,조촌동,조촌동,063-451-0019
10786,한식,풍년식당,전북 군산시 검다메1길 11,조촌동,조촌동,063-453-4533
10783,한식,바다양푼이동태탕,전북 군산시 풍문안2길 47,흥남동,장재동,063-446-2681
10777,음식점,동네방네,전북 군산시 풍문2길 34,흥남동,장재동,063-445-1028
10775,한식,우리팥죽,전북 군산시 풍마길 16-1,흥남동,장재동,063-000-0000
10773,중식,취향반점,전북 군산시 풍남길 42,흥남동,장재동,063-445-1394
10771,중식,영빈각,전북 군산시 풍남길 36,흥남동,장재동,063-442-6105
10757,한식,미미집,전북 군산시 장재길 6,흥남동,장재동,
10756,한식,산천흑염소,전북 군산시 장재길 18-4,흥남동,장재동,063-446-0995
10753,한식,뽀빠이냉면,전북 군산시 장재길 12-4,흥남동,장재동,063-446-1785
10745,한식,남도로스,전북 군산시 미원로 126-3,흥남동,장재동,063-445-8809
10740,한식,경일옻닭,전북 군산시 동팔마길 41,흥남동,장재동,
10737,한식,신가네정읍국밥집,전북 군산시 동팔마길 35,흥남동,장재동,
10731,카페,군산문화협동조합 로컬아이,전북 군산시 해망로 244-7,월명동,장미동,063-461-1908
10730,카페,올드브릭,전북 군산시 해망로 235,월명동,장미동,063-442-5157
10729,카페,엔젤커피,전북 군산시 해망로 233,월명동,장미동,063-445-1117
10728,카페,미즈커피,전북 군산시 해망로 232,월명동,장미동,063-445-1930
10725,한식,아리랑,전북 군산시 해망로 224,월명동,장미동,063-442-1207
10722,양식,(유)해망로196,전북 군산시 해망로 196,월명동,장미동,
10716,한식,서울이모네식당,전북 군산시 평화길 137,월명동,장미동,063-463-1307
10715,한식,황금소한우갈비살,전북 군산시 평화길 132,월명동,장미동,
10714,한식,신용문객잔,전북 군산시 평화길 132,월명동,장미동,063-443-3070
10713,한식,보물섬자연산횟집,전북 군산시 평화길 126-3,월명동,장미동,063-445-1464
10711,치킨,치킨이남달라,전북 군산시 평화길 123-4,월명동,장미동,063-442-9258
10710,한식,명동소바,전북 군산시 평화길 122,월명동,장미동,063-446-1366
10707,술집,핑크츄러스by핑크커피,전북 군산시 중앙로 152,월명동,장미동,
10692,분식,신포우리만두군산점,전북 군산시 동령길 5,월명동,장미동,063-445-0389
10683,한식,만나식당,전북 군산시 장미2길 18-1,월명동,장미동,
10682,한식,찬이네밥상,전북 군산시 장미2길 16,월명동,장미동,
10680,카페,백곰다방,전북 군산시 장미2길 11,월명동,장미동,
10679,한식,왕십리진곱창,전북 군산시 장미2길 11,월명동,장미동,063-446-6363
10676,한식,그랜드녹두팥칼국수,전북 군산시 장미1길 30,월명동,장미동,063-911-7355
10672,한식,장터촌,전북 군산시 장미1길 22-9,월명동,장미동,063-446-8878
10670,한식,정은냉면,전북 군산시 장미1길 22-3,월명동,장미동,063-465-9023
10669,간식,리본 엑스오엑스,전북 군산시 장미1길 21,월명동,장미동,
10664,술집,이슬처럼,전북 군산시 동령길 9,월명동,장미동,
10661,양식,러브발렌타인,전북 군산시 동령길 6,월명동,장미동,063-445-2745
10660,중식,빈해원,전북 군산시 동령길 57,월명동,장미동,
10659,한식,감성게장 앤 물고기,전북 군산시 동령길 48,월명동,장미동,
10657,카페,솔보,전북 군산시 동령길 46,월명동,장미동,
10653,한식,인생극장,전북 군산시 동령길 38,월명동,장미동,063-443-2300
10650,한식,예촌,전북 군산시 동령길 31,월명동,장미동,063-446-0222
10649,술집,중화객잔,전북 군산시 동령길 29,월명동,장미동,063-446-2233
10648,중식,중화반점,전북 군산시 동령길 27,월명동,장미동,063-452-4044
10647,카페,진향,전북 군산시 동령길 27,월명동,장미동,063-445-0917
10646,카페,하이홉(hihope),전북 군산시 동령길 26,월명동,장미동,
10643,카페,군산시홍차이야기,전북 군산시 동령길 22-1,월명동,장미동,
10642,카페,더블유바리스타,전북 군산시 동령길 21,월명동,장미동,
10635,중식,군산점보짬뽕,전북 군산시 동령길 10,월명동,장미동,063-443-0851
10632,카페,티피오(TPO),전북 군산시 동령길 1,월명동,장미동,
10629,양식,인테이블,전북 군산시 내항2길 32,월명동,장미동,
10628,한식,엽'S,전북 군산시 내항2길 32,월명동,장미동,
10627,한식,엉클'S푸드,전북 군산시 내항2길 32,월명동,장미동,
10625,식품판매,푸드스테이션,전북 군산시 내항1길 59,월명동,장미동,
10622,카페,카페푸드스테이션스,전북 군산시 내항1길 59,월명동,장미동,
10617,중식,태성각,전북 군산시 임피면 호원대3길 58,임피면,임피면,063-453-1243
10614,유흥시설,대박,전북 군산시 임피면 호원대3길 54,임피면,임피면,063-453-1014
10612,슈퍼마켓,삼촌네,전북 군산시 임피면 호원대3길 53,임피면,임피면,
10611,중식,호원대북경,전북 군산시 임피면 호원대3길 51,임피면,임피면,
10609,도시락,맘마킹도시락,전북 군산시 임피면 호원대3길 50-1,임피면,임피면,063-453-8983
10608,한식,호원대식당,전북 군산시 임피면 호원대3길 48-3,임피면,임피면,063-453-5256
10607,분식,옆집떡볶이,전북 군산시 임피면 호원대3길 48-2,임피면,임피면,
10605,술집,따라와,전북 군산시 임피면 호원대3길,임피면,임피면,063-453-2717
10604,한식,구절리가든,전북 군산시 임피면 호원대1길 364,임피면,임피면,063-466-3000
10601,치킨,못말리는 프랜즈,전북 군산시 임피면 호원대3길 62,임피면,임피면,063-451-9914
10600,한식,청보리가든,전북 군산시 임피면 항쟁로 78,임피면,임피면,063-453-3251
10594,한식,미소한우식당,전북 군산시 임피면 계남1길 52,임피면,임피면,063-453-8795
10590,한식,봉이네맛집,전북 군산시 임피면 임피2길 50,임피면,임피면,063-453-2615
10581,한식,곰돌이해장국,전북 군산시 임피면 서원석곡로 601,임피면,임피면,
10577,중식,양자강해물짬뽕,전북 군산시 임피면 서원석곡로 586,임피면,임피면,063-453-5669
10576,카페,차뜨락,전북 군산시 임피면 서원석곡로 468-7,임피면,임피면,063-467-2143
10572,한식,대청마루 임피점,전북 군산시 임피면 남산로 109,임피면,임피면,063-453-5230
10571,한식,만찬식당,전북 군산시 임피면 범호재길 7,임피면,임피면,063-453-3383
10569,한식,황소고을,전북 군산시 임피면 동문길 1,임피면,임피면,063-453-2443
10565,한식,순두부칡냉면,전북 군산시 임피면 동군산로 751,임피면,임피면,
10564,한식,일품명가,전북 군산시 임피면 동군산로 746,임피면,임피면,063-452-4001
10563,중식,태평반점,전북 군산시 임피면 동군산로 731-3,임피면,임피면,063-453-6178
10558,한식,제일식당,전북 군산시 임피면 동군산로 710,임피면,임피면,063-453-0873
10553,식품판매,한우마을,전북 군산시 임피면 동군산로 708,임피면,임피면,063-453-9288
10547,분식,엄마손김밥,전북 군산시 임피면 동군산로 698,임피면,임피면,063-453-2191
10544,한식,그때그집,전북 군산시 임피면 동군산로 694,임피면,임피면,063-453-0288
10542,한식,옹고집쌈밥,전북 군산시 임피면 동군산로 685,임피면,임피면,063-453-5566
10540,치킨,경희통닭,전북 군산시 임피면 동군산로 677,임피면,임피면,063-453-8292
10539,한식,시골옻닭,전북 군산시 임피면 동군산로 677,임피면,임피면,063-453-3874
10537,중식,그린반점,전북 군산시 임피면 동군산로,임피면,임피면,063-453-5544
10535,한식,금송한우 직매장,전북 군산시 임피면 남상1길 55,임피면,임피면,063-452-5400
10532,한식,늘바다,전북 군산시 임피면 남상1길 2,임피면,임피면,063-451-0897
10527,한식,기와집,전북 군산시 임피면 임피2길 21,임피면,임피면,063-453-2010
10526,한식,명인,전북 군산시 임피면 서원석곡로 602,임피면,임피면,063-452-2459
10523,한식,국수리아,전북 군산시 월명로 485,월명동,월명동,
10518,술집,오솔치킨,전북 군산시 월명로 496,월명동,월명동,
10514,카페,엔엔엔씨,전북 군산시 월명로 491-1,월명동,월명동,063-462-1215
10509,카페,다과랩,전북 군산시 월명로 487-2,월명동,월명동,063-465-3670
10508,간식,브라보명품찹쌀꽈배기 군산월명점,전북 군산시 월명로 485,월명동,월명동,
10507,카페,빵구석,전북 군산시 월명로 483-1,월명동,월명동,
10505,카페,커피플래닛두두,전북 군산시 월명로 482,월명동,월명동,063-468-5270
10501,분식,스마일분식,전북 군산시 월명로 479,월명동,월명동,
10499,카페,듀커피,전북 군산시 월명로 477-1,월명동,월명동,063-466-7090
10498,카페,카페어소,전북 군산시 월명로 477,월명동,월명동,
10495,한식,대정소바,전북 군산시 구영7길 36,월명동,월명동,063-445-4808
10493,한식,군산복집,전북 군산시 구영7길 15,월명동,월명동,063-446-0118
10492,한식,돈방석숯불갈비,전북 군산시 월명2길 10,월명동,월명동,
10490,분식,김밥고을,전북 군산시 월명1길 3,월명동,월명동,063-462-5507
10486,한식,군산대표생선구이집,전북 군산시 월명1길 3,월명동,월명동,063-446-3839
10484,카페,엘투와이투카페(L2Y2 CAFE),전북 군산시 월명1길 15-3,월명동,월명동,
10482,술집,타코야끼,전북 군산시 월명1길 10,월명동,월명동,
10481,카페,카페남다른데일리,전북 군산시 미장남로 111-7,월명동,월명동,
10479,카페,월플라워&스위트,전북 군산시 동국사길 5,월명동,월명동,063-443-5577
10478,카페,달달쭈봉,전북 군산시 동국사길 4,월명동,월명동,
10477,카페,"찻집, 월명동",전북 군산시 동국사길 4,월명동,월명동,
10475,간식,이씨네호두과자,전북 군산시 대학로 80,월명동,월명동,063-445-3138
10472,카페,카페아른,전북 군산시 대학로 74,월명동,월명동,
10469,카페,도란,전북 군산시 구영신창길 61,월명동,월명동,
10468,분식,진미당,전북 군산시 구영신창길 59,월명동,월명동,
10466,간식,흰쌀보리협동조합오남매,전북 군산시 구영신창길 59,월명동,월명동,063-446-8187
10463,카페,솔라그라티아,전북 군산시 구영신창길 45,월명동,월명동,063-446-2454
10462,한식,은아수,전북 군산시 구영신창길 31,월명동,월명동,
10461,분식,올리브,전북 군산시 구영신창길 31,월명동,월명동,
10459,치킨,맥시칸치킨월명점,전북 군산시 구영7길 7,월명동,월명동,063-445-3650
10455,카페,헤이커피(hey coffee),전북 군산시 구영7길 49-1,월명동,월명동,
10454,술집,양다리,전북 군산시 구영7길 45,월명동,월명동,063-910-9119
10452,중식,옛날손짜장,전북 군산시 구영7길 43,월명동,월명동,063-445-5559
10450,한식,대정소바,전북 군산시 구영7길 36,월명동,월명동,
10449,한식,대정칼국수,전북 군산시 구영7길 34-1,월명동,월명동,
10448,한식,고려옥,전북 군산시 구영7길 34,월명동,월명동,063-446-0544
10446,한식,부광족발 군산점,전북 군산시 구영7길 32-1,월명동,월명동,063-445-0999
10445,일식,노조미생라멘 (월명점),전북 군산시 구영7길 32-1,월명동,월명동,063-445-3984
10443,카페,시간무늬,전북 군산시 구영7길 30,월명동,월명동,063-910-1916
10442,한식,일흥옥2,전북 군산시 구영7길 27,월명동,월명동,
10441,한식,일흥옥,전북 군산시 구영7길 25,월명동,월명동,
10440,간식,씨앗호떡,전북 군산시 구영7길 24,월명동,월명동,
10439,한식,콩뜰,전북 군산시 구영7길 21-9,월명동,월명동,063-445-2219
10436,한식,일신옥,전북 군산시 구영7길 20,월명동,월명동,063-461-1004
10435,한식,일해옥,전북 군산시 구영7길 19,월명동,월명동,063-443-0999
10434,한식,진미식당,전북 군산시 구영7길 18,월명동,월명동,063-445-7790
10432,카페,더리터 군산월명점,전북 군산시 구영6길 54,월명동,월명동,
10431,한식,예인촌,전북 군산시 구영6길 50,월명동,월명동,063-445-8307
10430,한식,부활냉면,전북 군산시 구영6길 48-1,월명동,월명동,063-445-9059
10429,카페,아르디,전북 군산시 구영6길 48,월명동,월명동,063-445-8238
10427,한식,일출옥,전북 군산시 구영6길 22-3,월명동,월명동,
10426,카페,고우당,전북 군산시 구영6길 19,월명동,월명동,063-443-2606
10425,카페,당신이나보다행복하길바래,전북 군산시 구영6길 16,월명동,월명동,
10424,한식,정여사전집,전북 군산시 구영6길 13,월명동,월명동,
10421,분식,반장즉석떡볶이 군산점,전북 군산시 구영6길 10-1,월명동,월명동,063-910-8777
10420,한식,미도리,전북 군산시 구영6길 10,월명동,월명동,063-442-7171
10418,한식,순희네생선집,전북 군산시 구영5길 41,월명동,월명동,063-471-3781
10416,일식,월명초밥,전북 군산시 구영5길 25,월명동,월명동,
10414,술집,투다리월명점,전북 군산시 구영5길 21-3,월명동,월명동,
10412,중식,다다원,전북 군산시 구영5길 21-3,월명동,월명동,063-445-5507
10409,카페,카페 키즈나,전북 군산시 구영3길 41,월명동,월명동,
10406,카페,잠언(Prov) 16:3,전북 군산시 구영3길 33-1,월명동,월명동,063-466-6232
10405,술집,월미당,전북 군산시 구영3길 30,월명동,월명동,
10404,식품,컨츄리맨커피,전북 군산시 구영3길 29,월명동,월명동,063-445-9520
10403,카페,소현고택,전북 군산시 구영3길 22-1,월명동,월명동,
10401,한식,락원회관,전북 군산시 구영3길 21-1,월명동,월명동,063-446-9255
10400,한식,월명식당,전북 군산시 구영3길 11-1,월명동,월명동,063-446-0372
10396,카페,모던청와,전북 군산시 구영1길 24-3,월명동,월명동,
10390,한식,자매식당,전북 군산시 옥서면 원성산2길 1,옥서면,옥서면,
10386,한식,우리식당,전북 군산시 옥서면 옥봉초교길 20,옥서면,옥서면,
10385,분식,동원분식,전북 군산시 옥서면 선연길 5,옥서면,옥서면,063-471-2370
10382,중식,옥서반점,전북 군산시 옥서면 옥구저수지로 240,옥서면,옥서면,
10377,한식,삼거리식당,전북 군산시 옥서면 옥봉들3길 7,옥서면,옥서면,063-471-2016
10374,한식,진원식당,전북 군산시 옥서면 옥봉들3길 5,옥서면,옥서면,063-471-2007
10373,한식,다복한밥상,전북 군산시 옥서면 옥봉들3길 1,옥서면,옥서면,
10371,한식,더갈비 드림빌점,전북 군산시 옥서면 옥구저수지로 307,옥서면,옥서면,063-468-7720
10367,한식,부안바지락칼국수,전북 군산시 옥서면 옥구저수지로 242,옥서면,옥서면,
10365,치킨,"멕시카나 옥구, 옥서점",전북 군산시 옥서면 옥구저수지로 232-1,옥서면,옥서면,063-471-3385
10363,한식,마님맛집,전북 군산시 옥서면 옥구저수지로 228,옥서면,옥서면,063-471-4992
10361,한식,서해순대국밥,전북 군산시 옥서면 옥구저수지로 225,옥서면,옥서면,063-461-0799
10355,치킨,네네치킨 옥서점,전북 군산시 옥서면 옥구저수지로 217,옥서면,옥서면,063-463-4492
10352,중식,중국집,전북 군산시 옥서면 옥구저수지로 214,옥서면,옥서면,
10348,카페,주커피로스터스,전북 군산시 옥서면 옥구저수지로 212,옥서면,옥서면,
10346,카페,호숫가찻집,전북 군산시 옥서면 옥구저수지로 162,옥서면,옥서면,063-466-4990
10345,한식,산수촌,전북 군산시 옥서면 옥구저수지로 156,옥서면,옥서면,
10342,한식,군산부대찌개,전북 군산시 옥서면 신장원길 19,옥서면,옥서면,
10336,한식,153부대찌개,전북 군산시 옥서면 신장원길 32,옥서면,옥서면,063-463-0067
10332,식품,만나,전북 군산시 옥서면 선연리,옥서면,옥서면,063-471-2025
10327,한식,거리식당,전북 군산시 옥서면 선연길 154,옥서면,옥서면,063-471-6076
10326,중식,제일원,전북 군산시 옥서면 삼거리길 4,옥서면,옥서면,
10307,음식점,홍대족발,전북 군산시 옥산면 월명로 93,옥산면,옥산면,
10306,카페,더리터 지곡점,전북 군산시 옥산면 월명로 93,옥산면,옥산면,
10301,간식,베스킨라빈스 군산지곡점,전북 군산시 옥산면 월명로 83,옥산면,옥산면,063-465-1100
10296,카페,한낱,전북 군산시 옥산면 월명로 83,옥산면,옥산면,
10294,술집,통구비어지곡점,전북 군산시 옥산면 월명로 83,옥산면,옥산면,
10283,카페,산뜰,전북 군산시 옥산면 월명로 46,옥산면,옥산면,
10278,간식,하루오븐,전북 군산시 옥산면 월명로,옥산면,옥산면,063-461-0400
10273,한식,수산시장횟집,전북 군산시 옥산면 용호길 26,옥산면,옥산면,
10268,카페,에이비씨커피(하나로),전북 군산시 옥산면 옥산로 248,옥산면,옥산면,063-465-7485
10262,카페,"카페,옥산리",전북 군산시 옥산면 옥산로 232,옥산면,옥산면,
10261,뷔페,행복한할머니밥상,전북 군산시 옥산면 옥산로 229,옥산면,옥산면,
10260,분식,쉼터분식,전북 군산시 옥산면 옥산로 228,옥산면,옥산면,
10257,한식,다인소반,전북 군산시 옥산면 옥산로 228,옥산면,옥산면,
10256,카페,다아페,전북 군산시 옥산면 옥산로 225,옥산면,옥산면,063-468-0691
10253,한식,향촌국수,전북 군산시 옥산면 옥산로 223,옥산면,옥산면,063-461-8111
10252,중식,미향,전북 군산시 옥산면 옥산로 167,옥산면,옥산면,063-464-8933
10251,한식,돌머리집,전북 군산시 옥산면 옥산로 167,옥산면,옥산면,
10247,한식,장어명가청산,전북 군산시 옥산면 옥산로 141,옥산면,옥산면,
10246,카페,까페라온,전북 군산시 옥산면 옥산로,옥산면,옥산면,
10244,카페,샘골바람,전북 군산시 옥산면 여로2길 28,옥산면,옥산면,063-465-3989
10242,한식,청암산장어구이,전북 군산시 옥산면 여로1길 49,옥산면,옥산면,
10234,한식,청암막국수,전북 군산시 옥산면 산성로 229,옥산면,옥산면,
10233,한식,옥경이국밥,전북 군산시 옥산면 산성로 225-1,옥산면,옥산면,
10231,분식,둥지분식,전북 군산시 옥산면 산성로 203,옥산면,옥산면,
10230,한식,청암골맛집,전북 군산시 옥산면 산성로 199,옥산면,옥산면,
10229,한식,호박터,전북 군산시 옥산면 산성로 166,옥산면,옥산면,063-466-2999
10223,한식,최종희부뚜막,전북 군산시 옥산면 백석로 58-2,옥산면,옥산면,
10213,한식,원조머슴집,전북 군산시 옥산면 돌머리길 10-16,옥산면,옥산면,
10212,양식,올리베또,전북 군산시 옥산면 돌머리길 10-16,옥산면,옥산면,
10209,한식,고향가든,전북 군산시 옥산면 대위로 84,옥산면,옥산면,
10208,한식,돼지촌,전북 군산시 옥산면 대위로 8,옥산면,옥산면,063-468-7400
10206,한식,청향,전북 군산시 옥산면 대위로 70,옥산면,옥산면,
10202,한식,가든바베큐,전북 군산시 옥산면 대위로 128,옥산면,옥산면,063-464-5282
10186,한식,왕십리족보전,전북 군산시 옥산면 당북길 33,옥산면,옥산면,063-461-2679
10183,양식,오스트로한,전북 군산시 옥산면 남내안길 14-1,옥산면,옥산면,063-465-6870
10181,한식,호남메밀막국수,전북 군산시 옥산면 남내리,옥산면,옥산면,063-464-2324
10179,술집,어울림,전북 군산시 옥산면 계산로 97,옥산면,옥산면,063-468-8384
10173,간식,파리바게트군산예가점,전북 군산시 옥산면 계산로 93,옥산면,옥산면,063-468-8245
10172,한식,대가감자탕지곡점,전북 군산시 옥산면 계산로,옥산면,옥산면,063-463-6923
10169,한식,안정민박식당,전북 군산시 옥도면 선유북길 81,옥도면,옥도면,
10167,한식,박효신닭꼬치&호두과자,전북 군산시 옥도면 장자도리,옥도면,옥도면,
10166,카페,카페인대장,전북 군산시 옥도면 장자도2길 59,옥도면,옥도면,
10161,일식,다타코,전북 군산시 옥도면 장자도1길 46,옥도면,옥도면,
10149,한식,석수수산,전북 군산시 옥도면 야미도4길 80,옥도면,옥도면,063-462-6510
10146,카페,커피내리는집,전북 군산시 옥도면 야미도4길 44,옥도면,옥도면,063-466-3812
10145,한식,야미도실비횟집,전북 군산시 옥도면 야미도4길,옥도면,옥도면,063-465-0670
10141,한식,쌍둥이회집,전북 군산시 옥도면 야미도3길 33,옥도면,옥도면,063-461-0018
10134,한식,한라민박식당,전북 군산시 옥도면 신시도3길 34,옥도면,옥도면,
10133,한식,산아래식당,전북 군산시 옥도면 신시도3길 1,옥도면,옥도면,
10129,한식,풀하우스식당,전북 군산시 옥도면 선유북길 97,옥도면,옥도면,
10128,한식,한세월식당,전북 군산시 옥도면 선유북길 95,옥도면,옥도면,
10127,한식,금강식당,전북 군산시 옥도면 선유북길 85,옥도면,옥도면,
10124,한식,남도밥상,전북 군산시 옥도면 선유북길 83,옥도면,옥도면,
10121,카페,엔젤리너스선유도점,전북 군산시 옥도면 선유북길 123,옥도면,옥도면,
10119,한식,가빈이네,전북 군산시 옥도면 선유북길 117,옥도면,옥도면,063-466-1092
10117,한식,군산진,전북 군산시 옥도면 선유북길,옥도면,옥도면,
10113,한식,고래섬 식당,전북 군산시 옥도면 선유도3길 50,옥도면,옥도면,
10111,한식,어부네포차,전북 군산시 옥도면 선유도3길 33-4,옥도면,옥도면,
10110,술집,고래포차,전북 군산시 옥도면 선유도3길 33-18,옥도면,옥도면,
10109,한식,등대횟집,전북 군산시 옥도면 선유도3길 33-1,옥도면,옥도면,063-466-0012
10107,한식,선유도어머니해루질회식당,전북 군산시 옥도면 선유도2길 71,옥도면,옥도면,063-462-7298
10102,한식,바다회집,전북 군산시 옥도면 선유도1길 222,옥도면,옥도면,
10098,카페,현대카페,전북 군산시 옥도면 선유남길 37-3,옥도면,옥도면,
10085,한식,맛있는 회식당,전북 군산시 옥도면 무녀도2길,옥도면,옥도면,063-471-6628
10083,한식,제일식당,전북 군산시 옥도면 개야도길 23-1,옥도면,옥도면,063-466-4758
10080,카페,공휴일,전북 군산시 옥도면 신시도3길 28,옥도면,옥도면,
10079,카페,선,전북 군산시 옥구읍 할미로 163,옥구읍,옥구읍,
10077,한식,상평황토불한증막식당,전북 군산시 옥구읍 한멀길 2,옥구읍,옥구읍,063-464-9998
10065,카페,옥구농협행복카페,전북 군산시 옥구읍 옥구로 37,옥구읍,옥구읍,063-460-0420
10060,한식,예닮가,전북 군산시 옥구읍 옥구로 24,옥구읍,옥구읍,
10059,술집,선제통닭,전북 군산시 옥구읍 옥구로 20,옥구읍,옥구읍,063-464-3222
10057,한식,옥구소머리국밥,전북 군산시 옥구읍 옥구로 20,옥구읍,옥구읍,
10056,카페,하버브릿지커피숍,전북 군산시 옥구읍 옥구로 2,옥구읍,옥구읍,
10054,한식,인삼가든,전북 군산시 옥구읍 옥구로 196,옥구읍,옥구읍,063-471-8655
10049,카페,하양,전북 군산시 옥구읍 옥구남로 11,옥구읍,옥구읍,
10046,카페,들꽃향기,전북 군산시 옥구읍 오곡길 121,옥구읍,옥구읍,
10045,한식,서동족발,전북 군산시 옥구읍 예기길 4,옥구읍,옥구읍,063-465-3621
10042,한식,빛고을,전북 군산시 옥구읍 남군산로 1530,옥구읍,옥구읍,063-471-1178
10040,한식,신울타리,전북 군산시 옥구읍 어은남3길 1,옥구읍,옥구읍,063-471-3479
10038,카페,(유)공감선유,전북 군산시 옥구읍 수왕새터길 55,옥구읍,옥구읍,063-468-5500
10034,중식,용궁반점,전북 군산시 옥구읍 옥구남로 5-1,옥구읍,옥구읍,063-464-9797
10024,한식,황태후,전북 군산시 옥구읍 동마산길 5-2,옥구읍,옥구읍,063-463-6677
10023,한식,백엄마팥칼국수,전북 군산시 옥구읍 대학로 786,옥구읍,옥구읍,063-471-6006
10020,한식,어은동장어집,전북 군산시 옥구읍 남군산로 1539,옥구읍,옥구읍,
10013,한식,자매식당,전북 군산시 옥구읍 광월길 39,옥구읍,옥구읍,
10012,한식,상평까페,전북 군산시 옥구읍 광월길 33-15,옥구읍,옥구읍,063-464-9777
10009,한식,테마민박가든,전북 군산시 옥구읍 옥구남로 66,옥구읍,옥구읍,063-465-7262
10008,중식,황금박대반점,전북 군산시 옥구읍 옥구남로 3,옥구읍,옥구읍,063-464-8570
10005,카페,에이비씨커피,전북 군산시 자유로 482,소룡동,오식도동,063-467-8300
10002,중식,홍원반점,전북 군산시 요죽안2길 45,소룡동,오식도동,063-468-3901
9999,분식,성연분식,전북 군산시 요죽안2길 33-16,소룡동,오식도동,063-466-8050
9998,카페,이가빈,전북 군산시 요죽안2길 28,소룡동,오식도동,
9997,술집,다사랑치킨피자 오식도점,전북 군산시 요죽안2길 28,소룡동,오식도동,
9996,한식,화서리,전북 군산시 요죽안2길 25,소룡동,오식도동,
9995,한식,까망도야지,전북 군산시 요죽안2길 24,소룡동,오식도동,063-467-8405
9993,중식,백년짬뽕,전북 군산시 요죽안2길 14,소룡동,오식도동,063-471-0988
9989,한식,정성식당,전북 군산시 요죽길 41,소룡동,오식도동,
9988,한식,우리순대,전북 군산시 요죽길 40,소룡동,오식도동,
9987,한식,착한백반,전북 군산시 요죽길 37,소룡동,오식도동,063-465-4652
9986,한식,참마루,전북 군산시 요죽길 36,소룡동,오식도동,063-467-2345
9984,카페,카페인앤아웃,전북 군산시 요죽길 31,소룡동,오식도동,063-466-7504
9983,한식,족발먹자,전북 군산시 요죽길 28,소룡동,오식도동,
9979,한식,참대박,전북 군산시 요죽4길 54,소룡동,오식도동,063-461-0822
9977,한식,철따라맛따라,전북 군산시 요죽4길 24,소룡동,오식도동,063-467-9489
9975,한식,왕뚜껑생삼겹살,전북 군산시 요죽3길 36,소룡동,오식도동,063-446-3305
9974,한식,오식도군산맛집,전북 군산시 요죽3길 25,소룡동,오식도동,
9973,양식,지니네,전북 군산시 요죽3길 16,소룡동,오식도동,063-468-7782
9972,한식,다다횟집,전북 군산시 요죽3길 15,소룡동,오식도동,
9971,카페,요거프레소 오식도점,전북 군산시 요죽3길 13,소룡동,오식도동,063-464-6056
9970,한식,돌배기집 새만금점,전북 군산시 요죽3길 11,소룡동,오식도동,063-468-9200
9967,한식,준봉이네 수제왕족발&생고기,전북 군산시 요죽2길 12-1,소룡동,오식도동,063-467-7646
9964,카페,커피콩볶는 샌드위치(콩샌),전북 군산시 요죽안2길 27,소룡동,오식도동,
9963,한식,현대옥(오식도점),전북 군산시 요죽3길 25,소룡동,오식도동,063-468-9996
9962,한식,도싯골,전북 군산시 가도로 201,소룡동,오식도동,
9961,한식,최가네,전북 군산시 산단남북로 218,소룡동,오식도동,
9960,중식,현대반점,전북 군산시 산단남북로 224,소룡동,오식도동,
9959,한식,새맛뜰,전북 군산시 새만금산단1로 47,소룡동,오식도동,063-471-8532
9955,음식점,고참밀가,전북 군산시 새만금북로 362,소룡동,오식도동,063-465-2400
9953,한식,문서방네 국밥,전북 군산시 새만금북로 297,소룡동,오식도동,063-464-5992
9950,한식,아리울생선탕,전북 군산시 새만금북로 285,소룡동,오식도동,
9949,한식,새만금숯불갈비전문점,전북 군산시 새만금북로 281,소룡동,오식도동,063-461-0501
9945,중식,이비가짬뽕오식도점,전북 군산시 새만금북로 271,소룡동,오식도동,
9934,카페,단지커피,전북 군산시 산단남북로 169,소룡동,오식도동,
9933,한식,우리집곰탕,전북 군산시 분멀안길 33,소룡동,오식도동,063-461-5666
9931,카페,커피나무,전북 군산시 분멀안길 26-3,소룡동,오식도동,
9926,한식,기와집,전북 군산시 분멀3길 7,소룡동,오식도동,063-466-6807
9925,한식,호동이네맛집,전북 군산시 분멀3길 34,소룡동,오식도동,
9918,한식,디에스엘 식당,전북 군산시 무역로 155,소룡동,오식도동,
9912,한식,완산골전주콩나물국밥&피순대,전북 군산시 가도로 9,소룡동,오식도동,063-466-7123
9908,카페,쓰리엑스라지커피,전북 군산시 가도로 217,소룡동,오식도동,
9907,치킨,멕시카나치킨 오식도점,전북 군산시 가도로 217,소룡동,오식도동,063-464-5596
9906,음식점,진시황,전북 군산시 가도로 215,소룡동,오식도동,063-466-7878
9905,한식,미도리부대찌개,전북 군산시 가도로 215,소룡동,오식도동,063-465-6633
9903,분식,미영이네,전북 군산시 가도로 21,소룡동,오식도동,
9901,한식,미미식당,전북 군산시 가도로 209,소룡동,오식도동,063-471-8370
9900,카페,더리터오식도점,전북 군산시 가도로 207,소룡동,오식도동,063-463-7111
9896,치킨,진포투옛날통닭,전북 군산시 가도로 203,소룡동,오식도동,063-463-2737
9895,한식,성가네순대,전북 군산시 가도로 203,소룡동,오식도동,063-471-9990
9894,한식,고향화로갈비,전북 군산시 가도로 203,소룡동,오식도동,063-464-2200
9893,한식,샘골전주식당,전북 군산시 가도로 198,소룡동,오식도동,
9891,치킨,비에이치씨(BHC) 새만금점,전북 군산시 가도로 194,소룡동,오식도동,
9890,한식,영희네 왕족발보쌈,전북 군산시 가도로 194,소룡동,오식도동,063-464-9533
9886,카페,풀꽃점뭔,전북 군산시 가도로 19,소룡동,오식도동,063-468-1957
9884,일식,한양돈가스,전북 군산시 가도로 189,소룡동,오식도동,
9881,치킨,바보스 오식도점,전북 군산시 가도로 181,소룡동,오식도동,063-466-2476
9879,분식,원조김밥천국 (오식도점),전북 군산시 가도로 175,소룡동,오식도동,063-464-3900
9878,음식점,디에이치푸드 밥먹고하자,전북 군산시 가도로 172,소룡동,오식도동,
9877,한식,청담,전북 군산시 가도로 171,소룡동,오식도동,063-465-8007
9874,한식,바다뜰한식마을,전북 군산시 가도로 14,소룡동,오식도동,063-471-7022
9872,중식,새만금중화요리,전북 군산시 가도로 11,소룡동,오식도동,063-461-0945
9870,한식,군산해장국,전북 군산시 가도2길 27-8,소룡동,오식도동,063-465-6262
9868,양식,라온제나,전북 군산시 오룡로 23,삼학동,오룡동,063-468-1692
9867,도시락,한솥서해대앞점,전북 군산시 오룡로 22,삼학동,오룡동,063-465-4660
9866,술집,만취,전북 군산시 오룡로 17,삼학동,오룡동,063-446-5702
9859,음식점,미항,전북 군산시 대학로 7-7,중앙동,영화동,063-445-1357
9856,한식,송강식당,전북 군산시 구영4길 56,중앙동,영화동,063-445-0255
9853,한식,불타는 구공탄,전북 군산시 구영4길 32-6,중앙동,영화동,063-446-9098
9852,카페,하늘마루,전북 군산시 구영4길 39,중앙동,영화동,063-452-7871
9851,카페,만나리다방,전북 군산시 구영4길 46-2,중앙동,영화동,063-445-5265
9850,한식,생고기뒷고기,전북 군산시 동령길 49-8,중앙동,영화동,063-445-9289
9848,한식,원풍로스,전북 군산시 동령길 49-10,중앙동,영화동,
9845,일식,유정초밥,전북 군산시 대학로 6-4,중앙동,영화동,063-445-9844
9844,카페,유미에스프레소,전북 군산시 대학로 6,중앙동,영화동,
9838,카페,벤치타임,전북 군산시 구영7길 133-6,중앙동,영화동,
9837,한식,미주옥,전북 군산시 구영7길 133-4,중앙동,영화동,063-442-5505
9836,한식,먹촌해장국,전북 군산시 구영7길 133-2,중앙동,영화동,063-442-5471
9835,한식,우리식당,전북 군산시 구영7길 118-3,중앙동,영화동,063-442-7866
9834,한식,생뚝,전북 군산시 구영7길 115,중앙동,영화동,063-442-4223
9833,한식,원조계순옥,전북 군산시 구영7길 111-1,중앙동,영화동,
9832,카페,카페 영화동,전북 군산시 구영7길 105-2,중앙동,영화동,
9828,술집,구이마루,전북 군산시 구영6길 131,중앙동,영화동,
9827,한식,이차돌 근대역사점,전북 군산시 구영6길 128,중앙동,영화동,063-445-0098
9826,한식,여수식당,전북 군산시 구영6길 127,중앙동,영화동,063-446-7766
9825,한식,맛있는우리지빱,전북 군산시 구영6길 126,중앙동,영화동,063-445-2626
9824,카페,틈,전북 군산시 구영6길 125-1,중앙동,영화동,
9823,중식,영화짜장면집,전북 군산시 구영6길 124,중앙동,영화동,
9822,중식,홍가마라탕,전북 군산시 구영6길 122,중앙동,영화동,
9821,카페,달그레잉,전북 군산시 구영6길 121,중앙동,영화동,
9818,양식,돈키호테,전북 군산시 구영6길 111-7,중앙동,영화동,
9817,술집,수복,전북 군산시 구영6길 111-7,중앙동,영화동,
9816,한식,곰식당,전북 군산시 구영6길 111-3,중앙동,영화동,
9813,음식점,보리밥&청국장,전북 군산시 구영6길 110,중앙동,영화동,063-446-6785
9812,카페,㈜다소니 영화동지점 진포나루,전북 군산시 구영6길 106,중앙동,영화동,
9811,한식,전주집,전북 군산시 구영6길 104-3,중앙동,영화동,063-442-4365
9809,치킨,영화통닭,전북 군산시 구영6길 104,중앙동,영화동,063-445-6274
9807,패스트푸드,럭키마케트,전북 군산시 구영6길 101-4,중앙동,영화동,
9806,한식,뽀빠이감자탕,전북 군산시 구영6길 101,중앙동,영화동,063-445-6604
9805,중식,국제반점,전북 군산시 구영6길 100,중앙동,영화동,063-445-3768
9804,카페,커피니 군산영화점,전북 군산시 구영5길 138,중앙동,영화동,
9802,분식,무한분식 (무한정분식),전북 군산시 구영5길 129,중앙동,영화동,
9800,양식,우노(uno),전북 군산시 구영5길 118-4,중앙동,영화동,
9799,한식,훈이네,전북 군산시 구영5길 118-1,중앙동,영화동,063-446-5666
9797,카페,악토버,전북 군산시 구영5길 117-3,중앙동,영화동,
9796,술집,해물포차,전북 군산시 구영5길 115,중앙동,영화동,063-451-9525
9795,한식,장터족발,전북 군산시 구영5길 114,중앙동,영화동,063-446-4637
9794,한식,진주집,전북 군산시 구영5길 110,중앙동,영화동,063-442-5965
9793,카페,양과점1925,전북 군산시 구영5길 105,중앙동,영화동,
9791,한식,명품소머리국밥,전북 군산시 구영5길 104-31,중앙동,영화동,063-463-8531
9788,한식,만나리식당,전북 군산시 구영4길 46-4,중앙동,영화동,063-446-7016
9787,중식,황해짬뽕집,전북 군산시 구영4길 44,중앙동,영화동,
9786,한식,국수와뚝비,전북 군산시 구영4길 44,중앙동,영화동,063-910-9292
9785,음식점,인생식당,전북 군산시 구영4길 43,중앙동,영화동,063-732-6065
9784,한식,놀부네집,전북 군산시 구영4길 38,중앙동,영화동,063-445-7212
9782,카페,삿갓다방,전북 군산시 구영4길 33,중앙동,영화동,
9781,한식,명궁칼국수,전북 군산시 구영4길 16-5,중앙동,영화동,063-446-6403
9778,한식,성환식당,전북 군산시 구영2길 46-4,중앙동,영화동,063-443-3668
9777,양식,쌍떼,전북 군산시 구영2길 45,중앙동,영화동,
9776,간식,오브(oh'be),전북 군산시 구영2길 43-6,중앙동,영화동,
9774,한식,엄마손식당,전북 군산시 구영2길 37-1,중앙동,영화동,
9771,한식,한주옥,전북 군산시 구영2길 31,중앙동,영화동,063-445-6139
9770,한식,청솔로스,전북 군산시 구영2길 30-7,중앙동,영화동,063-442-4621
9766,한식,진갈비,전북 군산시 구영1길 108-7,중앙동,영화동,063-446-7707
9765,한식,박가네,전북 군산시 구영1길 104,중앙동,영화동,063-446-5959
9743,아시아음식,포아이니,전북 군산시 영동로 30,중앙동,영동,
9742,카페,영동카페,전북 군산시 영동로 30,중앙동,영동,063-465-5808
9730,카페,소렐(Sorrel),전북 군산시 영동로 16-1,중앙동,영동,
9706,카페,앵두나무,전북 군산시 절골1길 4,해신동,신흥동,
9699,술집,장미마당,전북 군산시 신풍길 5,신풍동,신풍동,
9688,한식,현지식당,전북 군산시 백토로 7-1,신풍동,신풍동,063-463-1710
9685,간식,영국빵집,전북 군산시 대학로 144-1,신풍동,신풍동,063-466-3477
9679,중식,신풍원,전북 군산시 대학로 132,신풍동,신풍동,063-462-5031
9678,분식,장터분식,전북 군산시 대학로 131-1,신풍동,신풍동,063-468-8045
9673,치킨,굽네치킨(문화신풍점),전북 군산시 대학로 120-1,신풍동,신풍동,063-468-9482
9671,카페,커피콩콩,전북 군산시 우체통거리2길 44-1,월명동,신창동,
9670,일식,히노아지,전북 군산시 우체통거리2길 44-1,월명동,신창동,
9669,한식,순돌이곱창,전북 군산시 우체통거리2길 43-9,월명동,신창동,
9667,분식,장보고,전북 군산시 우체통거리2길 37,월명동,신창동,063-442-8649
9665,중식,영동반점,전북 군산시 우체통거리2길 29,월명동,신창동,063-443-5352
9664,음식점,일오삼식당(153),전북 군산시 우체통거리2길 29,월명동,신창동,063-910-6153
9663,분식,군산사오정,전북 군산시 우체통거리2길 28,월명동,신창동,063-445-0450
9661,일식,짱구왕돈까스,전북 군산시 우체통거리2길 28,월명동,신창동,063-446-0134
9660,양식,두둠칫,전북 군산시 우체통거리2길 19-1,월명동,신창동,
9659,한식,우체통찰보리칼국수,전북 군산시 우체통거리1길 6,월명동,신창동,
9658,아시아음식,스위트인디아,전북 군산시 우체통거리1길 14,월명동,신창동,063-445-8522
9651,한식,호연식당,전북 군산시 우체통거리2길 42,월명동,신창동,063-464-1451
9640,한식,실비돼지갈비,전북 군산시 구영7길 66-6,월명동,신창동,063-445-0918
9639,일식,오란다돈까스,전북 군산시 구영7길 60,월명동,신창동,
9638,아시아음식,메오메오,전북 군산시 구영7길 55,월명동,신창동,063-445-5005
9636,한식,군산구이나라,전북 군산시 구영7길 70,월명동,신창동,063-446-1010
9633,샤브샤브,감동샤브,전북 군산시 구영7길 64,월명동,신창동,063-732-7773
9632,한식,열선수애호박돼지국밥,전북 군산시 구영7길 64,월명동,신창동,063-445-1116
9631,한식,신생갈비,전북 군산시 구영7길 62,월명동,신창동,063-445-9888
9630,한식,명월갈비,전북 군산시 구영7길 59,월명동,신창동,063-445-8283
9629,술집,메카닉,전북 군산시 구영7길 56,월명동,신창동,063-910-9945
9628,카페,신민회,전북 군산시 구영7길 55,월명동,신창동,
9627,양식,별식당,전북 군산시 구영6길 72-1,월명동,신창동,
9626,한식,서진해물곱돌솥밥,전북 군산시 구영6길 72,월명동,신창동,063-442-2282
9625,한식,궁전갈치찜,전북 군산시 구영6길 71,월명동,신창동,
9621,한식,군산맛촌,전북 군산시 구영6길 62,월명동,신창동,063-446-8197
9618,술집,월명동 휘겔리,전북 군산시 구영5길 68,월명동,신창동,
9616,간식,1939 군산과자조합,전북 군산시 구영5길 68,월명동,신창동,
9614,한식,쟁족,전북 군산시 구영5길 67,월명동,신창동,063-445-5325
9613,한식,일력생선,전북 군산시 구영5길 66-8,월명동,신창동,063-445-6445
9612,카페,과일아쥬스해,전북 군산시 구영5길 65-12,월명동,신창동,
9611,일식,군산덮밥,전북 군산시 구영5길 57,월명동,신창동,
9608,한식,군산집,전북 군산시 구영3길 68,월명동,신창동,063-443-3310
9607,카페,8月의 크리스마스,전북 군산시 구영3길 67,월명동,신창동,063-443-3481
9606,한식,한일옥,전북 군산시 구영3길 63,월명동,신창동,063-446-5491
9605,술집,성원식당,전북 군산시 구영3길 59,월명동,신창동,063-446-9791
9600,간식,떡이조아,전북 군산시 구영3길 51,월명동,신창동,063-443-0066
9599,일식,요쿠야마치(군산점),전북 군산시 구영3길 49,월명동,신창동,
9598,한식,양푸니,전북 군산시 구영2길 6,월명동,신창동,063-443-2001
9597,카페,몽실,전북 군산시 구영2길 5,월명동,신창동,
9591,음식점,지푸락,전북 군산시 죽성로 57,중앙동,신영동,063-910-8088
9590,한식,김가네장어,전북 군산시 죽성로 55,중앙동,신영동,063-442-5058
9572,한식,항구식당,전북 군산시 동신영길 21-1,중앙동,신영동,063-446-5847
9565,카페,군산시니어클럽 웰빙카페,전북 군산시 신영3길 11,중앙동,신영동,063-732-6065
9562,식품판매,호남기름집,전북 군산시 신영2길 6,중앙동,신영동,
9558,한식,한끼면,전북 군산시 신영2길 3-1,중앙동,신영동,063-446-7128
9557,카페,봉's 커피,전북 군산시 신영2길 3-1,중앙동,신영동,
9551,한식,"내고향족발, 쫄면2호점",전북 군산시 신영2길 13-1,중앙동,신영동,063-462-3040
9537,카페,카페2F(Cafe 2F),전북 군산시 신금길 21,중앙동,신영동,063-442-0329
9536,한식,방자전,전북 군산시 신금길 21,중앙동,신영동,
9534,한식,찬희네홍어,전북 군산시 신금길 21,중앙동,신영동,
9527,퓨전요리,산양꾼,전북 군산시 신금길 18,중앙동,신영동,
9524,카페,꽃달다케이크&샌드위치,전북 군산시 신금길 18,중앙동,신영동,063-910-8480
9505,한식,시장족발분식,전북 군산시 신금길 18,중앙동,신영동,
9473,한식,평화족발빵,전북 군산시 신금길 18,중앙동,신영동,
9460,한식,강여사족발,전북 군산시 신금길 18,중앙동,신영동,
9448,카페,"음료수, 커피휴게실",전북 군산시 신금길 18,중앙동,신영동,
9446,술집,우초야,전북 군산시 신금길 18,중앙동,신영동,
9425,분식,서비스분식,전북 군산시 신금길 18,중앙동,신영동,
9423,한식,평화빵(족발),전북 군산시 신금길 18,중앙동,신영동,
9411,분식,소문난분식,전북 군산시 신금길 18,중앙동,신영동,
9407,중식,청년미각,전북 군산시 신금길 18,중앙동,신영동,063-445-6318
9392,간식,윤보리 핫도그,전북 군산시 신금길 18,중앙동,신영동,
9391,한식,멋찌개,전북 군산시 신금길 18,중앙동,신영동,
9387,분식,써비스분식,전북 군산시 신금길 18,중앙동,신영동,
9386,분식,콜라겐분식집,전북 군산시 신금길 18,중앙동,신영동,
9370,간식,또복이닭강정,전북 군산시 신금길 18,중앙동,신영동,
9369,식품판매,군산닭집,전북 군산시 신금길 18,중앙동,신영동,
9310,한식,경상도집,전북 군산시 신금길 14,중앙동,신영동,063-446-1577
9303,한식,개정식당,전북 군산시 동신영길 9,중앙동,신영동,063-446-4842
9275,기타,민들레상회,전북 군산시 동신영길 81,중앙동,신영동,
9261,한식,미정식당,전북 군산시 동신영길 56,중앙동,신영동,
9252,한식,우리식당,전북 군산시 동신영길 47-12,중앙동,신영동,
9240,간식,나드리떡집,전북 군산시 동신영길 33,중앙동,신영동,063-446-7100
9239,한식,회현집,전북 군산시 동신영길 19,중앙동,신영동,
9238,치킨,황가네,전북 군산시 동신영길 15,중앙동,신영동,
9237,한식,잠깐만집,전북 군산시 동신영길 15,중앙동,신영동,063-445-8820
9236,한식,엄마네손맛,전북 군산시 동신영길 15,중앙동,신영동,063-442-8957
9233,일식,새우랑소바랑,전북 군산시 구시장로 77,중앙동,신영동,
9231,한식,수연궁,전북 군산시 구시장로 74,중앙동,신영동,063-445-8155
9227,기타,민들레,전북 군산시 구시장로 70,중앙동,신영동,
9223,치킨,맥시칸치킨,전북 군산시 구시장로 66,중앙동,신영동,063-471-9919
9222,한식,만흥집,전북 군산시 구시장로 65,중앙동,신영동,063-446-6769
9218,중식,서원반점,전북 군산시 구시장로 63,중앙동,신영동,063-445-7718
9217,한식,똘이네식당,전북 군산시 구시장로 62,중앙동,신영동,063-443-1784
9214,한식,민속마당,전북 군산시 구시장로 59,중앙동,신영동,063-443-0889
9205,한식,팔팔삼계탕,전북 군산시 구시장로 53,중앙동,신영동,063-446-9488
9183,건강식품판매,홍삼건강원,전북 군산시 구시장로 32,중앙동,신영동,063-443-7007
9174,한식,들마루,전북 군산시 신촌남길 7,나운3동,신관동,063-462-3002
9171,중식,오성황제해물짬뽕,전북 군산시 신촌남길 11,나운3동,신관동,063-464-5885
9169,한식,군산순두부,전북 군산시 대학로 670,나운3동,신관동,
9167,한식,군산한우촌,전북 군산시 대학로 649,나운3동,신관동,063-465-6969
9163,식품판매,대박해물칼국수,전북 군산시 대학로 645,나운3동,신관동,
9128,한식,1박2일,전북 군산시 하포로 29,수송동,수송동,
9127,중식,형제반점,전북 군산시 축동안길 69,수송동,수송동,063-463-5456
9125,분식,신전떡볶이,전북 군산시 축동안길 41,수송동,수송동,063-468-3376
9124,분식,김밥명가,전북 군산시 축동안길 40,수송동,수송동,063-465-5088
9122,한식,장어만,전북 군산시 축동안길 67,수송동,수송동,
9119,카페,유캔두잇 수송점,전북 군산시 축동안길 62,수송동,수송동,
9118,일식,돈카츠마R 전북군산점,전북 군산시 축동안길 62,수송동,수송동,
9117,분식,태리로제떡볶이,전북 군산시 축동안길 62,수송동,수송동,
9114,한식,엉터리생고기두번째이야기,전북 군산시 축동안길 60,수송동,수송동,063-462-5594
9113,한식,오랑게,전북 군산시 축동안길 60,수송동,수송동,063-461-1006
9112,중식,청풍,전북 군산시 축동안길 59-1,수송동,수송동,
9111,한식,음식나라,전북 군산시 축동안길 57,수송동,수송동,063-467-3872
9110,한식,마루벌돌구이 군산점,전북 군산시 축동안길 56,수송동,수송동,063-443-9233
9108,분식,이삭분식,전북 군산시 축동안길 55,수송동,수송동,
9106,양식,더정겨운,전북 군산시 축동안길 5-28,수송동,수송동,
9103,카페,위치커피수송2호점,전북 군산시 축동안길 51,수송동,수송동,
9102,분식,김밥이야기 수송점,전북 군산시 축동안길 51,수송동,수송동,063-468-8802
9100,음식점,라이크푸드,전북 군산시 축동안길 51,수송동,수송동,063-462-1777
9098,치킨,공룡치킨수송가족지점,전북 군산시 축동안길 51,수송동,수송동,063-471-8880
9097,치킨,지코바수송점,전북 군산시 축동안길 51,수송동,수송동,
9093,술집,동네가맥,전북 군산시 축동안길 44,수송동,수송동,063-465-3393
9092,간식,이삭토스트 수송점,전북 군산시 축동안길 44,수송동,수송동,063-451-1230
9089,한식,두찜 수송점,전북 군산시 축동안길 42-1,수송동,수송동,063-465-8555
9088,술집,변사또,전북 군산시 축동안길 41,수송동,수송동,063-467-2008
9082,술집,투다리 수송제일점,전북 군산시 축동안길 41,수송동,수송동,063-471-8222
9081,치킨,비에이치씨 수송롯데점,전북 군산시 축동안길 41,수송동,수송동,063-467-9966
9079,한식,한갈비,전북 군산시 축동안길 40,수송동,수송동,063-463-2300
9078,간식,홍윤베이커리,전북 군산시 축동안길 40,수송동,수송동,063-461-0445
9071,음식점,머슴숯불갈비,전북 군산시 축동안길 30,수송동,수송동,
9070,한식,원조머슴감자탕,전북 군산시 축동안길 30,수송동,수송동,063-467-2269
9068,한식,장어랑흑돼지,전북 군산시 축동안길 28,수송동,수송동,063-466-5656
9067,카페,오즈,전북 군산시 축동안3길 8,수송동,수송동,
9066,한식,남원용담골추어탕,전북 군산시 축동안3길 8,수송동,수송동,063-467-7952
9064,양식,피자비토랩군산점,전북 군산시 축동안3길 34-2,수송동,수송동,
9061,카페,커피베이수송제일점,전북 군산시 축동안3길 34-2,수송동,수송동,
9060,음식점,곱떡치떡&찜꽁찜닭,전북 군산시 축동안3길 34-2,수송동,수송동,
9058,한식,도마(수송점),전북 군산시 축동안3길 34-1,수송동,수송동,063-471-0023
9057,일식,하루초밥,전북 군산시 축동안3길 34-1,수송동,수송동,
9056,치킨,훌랄라바베큐치킨,전북 군산시 축동안3길 34-1,수송동,수송동,063-461-9282
9055,카페,쥬씨군산수송점,전북 군산시 축동안3길 34-1,수송동,수송동,063-464-8876
9052,한식,김충기꽃삼겹,전북 군산시 축동안3길 30,수송동,수송동,063-465-3936
9047,치킨,꺼구리시장통닭,전북 군산시 축동안3길 3,수송동,수송동,063-467-9282
9046,치킨,군산카레시장통닭,전북 군산시 축동안3길 3,수송동,수송동,063-467-9282
9045,한식,깡패족발(군산수송점),전북 군산시 축동안3길 3,수송동,수송동,
9042,한식,세상갈비,전북 군산시 축동안3길 3,수송동,수송동,
9024,카페,로즈가든,전북 군산시 축동안3길 20,수송동,수송동,063-468-9123
9020,분식,영철푸드,전북 군산시 축동안2길 43-2,수송동,수송동,
9019,한식,생선굽는 남자,전북 군산시 축동안2길 43-2,수송동,수송동,
9018,한식,군산불냉면&연탄고기,전북 군산시 축동안2길 43,수송동,수송동,063-464-8882
9017,술집,옥이네,전북 군산시 축동안2길 43,수송동,수송동,063-452-5080
9016,한식,제일식당,전북 군산시 축동안2길 37,수송동,수송동,063-466-9484
9015,카페,나이스커피,전북 군산시 축동안2길 35,수송동,수송동,063-465-5252
9013,한식,소담순대,전북 군산시 축동로 98-3,수송동,수송동,063-467-9091
9012,한식,밥,전북 군산시 축동로 7,수송동,수송동,063-461-5461
9011,패스트푸드,커피콩 커피콩,전북 군산시 축동로 47,수송동,수송동,063-463-0018
9009,카페,에이비씨(수송오투점),전북 군산시 축동로 43,수송동,수송동,
9005,분식,마태,전북 군산시 축동로 29,수송동,수송동,063-464-6200
9001,한식,군산돈삼겹,전북 군산시 축동로 98-2,수송동,수송동,063-465-3860
8997,한식,생생오리,전북 군산시 축동로 9,수송동,수송동,063-461-7278
8994,치킨,굽네치킨수송미장점,전북 군산시 축동로 7,수송동,수송동,063-466-9294
8993,치킨,순살만 공격,전북 군산시 축동로 6,수송동,수송동,
8991,치킨,멕시칸치킨동신체인점,전북 군산시 축동로 6,수송동,수송동,063-461-7358
8986,간식,뚜레쥬르수송오투점,전북 군산시 축동로 49,수송동,수송동,063-462-7889
8985,한식,봉구스밥버거수송점,전북 군산시 축동로 49,수송동,수송동,063-468-0954
8981,양식,59쌀피자,전북 군산시 축동로 46,수송동,수송동,063-471-5968
8968,치킨,노랑통닭수송점,전북 군산시 축동로 39,수송동,수송동,
8966,술집,낭만맥주,전북 군산시 축동로 39,수송동,수송동,063-471-7575
8965,분식,33떡볶이 군산2호점,전북 군산시 축동로 37-1,수송동,수송동,
8964,술집,단술,전북 군산시 축동로 37-1,수송동,수송동,
8961,분식,얌샘김밥 군산수송점,전북 군산시 축동로 37,수송동,수송동,
8960,간식,대장금,전북 군산시 축동로 35,수송동,수송동,063-467-6200
8955,양식,피자써클 군산수송점,전북 군산시 축동로 33,수송동,수송동,
8944,일식,동명카츠수송점,전북 군산시 축동로 31,수송동,수송동,
8941,음식점,팝콘,전북 군산시 축동로 25,수송동,수송동,
8937,음식점,단아한푸드,전북 군산시 축동로 21,수송동,수송동,
8934,간식,달달한홍's 쿠키,전북 군산시 축동로 19,수송동,수송동,063-467-8804
8929,중식,태성반점,전북 군산시 축동로 112,수송동,수송동,
8916,카페,더벤티 수송제일점,전북 군산시 축동2길 40-6,수송동,수송동,
8911,간식,호두당(군산수송점),전북 군산시 축동2길 40-2,수송동,수송동,
8906,카페,저스트커피로스터즈,전북 군산시 축동2길 40-2,수송동,수송동,063-467-2449
8905,패스트푸드,아리랑수제핫도그,전북 군산시 축동2길 40-2,수송동,수송동,063-463-0083
8902,한식,접시꽃보쌈황제해물문어보쌈(군산수송점),전북 군산시 축동2길 39-4,수송동,수송동,063-467-5711
8901,카페,파스쿠찌 군산수송점,전북 군산시 축동2길 39-4,수송동,수송동,063-466-9898
8898,양식,헤이제이,전북 군산시 축동2길 39-3,수송동,수송동,
8897,양식,피제이피자 군산점,전북 군산시 축동2길 39-3,수송동,수송동,063-468-0202
8894,카페,카페반짝반짝빛나는,전북 군산시 축동2길 31,수송동,수송동,
8893,한식,쉐프의부대찌개,전북 군산시 축동2길 12-1,수송동,수송동,063-465-8989
8887,한식,해물천하,전북 군산시 축동1길 6-3,수송동,수송동,
8886,한식,제주미풍해장국,전북 군산시 축동1길 6-3,수송동,수송동,063-462-1300
8884,카페,서천프린스,전북 군산시 진포안3길 8,수송동,수송동,
8883,한식,황금족발,전북 군산시 진포안3길 8,수송동,수송동,063-468-0117
8880,중식,낭만짬뽕,전북 군산시 진포안2길 23,수송동,수송동,063-466-0797
8864,카페,마마아쁘,전북 군산시 진포2길 8,수송동,수송동,
8862,한식,양푼갈비스토리 수송점,전북 군산시 진포2길 8,수송동,수송동,063-465-8886
8858,한식,육사심,전북 군산시 진포2길 39,수송동,수송동,
8852,카페,커피마을아몬드아저씨,전북 군산시 진포1길 46,수송동,수송동,063-463-9969
8849,분식,참꼬마김밥&분식,전북 군산시 진포1길 10,수송동,수송동,063-461-4436
8847,간식,와플반트,전북 군산시 진포1길 1,수송동,수송동,063-465-3225
8846,카페,라떼떼,전북 군산시 지곡동신길 6,수송동,수송동,063-465-8228
8844,카페,휴,전북 군산시 지곡동신길 20,수송동,수송동,
8836,카페,설빙 군산수송점,전북 군산시 월명로 268,수송동,수송동,063-471-0980
8827,한식,푸드팩토리,전북 군산시 월명로 307,수송동,수송동,
8824,치킨,처갓집양념치킨,전북 군산시 월명로 305,수송동,수송동,063-466-7666
8817,한식,새우에반한족발,전북 군산시 월명로 298,수송동,수송동,063-465-0303
8815,간식,빵굽는마을,전북 군산시 월명로 298,수송동,수송동,063-463-0649
8802,한식,수원성,전북 군산시 월명로 281,수송동,수송동,063-453-0002
8794,카페,탐앤탐스커피,전북 군산시 월명로 277,수송동,수송동,063-463-3003
8755,술집,뮤즈,전북 군산시 월명로 265,수송동,수송동,063-465-9000
8745,한식,국수나무,전북 군산시 월명로 260,수송동,수송동,063-468-9060
8744,카페,카페 디레마 수송점,전북 군산시 월명로 260,수송동,수송동,
8741,간식,떡향,전북 군산시 월명로 255,수송동,수송동,063-461-8844
8736,한식,조선화로집 군산수송점,전북 군산시 월명로 255,수송동,수송동,
8733,한식,이바돔감자탕 군산수송점,전북 군산시 월명로 255,수송동,수송동,063-468-5959
8728,간식,레드애플 군산수송점,전북 군산시 월명로 254,수송동,수송동,
8727,카페,아메리칸트레일러 수송점,전북 군산시 월명로 254,수송동,수송동,
8726,간식,크라상점 수송점,전북 군산시 월명로 254,수송동,수송동,
8725,양식,프랭크버거 군산수송점,전북 군산시 월명로 254,수송동,수송동,063-466-8892
8724,카페,뉴리터 수송점,전북 군산시 월명로 254,수송동,수송동,063-465-0129
8723,일식,오유미당 수송점,전북 군산시 월명로 254,수송동,수송동,063-465-5620
8722,간식,파리바게뜨수송점,전북 군산시 월명로 254,수송동,수송동,063-452-2270
8721,카페,레인보우마카롱,전북 군산시 월명로 254,수송동,수송동,063-466-9330
8720,양식,라라코스트수송점,전북 군산시 월명로 254,수송동,수송동,063-466-3230
8715,카페,공차 군산수송점,전북 군산시 월명로 254,수송동,수송동,063-462-7200
8714,뷔페,더파티스타,전북 군산시 월명로 254,수송동,수송동,063-464-5579
8703,한식,양누리,전북 군산시 월명로 249,수송동,수송동,063-464-4450
8690,패스트푸드,홍루이젠 군산수송점,전북 군산시 월명로 245,수송동,수송동,
8689,퓨전요리,본죽앤드비빔밥,전북 군산시 월명로 245,수송동,수송동,
8683,카페,메가엠지씨커피 군산수송중앙점,전북 군산시 월명로 244,수송동,수송동,
8682,간식,와플대학군산수송캠퍼스,전북 군산시 월명로 244,수송동,수송동,063-465-1357
8681,간식,참호도과자(수송점),전북 군산시 월명로 244,수송동,수송동,063-464-6693
8677,한식,원할머니보쌈(수송점),전북 군산시 월명로 241,수송동,수송동,
8669,한식,한오백년 추어탕,전북 군산시 월명로 233,수송동,수송동,063-452-2334
8663,중식,귀빈성,전북 군산시 월명로 218,수송동,수송동,063-452-4011
8662,한식,연어이야기,전북 군산시 월명로 218,수송동,수송동,063-467-5587
8661,음식점,cafe on.on,전북 군산시 월명로 216,수송동,수송동,063-463-8060
8659,양식,서가앤쿡(수송점),전북 군산시 월명로 216,수송동,수송동,063-467-9948
8657,카페,79파운야드군산수송점,전북 군산시 월명로 216,수송동,수송동,
8653,분식,마피아 떡볶이 군산점,전북 군산시 월명로 215,수송동,수송동,
8651,치킨,비비큐수송점,전북 군산시 월명로 215,수송동,수송동,
8650,도시락,본도시락,전북 군산시 월명로 215,수송동,수송동,063-471-4283
8648,카페,미제리 베이커리,전북 군산시 월명로 213,수송동,수송동,
8642,일식,상무초밥군산점,전북 군산시 월명로 201,수송동,수송동,063-465-9004
8640,카페,수송동 커피,전북 군산시 월명로 199,수송동,수송동,
8628,뷔페,쿠우쿠우군산점,전북 군산시 월명로 180,수송동,수송동,063-465-1515
8608,카페,카페프렌즈,전북 군산시 월명로 145,수송동,수송동,
8595,한식,어시장수산,전북 군산시 신평길 20,수송동,수송동,063-471-8844
8594,한식,어시장 활어회직거래 판매장,전북 군산시 신평길 20,수송동,수송동,063-471-8844
8591,한식,서울소바,전북 군산시 수송안길 7,수송동,수송동,063-461-1316
8590,카페,군산커피가게,전북 군산시 수송안길 15,수송동,수송동,
8584,일식,부엉이 돈가스 수송점,전북 군산시 수송안길 35,수송동,수송동,063-465-9596
8583,한식,다빈회관,전북 군산시 수송안길 25,수송동,수송동,063-471-0045
8581,한식,소 군산수송점,전북 군산시 수송안길 23,수송동,수송동,
8580,한식,하누떡갈비,전북 군산시 수송안길 21,수송동,수송동,063-462-3337
8579,카페,프랭크커핀바군산점,전북 군산시 수송안길 21,수송동,수송동,
8578,한식,장항할머니백숙,전북 군산시 수송안길 21,수송동,수송동,
8577,양식,허그갈릭,전북 군산시 수송안길 21,수송동,수송동,063-461-3302
8570,분식,돈까스가게,전북 군산시 수송안9길 23,수송동,수송동,063-910-1545
8569,분식,응급실국물떡볶이군산미장수송점,전북 군산시 수송안9길 23,수송동,수송동,
8568,한식,대박삼겹김치찜&초대박등갈비김치찜,전북 군산시 수송안9길 22,수송동,수송동,
8566,패스트푸드,시스터즈카페,전북 군산시 수송안9길 18,수송동,수송동,063-466-3246
8563,양식,피자의 생명은 치즈다,전북 군산시 수송안9길 16,수송동,수송동,063-468-1377
8560,카페,카페긱,전북 군산시 수송안9길 11,수송동,수송동,063-451-6165
8556,카페,카페티투스,전북 군산시 수송안8길 6,수송동,수송동,
8555,중식,신풍참숯양꼬치,전북 군산시 수송안8길 21,수송동,수송동,063-732-1649
8553,한식,곤지암할매소머리국밥,전북 군산시 수송안8길 19,수송동,수송동,063-451-8881
8552,술집,신날개,전북 군산시 수송안8길 18,수송동,수송동,063-468-5666
8551,식품판매,살라타,전북 군산시 수송안8길 18,수송동,수송동,
8550,한식,주안상,전북 군산시 수송안8길 16,수송동,수송동,063-464-4200
8549,중식,베이징,전북 군산시 수송안8길 11,수송동,수송동,063-465-3633
8548,한식,청담회집,전북 군산시 수송안7길 36,수송동,수송동,063-461-7337
8547,한식,놀부네집수송점,전북 군산시 수송안7길 24,수송동,수송동,063-465-7212
8545,분식,고소미 분식&도시락,전북 군산시 수송안7길 40,수송동,수송동,
8543,일식,백소정 군산수송점,전북 군산시 수송안7길 39,수송동,수송동,
8542,한식,삼백집(수송점),전북 군산시 수송안7길 39,수송동,수송동,063-443-9300
8541,술집,바베츄,전북 군산시 수송안7길 38,수송동,수송동,
8540,한식,영희네팥칼국수수송점,전북 군산시 수송안7길 37,수송동,수송동,063-466-9900
8539,한식,청담회집2호점,전북 군산시 수송안7길 35,수송동,수송동,
8538,중식,짬뽕공장군산점,전북 군산시 수송안7길 35,수송동,수송동,063-465-2377
8536,한식,황제양푼갈비,전북 군산시 수송안7길 33-1,수송동,수송동,
8535,술집,"여기,술집",전북 군산시 수송안7길 31-1,수송동,수송동,
8534,한식,강식당,전북 군산시 수송안7길 31,수송동,수송동,063-468-0060
8533,일식,스시맨,전북 군산시 수송안7길 31,수송동,수송동,
8532,카페,카페비 Cafe B,전북 군산시 수송안7길 30,수송동,수송동,
8529,한식,산전수전,전북 군산시 수송안7길 26,수송동,수송동,063-468-7789
8521,일식,바른초밥,전북 군산시 수송안5길 9,수송동,수송동,063-471-1919
8519,한식,최동민양푼갈비,전북 군산시 수송안5길 4,수송동,수송동,063-464-8545
8518,술집,투다리수송2호점,전북 군산시 수송안5길 3,수송동,수송동,063-467-9895
8517,카페,후르츠커피(Fruit Coffee),전북 군산시 수송안5길 11,수송동,수송동,
8516,한식,맘스쿡,전북 군산시 수송안5길 11,수송동,수송동,
8514,한식,찜하우스,전북 군산시 수송안5길 1,수송동,수송동,063-466-7870
8513,일식,준스시,전북 군산시 수송안4길 6,수송동,수송동,063-464-2223
8512,카페,포엠커피(4M COFFEE),전북 군산시 수송안4길 6,수송동,수송동,
8509,한식,불향낙지,전북 군산시 수송안4길 16,수송동,수송동,063-461-7667
8506,한식,동백상사,전북 군산시 수송안3길 3-9,수송동,수송동,
8505,일식,아제스시,전북 군산시 수송안3길 3-7,수송동,수송동,
8504,한식,미스터코다리,전북 군산시 수송안3길 18,수송동,수송동,063-467-1880
8502,카페,마마디,전북 군산시 수송안3길 12-1,수송동,수송동,
8501,한식,화우,전북 군산시 수송안3길 12,수송동,수송동,
8500,치킨,미원통닭,전북 군산시 수송안3길 10,수송동,수송동,063-461-0008
8498,한식,불타는구공탄,전북 군산시 수송안2길 6,수송동,수송동,
8497,한식,평양면옥,전북 군산시 수송안2길 5,수송동,수송동,
8496,중식,일품양꼬치,전북 군산시 수송안2길 4,수송동,수송동,063-467-9955
8495,한식,짚터볏짚삼겹살수송점,전북 군산시 수송안2길 16,수송동,수송동,
8494,카페,봄날,전북 군산시 수송안2길 12,수송동,수송동,
8492,한식,신의한쭈 쭈꾸미전문점,전북 군산시 수송안1길 7-8,수송동,수송동,
8490,카페,스칼렛아워,전북 군산시 수송안1길 7-7,수송동,수송동,
8487,카페,카페인,전북 군산시 수송안1길 7-4,수송동,수송동,
8486,한식,양푼갈비스토리,전북 군산시 수송안1길 7-4,수송동,수송동,063-466-4568
8484,카페,빠끄커피,전북 군산시 수송안1길 20,수송동,수송동,
8483,카페,겟커피(GET COFFEE),전북 군산시 수송안1길 18,수송동,수송동,
8481,술집,아카시아,전북 군산시 수송안1길 17-8,수송동,수송동,063-466-2256
8478,한식,형제갈치,전북 군산시 수송안1길 17,수송동,수송동,063-464-5233
8472,한식,다온,전북 군산시 수송안1길 12,수송동,수송동,063-465-0668
8471,양식,소뇨(sogno),전북 군산시 수송안11길 9,수송동,수송동,
8469,한식,돈천지,전북 군산시 수송안11길 6,수송동,수송동,
8468,치킨,오늘통닭,전북 군산시 수송안11길 28,수송동,수송동,063-462-1977
8467,양식,디어마이,전북 군산시 수송안11길 27,수송동,수송동,063-468-2542
8466,카페,"참, 아름다운",전북 군산시 수송안11길 26,수송동,수송동,
8465,술집,마실,전북 군산시 수송안11길 25-1,수송동,수송동,
8464,한식,우정명태,전북 군산시 수송안11길 25-1,수송동,수송동,063-464-2490
8463,한식,일번지K양푼갈비,전북 군산시 수송안11길 25-1,수송동,수송동,063-465-1925
8462,한식,동서네낙지 수송점,전북 군산시 수송안11길 23,수송동,수송동,063-466-2080
8460,한식,명태어장 군산수송점,전북 군산시 수송안11길 19,수송동,수송동,063-464-7700
8459,중식,마랄유혹,전북 군산시 수송안11길 18,수송동,수송동,063-466-2873
8458,한식,진짜진짜양푼갈비,전북 군산시 수송안11길 15,수송동,수송동,063-471-5888
8454,카페,카페치이즈,전북 군산시 수송안11길 10,수송동,수송동,063-463-5252
8450,일식,개미참치,전북 군산시 수송안10길 5,수송동,수송동,063-843-2266
8449,술집,감성한잔,전북 군산시 수송안10길 39,수송동,수송동,
8447,간식,화려,전북 군산시 수송안10길 33,수송동,수송동,
8442,분식,해피치즈스마일군산점,전북 군산시 수송안10길 21,수송동,수송동,
8434,카페,꽃순정,전북 군산시 수송안10길 11,수송동,수송동,
8433,치킨,치킨의 민족(군산점),전북 군산시 수송안9길 5,수송동,수송동,063-465-0626
8429,일식,스시사야,전북 군산시 수송안8길 20,수송동,수송동,063-464-4474
8427,카페,할리스커피군산시수송점,전북 군산시 수송북로 22,수송동,수송동,063-467-9500
8426,양식,에비뉴,전북 군산시 수송북로 7,수송동,수송동,
8414,한식,이차돌군산수송점,전북 군산시 수송북로 34,수송동,수송동,
8412,중식,보배반점 군산수송점,전북 군산시 수송북로 3,수송동,수송동,
8411,한식,신이해물포차,전북 군산시 수송북로 3,수송동,수송동,
8410,술집,더칸,전북 군산시 수송북로 3,수송동,수송동,063-467-8200
8408,분식,걸작떡볶이치킨수송점,전북 군산시 수송북로 22,수송동,수송동,063-462-3233
8407,패스트푸드,버거스캔들수송점,전북 군산시 수송북로 22,수송동,수송동,063-467-5233
8399,한식,24시전주명가콩나물국밥군산수송점,전북 군산시 수송로 241,수송동,수송동,063-463-2221
8385,카페,더벤티군산수송점,전북 군산시 수송로 216,수송동,수송동,
8381,중식,탕화쿵푸마라탕,전북 군산시 수송로 215,수송동,수송동,
8380,일식,연돈볼카츠군산수송점,전북 군산시 수송로 215,수송동,수송동,
8369,한식,연안식당 수송점,전북 군산시 수송로 213,수송동,수송동,063-465-7776
8364,카페,하삼동커피 군산수송점,전북 군산시 수송로 212,수송동,수송동,063-731-0009
8361,분식,으뜸이야,전북 군산시 수송로 211,수송동,수송동,063-466-0032
8360,양식,7번가피자수송점,전북 군산시 수송로 211,수송동,수송동,063-467-8777
8353,분식,북촌손만두 군산시수송점,전북 군산시 수송로 210,수송동,수송동,063-464-0070
8339,카페,디저트 39 군산수송점,전북 군산시 수송로 204,수송동,수송동,
8336,분식,김밥생각,전북 군산시 수송로 203,수송동,수송동,
8334,양식,롤링파스타 군산수송점,전북 군산시 수송로 202,수송동,수송동,
8332,카페,오늘도카페일리터군산점,전북 군산시 수송로 202,수송동,수송동,
8327,패스트푸드,에그드랍군산수송점,전북 군산시 수송로 200,수송동,수송동,063-462-0205
8324,카페,카페인중독 수송점,전북 군산시 수송로 199,수송동,수송동,063-467-3888
8321,한식,김가네김밥,전북 군산시 수송로 199,수송동,수송동,
8309,카페,커피면회소(수송점),전북 군산시 수송로 192,수송동,수송동,
8305,간식,느림보제빵소,전북 군산시 수송로 188,수송동,수송동,
8287,카페,카페리맨즈(군산수송점),전북 군산시 수송로 174,수송동,수송동,063-462-9571
8286,카페,이디야(수송점),전북 군산시 수송로 174,수송동,수송동,063-465-4594
8285,양식,와브(WABB),전북 군산시 수송로 174,수송동,수송동,
8281,중식,쿤밍,전북 군산시 수송로 163,수송동,수송동,063-462-8800
8280,중식,쿤밍,전북 군산시 수송로 163,수송동,수송동,063-462-8800
8277,카페,메가엠지씨커피 수송오투점,전북 군산시 수송로 136,수송동,수송동,063-468-7776
8275,음식점,마부마라탕,전북 군산시 수송로 134,수송동,수송동,
8272,한식,목동의집,전북 군산시 수송로 132,수송동,수송동,063-465-6492
8271,중식,하이난 아일랜드,전북 군산시 수송로 128,수송동,수송동,063-452-0909
8249,간식,뚜레쥬르 군산수송공원점,전북 군산시 수송동로 79,수송동,수송동,063-443-0098
8242,카페,에이비씨커피(수송공원점),전북 군산시 수송동로 75,수송동,수송동,063-466-2681
8239,분식,감탄(수송점),전북 군산시 수송동로 73,수송동,수송동,063-467-1548
8236,간식,떡보의하루 수송점,전북 군산시 수송동로 61,수송동,수송동,063-461-0041
8233,음식점,한상차림,전북 군산시 수송동로 59,수송동,수송동,
8228,카페,읍천리382 군산수송점,전북 군산시 수송동로 47,수송동,수송동,
8219,카페,브레드 샵,전북 군산시 수송동로 37,수송동,수송동,
8213,간식,8월의크리스마스,전북 군산시 수송동로 35,수송동,수송동,063-466-6714
8195,카페,리얼타임,전북 군산시 수송동로 19,수송동,수송동,063-910-1811
8192,분식,달콤분식,전북 군산시 수송동로 18,수송동,수송동,063-468-9779
8187,카페,샌디,전북 군산시 수송동로 11,수송동,수송동,
8184,간식,후아후아브레드,전북 군산시 수송동로 11,수송동,수송동,
8180,카페,바빈스커피군산수송점,전북 군산시 수송동로 105,수송동,수송동,
8170,패스트푸드,청춘감성쌀핫도그,전북 군산시 수송동로 100,수송동,수송동,063-471-4743
8160,간식,파리바게뜨(리첼점),전북 군산시 수송동로 100,수송동,수송동,063-463-5005
8156,한식,황금바다,전북 군산시 수송안10길 9,수송동,수송동,063-465-8181
8153,한식,칠억조,전북 군산시 수송안10길 25,수송동,수송동,063-464-2004
8148,양식,피자스쿨,전북 군산시 수송동로 79,수송동,수송동,063-466-4592
8142,간식,베스킨라빈스군산수송점,전북 군산시 월명로 233,수송동,수송동,063-453-0031
8137,술집,황태가맥사람들,전북 군산시 축동안길 65,수송동,수송동,063-465-1093
8128,한식,포세이돈,전북 군산시 수송남로 12,수송동,수송동,063-461-7171
8126,카페,카페 디데이,전북 군산시 수송남로 8,수송동,수송동,
8124,술집,바보스군산수송점,전북 군산시 수송남로 46,수송동,수송동,063-464-6878
8122,한식,죽이야기 수송점,전북 군산시 수송남로 46,수송동,수송동,063-467-8097
8119,술집,종로맥가,전북 군산시 수송남로 40,수송동,수송동,
8118,간식,곽형호 빵공방,전북 군산시 수송남로 36-2,수송동,수송동,063-451-2275
8116,한식,뜨란풍경,전북 군산시 수송남로 36-2,수송동,수송동,063-468-1553
8113,카페,맘스미니카페,전북 군산시 수송남로 36-1,수송동,수송동,
8105,한식,우박집,전북 군산시 수송남로 24,수송동,수송동,
8102,한식,장미칼국수직영점,전북 군산시 수송남로 20,수송동,수송동,063-461-5735
8100,일식,돔베초밥수송점,전북 군산시 수송남로 2,수송동,수송동,063-471-8884
8099,야식,장금이야식,전북 군산시 수송남로 16,수송동,수송동,063-445-4449
8097,한식,최고횟집,전북 군산시 수송남로 12,수송동,수송동,
8093,간식,아이엠도넛 군산수송점,전북 군산시 수송8길 33,수송동,수송동,
8087,카페,긱인더브레드,전북 군산시 수송8길 30,수송동,수송동,
8084,치킨,조선치킨수송점,전북 군산시 수송8길 25,수송동,수송동,063-464-9987
8083,한식,팔마교,전북 군산시 수송8길 22,수송동,수송동,063-462-0530
8082,한식,청석골,전북 군산시 수송8길 20,수송동,수송동,063-443-7800
8079,카페,모담,전북 군산시 수송7길 8,수송동,수송동,063-467-0551
8076,한식,광달이,전북 군산시 수송7길 31,수송동,수송동,063-463-1981
8073,술집,착한맥주,전북 군산시 수송7길 29,수송동,수송동,
8072,한식,계이득 머무를정,전북 군산시 수송7길 29,수송동,수송동,063-463-8592
8071,술집,로얄자카르타비발디점,전북 군산시 수송7길 28,수송동,수송동,
8070,한식,택이네조개전골,전북 군산시 수송7길 27,수송동,수송동,063-465-0344
8069,술집,일루와,전북 군산시 수송7길 23,수송동,수송동,063-468-5959
8066,술집,크리스탈,전북 군산시 수송7길 21,수송동,수송동,
8065,한식,와!갈비,전북 군산시 수송7길 20,수송동,수송동,063-471-2286
8060,카페,일공이(10E),전북 군산시 수송6길 30,수송동,수송동,
8059,한식,화덕생선구이 어락도,전북 군산시 수송6길 30,수송동,수송동,063-471-9279
8058,카페,(유)엔젤 수송동지점,전북 군산시 수송6길 3,수송동,수송동,063-464-1522
8057,패스트푸드,맘스터치 수송점,전북 군산시 수송6길 3,수송동,수송동,063-461-7780
8055,한식,마음고기 수송점,전북 군산시 수송6길 28,수송동,수송동,
8054,패스트푸드,주식회사윤강씨앤케이 피자헛 군산 수송점,전북 군산시 수송6길 22,수송동,수송동,063-462-4573
8051,중식,마화쿵부군산점,전북 군산시 수송5길 6,수송동,수송동,063-468-4355
8050,뷔페,일곱가지무제한연어요리살몬마켓,전북 군산시 수송5길 5,수송동,수송동,063-462-0850
8049,분식,불닭발동대문엽기떡볶이수송점,전북 군산시 수송5길 5,수송동,수송동,063-466-8591
8048,일식,산쪼메,전북 군산시 수송5길 5,수송동,수송동,
8047,중식,마라공방,전북 군산시 수송5길 10,수송동,수송동,063-463-2228
8042,치킨,치킨더홈군산시수송점,전북 군산시 수송3길 9,수송동,수송동,063-465-7778
8039,카페,장미찻집,전북 군산시 수송3길 1,수송동,수송동,
8038,분식,고봉민김밥인(수송점),전북 군산시 수송3길 1,수송동,수송동,063-467-3031
8035,한식,왕창해장국,전북 군산시 수송2길 28,수송동,수송동,063-471-3288
8033,한식,돼지가바람났네족발,전북 군산시 수송2길 10,수송동,수송동,063-910-1667
8032,카페,에이(A)카페,전북 군산시 수송2길 10,수송동,수송동,063-452-8940
8031,한식,본뼈,전북 군산시 수송1길 25,수송동,수송동,063-465-8231
8027,카페,엔엔엔씨커피랩,전북 군산시 수송1길 30,수송동,수송동,
8024,중식,동보성,전북 군산시 수송1길 19,수송동,수송동,063-466-7388
8022,한식,웰미가 수송점,전북 군산시 수송1길 17,수송동,수송동,063-462-0095
8018,한식,화심순두부군산점,전북 군산시 미장서로 40,수송동,수송동,063-910-0051
8017,한식,해원아구,전북 군산시 미장서로 98,수송동,수송동,
8009,일식,홍익돈까스,전북 군산시 미장서로 54,수송동,수송동,063-445-1715
8005,한식,군산킹크랩수산,전북 군산시 미장서로 42,수송동,수송동,063-442-4443
8004,카페,하비섬,전북 군산시 미장서로 28,수송동,수송동,
8002,한식,회테이크아웃(TAKE OUT),전북 군산시 미장서로 2,수송동,수송동,063-446-3232
8000,한식,푸른 둥지,전북 군산시 미장서로 136-6,수송동,수송동,063-442-1270
7996,한식,대자연횟집,전북 군산시 미장서로 102,수송동,수송동,
7995,한식,경포천추어탕,전북 군산시 미장서로 102,수송동,수송동,063-442-0088
7993,한식,경포천장어,전북 군산시 미장서로 100-5,수송동,수송동,063-445-9293
7991,한식,안골즉석장어구이,전북 군산시 문화로 49,수송동,수송동,
7990,카페,커피베이군산수송점,전북 군산시 문화로 47,수송동,수송동,063-462-6368
7987,한식,아구세상수송점,전북 군산시 문화로 95,수송동,수송동,063-466-3522
7986,한식,명륜진사갈비 군산본점,전북 군산시 문화로 95,수송동,수송동,
7984,카페,카페로더,전북 군산시 문화로 87,수송동,수송동,
7982,분식,맛남,전북 군산시 문화로 86,수송동,수송동,063-465-9095
7978,간식,(주)엘제이엠개발 빵샘,전북 군산시 문화로 80,수송동,수송동,
7973,한식,닭스토리,전북 군산시 문화로 73-5,수송동,수송동,
7964,한식,새맛뜰,전북 군산시 문화로 56,수송동,수송동,063-464-9488
7962,카페,아프리카커피초콜릿수송점,전북 군산시 문화로 53,수송동,수송동,063-466-1543
7960,한식,구구족발,전북 군산시 문화로 52,수송동,수송동,063-653-9982
7958,한식,굴세상,전북 군산시 문화로 52,수송동,수송동,
7957,한식,우돈한마리 정육식당,전북 군산시 문화로 51,수송동,수송동,
7956,한식,통큰갈비 수송점,전북 군산시 문화로 51,수송동,수송동,
7939,한식,삼동소바,전북 군산시 문화로 151,수송동,수송동,
7927,양식,엑시트피자군산점,전북 군산시 문화로 137,수송동,수송동,063-466-7111
7922,카페,메가엠지씨커피군산수송점,전북 군산시 문화로 121,수송동,수송동,
7917,한식,새우나라 포차,전북 군산시 문화로 119,수송동,수송동,
7915,치킨,치킨매니아,전북 군산시 문화로 119,수송동,수송동,063-468-9288
7912,한식,양평해장국수송현대점,전북 군산시 문화로 117,수송동,수송동,
7908,일식,티엠푸드,전북 군산시 문화로 107,수송동,수송동,
7907,중식,송가짬뽕,전북 군산시 동수송안길 55,수송동,수송동,
7904,양식,경성함바그,전북 군산시 동수송안길 55,수송동,수송동,063-462-1399
7902,술집,노가리앤비어,전북 군산시 동수송안길 51,수송동,수송동,
7901,한식,군산시꽃돼지,전북 군산시 동수송안길 51,수송동,수송동,063-468-1336
7900,한식,도도랑,전북 군산시 동수송안길 51,수송동,수송동,063-471-8998
7898,한식,리가든,전북 군산시 동수송안길 45,수송동,수송동,
7896,한식,쪽찌 수송점,전북 군산시 동수송안길 45,수송동,수송동,063-471-9285
7895,한식,만수미당군산점,전북 군산시 동수송안길 45,수송동,수송동,063-466-8600
7892,한식,예향정군산수송점,전북 군산시 동수송안길 43,수송동,수송동,063-471-8253
7891,한식,개성집,전북 군산시 동수송안길 39,수송동,수송동,063-467-9010
7890,한식,김형제고기의철학,전북 군산시 동수송안길 39,수송동,수송동,063-471-1100
7887,분식,바르다 김선생 수송점,전북 군산시 동수송안길 35,수송동,수송동,063-463-2070
7884,일식,아리가또맘마,전북 군산시 동수송안길 35,수송동,수송동,063-465-4295
7883,카페,이디야커피군산시신시가지점,전북 군산시 동수송안길 35,수송동,수송동,063-466-3332
7878,분식,김밥집이다,전북 군산시 동수송안길 31,수송동,수송동,063-467-5656
7877,한식,고수닭갈비 군산점,전북 군산시 동수송안길 31,수송동,수송동,
7876,샤브샤브,꽃마름군산수송점,전북 군산시 동수송안길 31,수송동,수송동,063-465-3900
7870,음식점,푸바오,전북 군산시 동수송안길 25,수송동,수송동,
7869,술집,요리가정겨운집,전북 군산시 동수송안길 25,수송동,수송동,063-468-2011
7868,술집,청담이상군산수송점,전북 군산시 동수송안길 25,수송동,수송동,063-465-8686
7866,카페,조이룸카페,전북 군산시 동수송안길 25,수송동,수송동,
7865,퓨전요리,한끼맛있다,전북 군산시 동수송안길 23,수송동,수송동,063-468-0218
7864,한식,가장맛있는족발,전북 군산시 동수송안길 23,수송동,수송동,
7863,술집,한신포차 군산수송점,전북 군산시 동수송안길 12-7,수송동,수송동,
7862,뷔페,맛나,전북 군산시 동수송안길 12-5,수송동,수송동,063-463-0788
7861,한식,지호한방삼계탕군산점,전북 군산시 동수송9길 8,수송동,수송동,063-468-3688
7860,한식,문화관,전북 군산시 동수송9길 5,수송동,수송동,063-463-6420
7859,한식,미사리밀빛 초계국수 군산점,전북 군산시 동수송9길 3,수송동,수송동,
7856,음식점,큰맘할매순대국,전북 군산시 동수송9길 16,수송동,수송동,063-466-6777
7853,한식,군산해물찜,전북 군산시 동수송9길 15,수송동,수송동,063-467-2425
7852,양식,피자익스프레스(군산점),전북 군산시 동수송9길 13,수송동,수송동,
7851,아시아음식,조선쌀국수,전북 군산시 동수송9길 12,수송동,수송동,
7850,한식,구구족군산점,전북 군산시 동수송9길 12,수송동,수송동,063-461-1161
7849,한식,소곰집,전북 군산시 동수송9길 11,수송동,수송동,
7848,한식,행복하소,전북 군산시 동수송9길 11,수송동,수송동,
7844,분식,슈퍼떡볶킹,전북 군산시 동수송8길 9,수송동,수송동,
7843,한식,웅이네오돌뼈(군산점),전북 군산시 동수송8길 9,수송동,수송동,
7842,치킨,푸라닭군산수송점,전북 군산시 동수송8길 7,수송동,수송동,
7841,한식,대삼,전북 군산시 동수송8길 6,수송동,수송동,
7839,음식점,은아푸드,전북 군산시 동수송8길 5,수송동,수송동,
7836,한식,곱창이최고예요,전북 군산시 동수송8길 3,수송동,수송동,
7835,술집,술독군산시점,전북 군산시 동수송8길 24,수송동,수송동,063-463-4758
7834,술집,8월의 중화객잔,전북 군산시 동수송8길 23,수송동,수송동,
7833,한식,벼락금돼지,전북 군산시 동수송8길 22,수송동,수송동,
7832,한식,육연집,전북 군산시 동수송8길 2,수송동,수송동,
7831,일식,굳돈,전북 군산시 동수송8길 19,수송동,수송동,
7830,한식,(유)유성꽃게장,전북 군산시 동수송8길 18,수송동,수송동,063-464-6670
7828,한식,김대감안동찜닭,전북 군산시 동수송8길 15,수송동,수송동,063-462-9787
7827,술집,평화의광장 군산,전북 군산시 동수송8길 14,수송동,수송동,
7826,한식,마왕족발,전북 군산시 동수송8길 11,수송동,수송동,
7825,치킨,60계치킨군산점,전북 군산시 동수송8길 10,수송동,수송동,063-471-7778
7824,일식,경양카츠 군산,전북 군산시 동수송8길 1,수송동,수송동,
7823,술집,동네방네수산포차,전북 군산시 동수송7길 7,수송동,수송동,063-468-1249
7820,술집,생활맥주 군산수송점,전북 군산시 동수송7길 6-1,수송동,수송동,
7819,한식,흑돼지삼백식당군산수송점,전북 군산시 동수송7길 6,수송동,수송동,063-462-7001
7818,한식,일미리금계찜닭,전북 군산시 동수송7길 5-1,수송동,수송동,
7817,한식,신마포 갈매기,전북 군산시 동수송7길 5,수송동,수송동,063-451-6092
7816,한식,야키로,전북 군산시 동수송7길 4,수송동,수송동,
7815,한식,희자매숯불닭갈비,전북 군산시 동수송7길 20,수송동,수송동,063-471-0621
7814,한식,구이쟁이,전북 군산시 동수송7길 2,수송동,수송동,063-467-9272
7813,한식,월하,전북 군산시 동수송7길 19,수송동,수송동,063-463-4439
7812,술집,다사랑치킨피자호프수송점,전북 군산시 동수송7길 16,수송동,수송동,
7811,술집,포장맛차수송점,전북 군산시 동수송7길 16,수송동,수송동,
7810,술집,더한잔,전북 군산시 동수송7길 14,수송동,수송동,
7808,술집,크라운호프군산수송점,전북 군산시 동수송6길 9,수송동,수송동,063-464-5969
7807,한식,센스(Sense),전북 군산시 동수송6길 8,수송동,수송동,
7806,한식,깐깐한족발 군산수송점,전북 군산시 동수송6길 7,수송동,수송동,
7805,한식,프랜차이즈 in,전북 군산시 동수송6길 6,수송동,수송동,063-468-4211
7804,한식,도부리감자탕 수송점,전북 군산시 동수송6길 4,수송동,수송동,063-468-5885
7803,술집,심야식당쥬라이,전북 군산시 동수송6길 22,수송동,수송동,063-911-7517
7802,술집,밀회관군산수송점,전북 군산시 동수송6길 21,수송동,수송동,
7801,한식,김재완원조돼지김치구이,전북 군산시 동수송6길 19,수송동,수송동,063-464-8295
7798,술집,역전할머니맥주,전북 군산시 동수송6길 15,수송동,수송동,
7797,술집,술집이다,전북 군산시 동수송6길 10,수송동,수송동,
7795,술집,문코,전북 군산시 동수송5길 6,수송동,수송동,
7794,중식,화양양꼬치,전북 군산시 동수송5길 18,수송동,수송동,
7793,한식,군산곱창,전북 군산시 동수송5길 16,수송동,수송동,063-468-4411
7792,한식,달인 연탄구이,전북 군산시 동수송5길 15,수송동,수송동,
7791,술집,9425(구사이오),전북 군산시 동수송5길 12,수송동,수송동,
7790,술집,골목,전북 군산시 동수송5길 11,수송동,수송동,
7789,치킨,교촌치킨 미장수송점,전북 군산시 동수송4길 8,수송동,수송동,063-462-1994
7788,한식,하남돼지집 군산수송동점,전북 군산시 동수송4길 8,수송동,수송동,063-466-1992
7787,한식,제줏간 군산점,전북 군산시 동수송4길 5,수송동,수송동,
7786,한식,진포곱창,전북 군산시 동수송4길 20,수송동,수송동,
7785,양식,제임스시카고피자군산시수송점,전북 군산시 동수송4길 19,수송동,수송동,063-465-0979
7784,한식,소신,전북 군산시 동수송4길 18,수송동,수송동,063-471-8295
7783,한식,곱창고(수송점),전북 군산시 동수송4길 15,수송동,수송동,
7782,한식,경성일번가 군산수송점,전북 군산시 동수송4길 14,수송동,수송동,
7781,술집,신새벽시장,전북 군산시 동수송4길 12,수송동,수송동,
7780,술집,누룩꽃피는날수송점,전북 군산시 동수송4길 1,수송동,수송동,
7777,중식,리엔차이,전북 군산시 동수송3길 5,수송동,수송동,063-443-9800
7773,치킨,네네치킨앤봉구스밥버거수송공원점,전북 군산시 동수송3길 22,수송동,수송동,
7772,한식,감나무집 수송점,전북 군산시 동수송3길 22,수송동,수송동,
7767,일식,초밥대통령수송점,전북 군산시 동수송3길 19-1,수송동,수송동,063-465-5559
7763,일식,히츠지야 군산점,전북 군산시 동수송3길 10,수송동,수송동,
7762,술집,싱글앤싱글,전북 군산시 동수송2길 19,수송동,수송동,
7761,양식,레트로키친,전북 군산시 동수송2길 7,수송동,수송동,063-471-5541
7757,술집,장미맨숀,전북 군산시 동수송2길 30,수송동,수송동,
7756,술집,청담동말자싸롱,전북 군산시 동수송2길 28,수송동,수송동,
7755,한식,진수곱창,전북 군산시 동수송2길 26,수송동,수송동,063-467-4594
7754,한식,1943 군산점,전북 군산시 동수송2길 24,수송동,수송동,
7753,한식,육값어치,전북 군산시 동수송2길 22,수송동,수송동,
7751,술집,촌댁,전북 군산시 동수송2길 21,수송동,수송동,
7750,한식,군산꽃삼겹(신관),전북 군산시 동수송2길 15,수송동,수송동,
7747,분식,크앙분식군산수송점,전북 군산시 동수송2길 11,수송동,수송동,
7746,양식,서양식당0654,전북 군산시 동수송1길 19,수송동,수송동,063-468-0655
7745,한식,화니양푼갈비,전북 군산시 동수송6길 2,수송동,수송동,063-466-1616
7743,한식,이모네연탄구이(수송점),전북 군산시 동메3길 32,수송동,수송동,
7741,한식,복사골육고기,전북 군산시 동메3길 31,수송동,수송동,
7736,분식,딜라이트푸드,전북 군산시 동메2길 32-4,수송동,수송동,063-467-4650
7734,한식,가나순대,전북 군산시 동메2길 31-5,수송동,수송동,063-461-1996
7731,카페,이야기꽃,전북 군산시 동메1길 9-6,수송동,수송동,063-465-6318
7730,음식점,바다바다,전북 군산시 동메1길 9-4,수송동,수송동,063-471-9293
7729,한식,곱창통통,전북 군산시 동메1길 9-4,수송동,수송동,063-741-9293
7728,한식,제주도횟집,전북 군산시 동메1길 9-2,수송동,수송동,
7726,한식,서해아구,전북 군산시 동메1길 30-2,수송동,수송동,063-446-0739
7724,일식,혜화동돈까스극장,전북 군산시 동메1길 29-24,수송동,수송동,063-467-3444
7722,한식,외도리식당,전북 군산시 동메1길 29-2,수송동,수송동,063-463-2365
7721,한식,사거리게장백반,전북 군산시 동메1길 29-2,수송동,수송동,063-471-5116
7718,한식,윤아네,전북 군산시 동메1길 12-4,수송동,수송동,063-465-3392
7717,술집,등대포차,전북 군산시 동메1길 12-3,수송동,수송동,063-468-4166
7716,한식,수송회집,전북 군산시 동메1길 12-1,수송동,수송동,063-466-8814
7715,한식,부자회집,전북 군산시 동메1길 10,수송동,수송동,063-461-1050
7714,중식,차이나짬뽕,전북 군산시 남수송6길 7-7,수송동,수송동,063-468-4900
7712,한식,금송,전북 군산시 남수송6길 7,수송동,수송동,063-464-6038
7711,한식,추민자 양푼갈비,전북 군산시 남수송6길 3-6,수송동,수송동,
7710,한식,다정,전북 군산시 남수송6길 3-4,수송동,수송동,063-467-5672
7709,카페,아프리카커피초콜릿,전북 군산시 남수송6길 10,수송동,수송동,063-467-1541
7708,한식,청산횟집,전북 군산시 남수송5길 8-8,수송동,수송동,063-471-5682
7707,한식,힘솟는짱어,전북 군산시 남수송5길 8-6,수송동,수송동,063-461-4900
7706,카페,전통찻집 꽃잎,전북 군산시 남수송5길 8-4,수송동,수송동,063-461-7008
7705,카페,커피브라운,전북 군산시 남수송5길 8-17,수송동,수송동,063-465-7730
7704,음식점,군산앞바다,전북 군산시 남수송5길 50-4,수송동,수송동,
7703,한식,군산원감자탕,전북 군산시 남수송5길 50-4,수송동,수송동,063-467-6991
7702,양식,마르코키친,전북 군산시 남수송5길 50,수송동,수송동,063-471-5525
7700,한식,대도관,전북 군산시 남수송5길 49-7,수송동,수송동,063-461-5959
7699,술집,일프로,전북 군산시 남수송5길 49-5,수송동,수송동,
7692,한식,다올,전북 군산시 남수송5길 46-2,수송동,수송동,063-468-1117
7690,한식,어장어 군산본점,전북 군산시 남수송5길 45,수송동,수송동,063-466-5556
7689,한식,일품아구,전북 군산시 남수송5길 45,수송동,수송동,063-471-4962
7687,한식,베이비파파,전북 군산시 남수송5길 4-18,수송동,수송동,
7683,한식,12동파수산,전북 군산시 남수송5길 26,수송동,수송동,063-442-1208
7682,한식,"예술냉면, 칼국수",전북 군산시 남수송5길 22,수송동,수송동,
7681,한식,호돌이해물등뼈찜 남수송점,전북 군산시 남수송5길 20,수송동,수송동,
7679,술집,그란테,전북 군산시 남수송5길 49-3,수송동,수송동,063-471-7855
7677,식품판매,송송,전북 군산시 남수송4길 8-7,수송동,수송동,
7676,한식,전원마을돌솥쌈밥,전북 군산시 남수송4길 6,수송동,수송동,063-471-3863
7675,양식,웰돈군산점,전북 군산시 남수송4길 4,수송동,수송동,063-910-7874
7674,한식,김가네숯불막창삼겹살,전북 군산시 남수송4길 2-4,수송동,수송동,063-467-3392
7671,카페,투썸플레이스군산시수송,전북 군산시 남수송3길 43,수송동,수송동,063-471-2624
7668,일식,하루키친,전북 군산시 남수송3길 41,수송동,수송동,
7667,한식,북한강,전북 군산시 남수송3길 41,수송동,수송동,063-467-1141
7666,술집,까투리수송대박점,전북 군산시 남수송3길 36,수송동,수송동,
7665,한식,미소순대국밥,전북 군산시 남수송3길 34,수송동,수송동,
7659,한식,봉평메밀막국수수송점,전북 군산시 남수송2길 8,수송동,수송동,063-466-9285
7658,한식,연곱삼,전북 군산시 남수송2길 3,수송동,수송동,
7656,한식,비발디횟집,전북 군산시 남수송2길 12,수송동,수송동,063-468-9836
7655,한식,대감순대명태찜,전북 군산시 남수송1길 9,수송동,수송동,063-467-3288
7654,한식,정한식당,전북 군산시 남수송1길 7-5,수송동,수송동,063-471-8850
7652,한식,수라간,전북 군산시 남수송1길 7-3,수송동,수송동,
7651,한식,정석통바베큐족구이,전북 군산시 남수송1길 7,수송동,수송동,063-461-0606
7650,한식,돈구이가,전북 군산시 남수송1길 5,수송동,수송동,063-462-9997
7649,한식,보배밥상,전북 군산시 남수송4길 8-6,수송동,수송동,063-462-6692
7648,한식,청사초롱,전북 군산시 수송안1길 7-2,수송동,수송동,063-471-8959
7647,한식,행복한우,전북 군산시 수송안1길 10,수송동,수송동,063-465-8700
7645,한식,곱창이야기수송점,전북 군산시 동수송8길 21,수송동,수송동,063-466-3048
7632,한식,불땡국수(지곡점),전북 군산시 공단대로 251,수송동,수송동,063-461-1972
7621,카페,샬롬카페,전북 군산시 공단대로 203,수송동,수송동,
7613,카페,커피볶는집,전북 군산시 청소년회관로 70,신풍동,송풍동,063-467-3359
7611,한식,시골집칼국수,전북 군산시 청소년회관로 56,신풍동,송풍동,
7608,카페,낭만가비,전북 군산시 청소년회관로 49,신풍동,송풍동,063-466-4006
7604,한식,도가니탕전문점숙경,전북 군산시 신풍2길 1,신풍동,송풍동,063-465-1145
7600,카페,하모니카,전북 군산시 송산1길 3-1,신풍동,송풍동,063-468-3999
7592,한식,좋은친구들,전북 군산시 해망로 606,소룡동,소룡동,063-467-3939
7589,치킨,멕시카나 소룡점,전북 군산시 해망로 606,소룡동,소룡동,063-465-9992
7581,한식,이소곰탕,전북 군산시 해망로 550,소룡동,소룡동,063-468-2342
7580,한식,함흥관,전북 군산시 해망로 550,소룡동,소룡동,
7579,중식,해물짬뽕용궁,전북 군산시 해망로 550,소룡동,소룡동,063-466-9090
7570,카페,카페511,전북 군산시 해망로 511,소룡동,소룡동,063-462-3564
7554,한식,새참식당,전북 군산시 풍전6길 17,소룡동,소룡동,063-468-7995
7551,한식,소룡맛집,전북 군산시 풍전5길 36-7,소룡동,소룡동,
7550,한식,소룡맛집,전북 군산시 풍전5길 36-7,소룡동,소룡동,063-466-3340
7547,한식,우가,전북 군산시 풍전5길 12,소룡동,소룡동,063-467-9289
7531,중식,가향,전북 군산시 풍전4길 11,소룡동,소룡동,
7529,중식,북경반점,전북 군산시 풍전3길 35-1,소룡동,소룡동,063-453-4433
7519,식품,푸드라이프,전북 군산시 칠성안2길 95,소룡동,소룡동,
7517,한식,미애네집,전북 군산시 칠성안2길 95,소룡동,소룡동,
7516,술집,왕이모 포차,전북 군산시 칠성안2길 94-9,소룡동,소룡동,
7514,술집,심야식당,전북 군산시 칠성안2길 94-5,소룡동,소룡동,
7513,치킨,교촌치킨소룡산북점,전북 군산시 칠성안2길 94-3,소룡동,소룡동,
7511,치킨,포차064X신이내린닭,전북 군산시 칠성안2길 94-1,소룡동,소룡동,
7510,한식,정이가,전북 군산시 칠성안2길 104,소룡동,소룡동,063-468-1379
7509,한식,은파세꼬시,전북 군산시 칠성안2길 104,소룡동,소룡동,063-465-0083
7507,한식,군산식도락,전북 군산시 칠성안2길 100,소룡동,소룡동,063-462-2232
7505,치킨,치맥특별시,전북 군산시 칠성로 200,소룡동,소룡동,
7504,한식,어부네,전북 군산시 칠성로 200,소룡동,소룡동,063-468-7292
7503,한식,이가부대찌개,전북 군산시 칠성로 199,소룡동,소룡동,
7502,중식,코코반점,전북 군산시 칠성로 194,소룡동,소룡동,
7499,한식,장어나라,전북 군산시 칠성로 187,소룡동,소룡동,
7498,한식,운주골,전북 군산시 칠성로 187,소룡동,소룡동,063-462-5443
7497,식품판매,총각네수산,전북 군산시 칠성로 177,소룡동,소룡동,063-465-6163
7496,한식,예담해물찜,전북 군산시 칠성로 175,소룡동,소룡동,063-471-1333
7495,한식,양평해장국 소룡점,전북 군산시 칠성로 175,소룡동,소룡동,
7494,분식,김밥천국,전북 군산시 칠성로 175,소룡동,소룡동,063-462-2131
7493,한식,한우한돈일번지,전북 군산시 칠성로 175,소룡동,소룡동,
7492,한식,신선미,전북 군산시 칠성로 174,소룡동,소룡동,063-466-1617
7491,한식,새만금숯불장어구이,전북 군산시 칠성로 172,소룡동,소룡동,063-467-9787
7490,한식,도시어부,전북 군산시 칠성로 172,소룡동,소룡동,
7489,한식,꽃보다소,전북 군산시 칠성로 172,소룡동,소룡동,063-461-8592
7488,한식,원조목살집 소룡점,전북 군산시 칠성로 169,소룡동,소룡동,063-463-3883
7486,한식,가장맛있는족발(소룡점),전북 군산시 칠성로 168,소룡동,소룡동,063-465-8898
7485,술집,포장맛차소룡점,전북 군산시 칠성로 167,소룡동,소룡동,
7484,술집,까투리소룡행운점,전북 군산시 칠성로 166,소룡동,소룡동,
7483,한식,돈꼬기,전북 군산시 칠성로 166,소룡동,소룡동,
7482,치킨,정인닭,전북 군산시 칠성로 166,소룡동,소룡동,063-467-0449
7481,술집,오투호프,전북 군산시 칠성로 165,소룡동,소룡동,
7479,술집,노루이자카야,전북 군산시 칠성로 165,소룡동,소룡동,063-463-9500
7478,한식,막창엔곱창,전북 군산시 칠성로 163,소룡동,소룡동,063-465-9501
7477,술집,엄마가생맥주,전북 군산시 칠성로 163,소룡동,소룡동,
7476,한식,도담한우,전북 군산시 칠성로 161,소룡동,소룡동,063-468-8068
7475,한식,장서방,전북 군산시 칠성7길 98-1,소룡동,소룡동,
7474,치킨,부곡두마리 치킨,전북 군산시 칠성7길 125,소룡동,소룡동,063-466-8884
7473,한식,서울부대찌개,전북 군산시 칠성7길 121,소룡동,소룡동,063-471-3731
7472,한식,유명갈비,전북 군산시 칠성7길 115,소룡동,소룡동,063-463-9250
7470,한식,처가집한방옻닭오리,전북 군산시 칠성6길 188,소룡동,소룡동,063-462-1227
7469,치킨,치킨더홈소룡점,전북 군산시 칠성6길 179,소룡동,소룡동,
7468,중식,소호객잔,전북 군산시 칠성6길 179,소룡동,소룡동,
7467,한식,늘푸른집,전북 군산시 칠성6길 179,소룡동,소룡동,063-462-5266
7465,한식,소영생고깃간,전북 군산시 칠성6길 165,소룡동,소룡동,063-466-8825
7464,술집,군산실내마차,전북 군산시 칠성6길 164,소룡동,소룡동,
7461,양식,미스터파파 임실치즈피자,전북 군산시 칠성5길 168,소룡동,소룡동,063-464-8227
7457,한식,원조북새통,전북 군산시 칠성5길 167,소룡동,소룡동,
7454,한식,자매순대,전북 군산시 칠성5길 163,소룡동,소룡동,063-463-5950
7453,한식,시골토종순대,전북 군산시 칠성5길 161,소룡동,소룡동,063-462-0129
7452,한식,삼미정,전북 군산시 칠성5길 159,소룡동,소룡동,063-465-0775
7449,한식,달봉이네,전북 군산시 칠성4길 193,소룡동,소룡동,
7448,한식,낙지힘낙지,전북 군산시 칠성4길 187,소룡동,소룡동,063-467-6788
7447,치킨,호식이두마리치킨 소룡점,전북 군산시 칠성4길 186,소룡동,소룡동,063-466-9595
7444,치킨,더(THE)맛있는옛날통닭,전북 군산시 칠성4길 170,소룡동,소룡동,
7442,한식,양푼왕갈비,전북 군산시 칠성7길 98,소룡동,소룡동,063-463-0691
7439,중식,우정반점,전북 군산시 자유로 135-27,소룡동,소룡동,063-466-0467
7431,한식,소라아구복,전북 군산시 솔꼬지3길 30,소룡동,소룡동,063-467-3711
7429,카페,그리고,전북 군산시 솔꼬지1길 23,소룡동,소룡동,
7426,한식,광주네집,전북 군산시 소룡안3길 30,소룡동,소룡동,063-466-0518
7425,술집,여기서지금,전북 군산시 소룡안3길 30,소룡동,소룡동,
7423,한식,제주도흑돼지꿈마차,전북 군산시 소룡안3길 30,소룡동,소룡동,
7422,한식,바베큐통족구이군산소룡점,전북 군산시 소룡안3길 29,소룡동,소룡동,063-465-8686
7421,치킨,오복통닭,전북 군산시 소룡안3길 29,소룡동,소룡동,
7418,양식,테라스,전북 군산시 소룡안2길 36,소룡동,소룡동,
7415,카페,달달한밤,전북 군산시 소룡안2길 33,소룡동,소룡동,
7414,한식,골라먹는 연탄구이,전북 군산시 소룡안2길 31-1,소룡동,소룡동,
7408,술집,두루파전닭갈비,전북 군산시 소룡안1길 32,소룡동,소룡동,
7406,술집,잔비어,전북 군산시 소룡안1길 31,소룡동,소룡동,
7405,한식,군산포차,전북 군산시 소룡안1길 31,소룡동,소룡동,
7403,한식,골목길가든,전북 군산시 소룡안1길 16,소룡동,소룡동,063-471-9955
7402,한식,한고을소룡점,전북 군산시 소룡안1길 12,소룡동,소룡동,063-468-2549
7401,술집,옛날통닭,전북 군산시 공항로,소룡동,소룡동,063-467-8550
7399,한식,평강채,전북 군산시 풍전5길 22,소룡동,소룡동,063-468-8644
7394,한식,코오롱가든,전북 군산시 소룡안3길 31,소룡동,소룡동,063-461-0002
7391,치킨,돈치킨,전북 군산시 칠성로 193,소룡동,소룡동,063-465-8696
7389,간식,명가떡집,전북 군산시 칠성안2길 94-5,소룡동,소룡동,063-465-1143
7380,한식,제이하우스,전북 군산시 설림5길 47,소룡동,소룡동,063-463-5050
7377,한식,고향,전북 군산시 설림5길 46,소룡동,소룡동,063-462-4300
7374,한식,학교종이땡땡땡바지락손칼국수,전북 군산시 공항로 77,소룡동,소룡동,063-467-7136
7361,음식점,고참밀가,전북 군산시 소룡길 73,소룡동,소룡동,
7360,치킨,영양통닭,전북 군산시 소룡길 73,소룡동,소룡동,063-465-3006
7359,한식,마늘각시,전북 군산시 소룡길 73,소룡동,소룡동,
7356,한식,토속왕순대,전북 군산시 소룡길 69,소룡동,소룡동,063-464-5466
7355,한식,진안팥칼국수,전북 군산시 소룡길 69,소룡동,소룡동,063-467-2319
7354,한식,밤새우리,전북 군산시 소룡길 67,소룡동,소룡동,
7350,한식,원산비빔국수,전북 군산시 소룡길 53,소룡동,소룡동,063-471-8118
7349,중식,미향,전북 군산시 소룡길 52,소룡동,소룡동,063-465-1910
7348,한식,콩뿌리콩나물국밥,전북 군산시 소룡길 52,소룡동,소룡동,063-466-8885
7347,술집,싸다구이,전북 군산시 소룡길 48-1,소룡동,소룡동,
7345,한식,초가마루,전북 군산시 소룡길 48,소룡동,소룡동,
7344,한식,봉이네왕족발,전북 군산시 소룡길 39,소룡동,소룡동,063-468-0727
7343,한식,서진해장국,전북 군산시 소룡길 37,소룡동,소룡동,
7342,일식,다미참치,전북 군산시 소룡길 36,소룡동,소룡동,063-463-9350
7341,한식,도우리아나구,전북 군산시 소룡길 36,소룡동,소룡동,
7339,카페,소룡동까페소곤소곤,전북 군산시 소룡길 33,소룡동,소룡동,
7337,한식,한결갓소,전북 군산시 소룡길 32,소룡동,소룡동,
7335,한식,군산촌닭,전북 군산시 소룡2길 60,소룡동,소룡동,
7334,중식,길림성,전북 군산시 소룡2길 52-1,소룡동,소룡동,063-466-8588
7333,한식,금강해물마당,전북 군산시 소룡2길 52,소룡동,소룡동,063-467-9084
7332,한식,신군산맛집,전북 군산시 소룡2길 52,소룡동,소룡동,063-467-5883
7331,한식,서해바다회집,전북 군산시 소룡2길 42,소룡동,소룡동,063-465-0088
7327,한식,맛고을식당,전북 군산시 소룡1길 44,소룡동,소룡동,063-466-1834
7326,한식,무지개 수산,전북 군산시 소룡1길 21,소룡동,소룡동,063-471-9880
7325,한식,우리집식당,전북 군산시 소룡1길 18,소룡동,소룡동,
7319,술집,까투리,전북 군산시 설림안3길 25,소룡동,소룡동,
7313,한식,우림밥상,전북 군산시 설림안2길 48,소룡동,소룡동,
7312,한식,가마솥순대,전북 군산시 설림안2길 27,소룡동,소룡동,063-466-4287
7310,한식,도토리식당,전북 군산시 설림안2길 23,소룡동,소룡동,063-466-2201
7308,분식,지연이네맛집,전북 군산시 설림안1길 54,소룡동,소룡동,
7307,분식,나리분식,전북 군산시 설림안1길 16,소룡동,소룡동,
7304,한식,대동면옥,전북 군산시 설림길 68-1,소룡동,소룡동,
7303,한식,장수해장국,전북 군산시 설림길 68-1,소룡동,소룡동,
7299,치킨,치킨과바람피자 군산점,전북 군산시 설림길 57-6,소룡동,소룡동,063-465-0789
7296,치킨,두두치킨,전북 군산시 설림길 54-2,소룡동,소룡동,
7290,한식,돼지마루,전북 군산시 설림5길 76-24,소룡동,소룡동,
7289,중식,명성반점,전북 군산시 설림5길 73,소룡동,소룡동,063-461-3090
7282,한식,산골밥상,전북 군산시 설림5길 24,소룡동,소룡동,063-466-2922
7274,한식,삼시세끼,전북 군산시 설림3길 5,소룡동,소룡동,
7273,카페,설림,전북 군산시 설림3길 40,소룡동,소룡동,
7271,카페,까미노,전북 군산시 설림3길 33,소룡동,소룡동,
7264,한식,민영이네,전북 군산시 설림3길 3,소룡동,소룡동,
7259,양식,돈키호테,전북 군산시 설림3길 23,소룡동,소룡동,063-466-2008
7256,한식,강천식당,전북 군산시 설림2길 9,소룡동,소룡동,063-465-8840
7251,간식,이레베이커리,전북 군산시 설림2길 3,소룡동,소룡동,063-461-0005
7250,한식,장터곱창,전북 군산시 설림2길 11-1,소룡동,소룡동,063-465-7691
7249,한식,아귀자리,전북 군산시 산북로 216,소룡동,소룡동,063-467-0942
7247,한식,들머리순대국,전북 군산시 산북로 200,소룡동,소룡동,063-468-7391
7237,간식,베스킨라빈스군산소룡점,전북 군산시 동아로 163,소룡동,소룡동,
7236,분식,그냥분식,전북 군산시 동아로 163,소룡동,소룡동,
7235,분식,신포우리만두,전북 군산시 동아로 163,소룡동,소룡동,063-465-0544
7234,간식,파리바게트 소룡점,전북 군산시 동아로 163,소룡동,소룡동,063-464-8204
7227,패스트푸드,붕바,전북 군산시 동아로 160,소룡동,소룡동,063-466-8837
7219,분식,김밥잔치,전북 군산시 공항로 42-1,소룡동,소룡동,
7212,치킨,신토불이,전북 군산시 공항로 95,소룡동,소룡동,063-463-9929
7211,카페,바이올렛,전북 군산시 공항로 93,소룡동,소룡동,063-466-5223
7209,카페,더벤티소룡점,전북 군산시 공항로 90,소룡동,소룡동,063-464-7012
7207,뷔페,마음고기 소룡점,전북 군산시 공항로 90,소룡동,소룡동,
7206,한식,명륜진사갈비(소룡점),전북 군산시 공항로 90,소룡동,소룡동,
7203,중식,용미장,전북 군산시 공항로 89,소룡동,소룡동,063-462-9251
7202,치킨,비에이치씨치킨소룡사거리점,전북 군산시 공항로 86,소룡동,소룡동,063-732-1212
7199,간식,파리바게뜨(소룡신도시점),전북 군산시 공항로 86,소룡동,소룡동,
7193,한식,천리향,전북 군산시 공항로 82-5,소룡동,소룡동,
7192,한식,밥이랑반찬,전북 군산시 공항로 82-5,소룡동,소룡동,063-463-7576
7186,카페,에이비씨커피(소룡점),전북 군산시 공항로 77,소룡동,소룡동,063-467-8300
7185,분식,김밥천국,전북 군산시 공항로 77,소룡동,소룡동,063-446-0924
7182,중식,소룡반점,전북 군산시 공항로 75,소룡동,소룡동,063-466-1231
7181,술집,다사랑치킨피자소룡점,전북 군산시 공항로 75,소룡동,소룡동,063-462-4688
7179,술집,엘베강,전북 군산시 공항로 71,소룡동,소룡동,
7176,중식,동해반점,전북 군산시 공항로 69,소룡동,소룡동,063-466-6989
7173,한식,토속촌닭백숙,전북 군산시 공항로 68,소룡동,소룡동,
7172,술집,객잔,전북 군산시 공항로 68,소룡동,소룡동,063-462-4255
7161,치킨,바비후,전북 군산시 공항로 58,소룡동,소룡동,063-461-3465
7155,분식,마차분식,전북 군산시 공항로 46,소룡동,소룡동,063-465-0045
7152,한식,낙원정갈비,전북 군산시 공항로 38,소룡동,소룡동,
7146,기사식당,장원기사식당,전북 군산시 공항로 125,소룡동,소룡동,063-462-9291
7145,음식점,나그네야식,전북 군산시 공항로 123,소룡동,소룡동,063-467-8207
7143,한식,이북집손순대,전북 군산시 공항로 123,소룡동,소룡동,
7139,중식,쫑구항아리짬뽕,전북 군산시 공단대로 704,소룡동,소룡동,063-466-3005
7135,한식,군산장례식장,전북 군산시 공단대로 700,소룡동,소룡동,
7123,한식,현대옥소룡점,전북 군산시 공단대로 648,소룡동,소룡동,063-466-4774
7118,한식,주식회사 더본,전북 군산시 공단대로 635,소룡동,소룡동,063-464-6111
7117,한식,고궁한우촌,전북 군산시 공단대로 633,소룡동,소룡동,063-465-2945
7116,한식,군산생선명가,전북 군산시 공단대로 631,소룡동,소룡동,063-467-1525
7114,중식,군산중화요리,전북 군산시 공단대로 627,소룡동,소룡동,
7108,한식,하이벳수산,전북 군산시 공단대로 619,소룡동,소룡동,063-462-0430
7107,간식,군산찰진찹쌀꽈배기,전북 군산시 공단대로 616,소룡동,소룡동,063-465-0101
7106,한식,소룡보신옥,전북 군산시 공단대로 616,소룡동,소룡동,063-471-3672
7097,한식,더갈비 소룡점,전북 군산시 공단대로 601,소룡동,소룡동,063-465-7723
7096,카페,엔제리너스 군산소룡DT점,전북 군산시 공단대로 599,소룡동,소룡동,063-464-0020
7089,카페,더리터 군산소룡점,전북 군산시 공단대로 589,소룡동,소룡동,063-467-3555
7081,카페,몰토커피,전북 군산시 공단대로 583,소룡동,소룡동,
7080,한식,은행나무 갈매기,전북 군산시 공단대로 583,소룡동,소룡동,063-465-7755
7076,치킨,자담치킨(소룡점),전북 군산시 공단대로 578,소룡동,소룡동,063-466-9448
7075,치킨,"노랑통닭(산북,소룡점)",전북 군산시 공단대로 578,소룡동,소룡동,
7072,카페,랑데뷰마카롱,전북 군산시 공단대로 578,소룡동,소룡동,
7068,한식,은해곱창구이,전북 군산시 공단대로 574,소룡동,소룡동,
7067,한식,은혜곱창,전북 군산시 공단대로 574,소룡동,소룡동,
7060,한식,홍춘천,전북 군산시 공단대로 566,소룡동,소룡동,063-465-2929
7059,패스트푸드,롯데리아,전북 군산시 공단대로 566,소룡동,소룡동,063-442-7711
7056,치킨,비에이치씨치킨산북소룡점,전북 군산시 공단대로 563,소룡동,소룡동,063-465-9266
7054,퓨전요리,본죽군산소룡점,전북 군산시 공단대로 563,소룡동,소룡동,063-468-6282
7052,간식,못난이꽈배기 소룡점,전북 군산시 공단대로 558,소룡동,소룡동,
7049,한식,남촌 칼국수,전북 군산시 성산면 철새로 31,성산면,성산면,063-445-3433
7048,한식,군산이름난해물칼국수,전북 군산시 성산면 철새로 31,성산면,성산면,063-453-1311
7047,한식,궁전해물칼국수,전북 군산시 성산면 철새로 31,성산면,성산면,063-453-4560
7044,중식,끼니와새참,전북 군산시 성산면 환동1길 3,성산면,성산면,
7043,한식,진미면막국수,전북 군산시 성산면 철새로 31,성산면,성산면,063-451-5414
7042,한식,군산국수,전북 군산시 성산면 철새로 25,성산면,성산면,063-451-0181
7041,한식,강촌마을,전북 군산시 성산면 철새로 90,성산면,성산면,063-453-6803
7040,한식,유성가든,전북 군산시 성산면 철새로 6-1,성산면,성산면,063-453-6670
7039,카페,카페블루오션,전북 군산시 성산면 철새로 53-3,성산면,성산면,063-451-7460
7035,한식,금강해물칼국수,전북 군산시 성산면 철새로 31,성산면,성산면,063-453-8858
7032,한식,금강우렁쌈밥,전북 군산시 성산면 철새로 31,성산면,성산면,
7031,한식,삼풍식당,전북 군산시 성산면 철새로 31,성산면,성산면,063-453-8828
7030,카페,무녀2구마을버스,전북 군산시 성산면 철새로 25,성산면,성산면,
7028,한식,고향우렁이마을,전북 군산시 성산면 철새로 202,성산면,성산면,
7024,한식,산골가든,전북 군산시 성산면 요동길 23,성산면,성산면,063-453-0947
7020,한식,먹자골,전북 군산시 성산면 오성로 294,성산면,성산면,
7019,카페,카페라시에스타,전북 군산시 성산면 오성로 225,성산면,성산면,063-451-9522
7016,한식,당골,전북 군산시 성산면 오성로 134-17,성산면,성산면,
7014,한식,시골부뚜막,전북 군산시 성산면 십자들로 167,성산면,성산면,063-445-7072
7012,중식,차이나반점,전북 군산시 성산면 식천3길 2,성산면,성산면,063-453-0087
7005,한식,신가네 칼국수,전북 군산시 성산면 철새로 31,성산면,성산면,063-453-6333
7004,한식,산촌,전북 군산시 성산면 오성로 327,성산면,성산면,063-453-0646
7003,한식,토방촌,전북 군산시 성산면 상흥길 16-2,성산면,성산면,
6998,한식,금강식당,전북 군산시 성산면 북일길 4,성산면,성산면,
6993,한식,웅이식당,전북 군산시 성산면 동군산로 38,성산면,성산면,
6990,한식,성일식당,전북 군산시 성산면 동군산로 28-1,성산면,성산면,063-453-6780
6989,카페,신뮤지엄,전북 군산시 성산면 동군산로 46,성산면,성산면,
6987,한식,거시기삼계탕,전북 군산시 성산면 동군산로 275,성산면,성산면,
6984,한식,돈두구이,전북 군산시 성산면 동군산로 27,성산면,성산면,
6981,한식,캠퍼스식당,전북 군산시 성산면 십자들로 41,성산면,성산면,063-453-6481
6979,한식,푸른가든,전북 군산시 성산면 식천3길 6,성산면,성산면,063-453-0074
6977,한식,깐치멀맛집,전북 군산시 성산면 깐치멀1길 27,성산면,성산면,063-453-7759
6974,중식,북경반점,전북 군산시 성산면 군장대길 9,성산면,성산면,063-453-4433
6968,한식,임꺽정가든,전북 군산시 성산면 매동길 36-6,성산면,성산면,063-453-3085
6961,일식,군가,전북 군산시 월명로 434,월명동,선양동,063-442-8899
6960,일식,군산어원,전북 군산시 월명로 434,월명동,선양동,
6954,간식,도도과자점,전북 군산시 월명로 420,월명동,선양동,
6953,한식,엄마손칼국수,전북 군산시 월명로 418,월명동,선양동,
6951,카페,탁류길서리,전북 군산시 오룡재길 44,월명동,선양동,063-466-4063
6950,한식,돼지곳간,전북 군산시 아리랑로 40,월명동,선양동,063-445-6221
6949,한식,시온정육식당,전북 군산시 아리랑로 38,월명동,선양동,063-446-7702
6947,카페,해뜨는집,전북 군산시 선양2길 42,월명동,선양동,063-471-5454
6944,한식,농장숯불갈비,전북 군산시 팔마로 98,흥남동,서흥남동,063-463-5996
6939,뷔페,밥주걱,전북 군산시 팔마로 93-1,흥남동,서흥남동,
6937,한식,다온아구,전북 군산시 팔마로 90,흥남동,서흥남동,
6936,치킨,꼬꼬뽀끼서흥남점,전북 군산시 팔마로 90,흥남동,서흥남동,063-466-9255
6931,카페,플레이스802(PLACE 802),전북 군산시 팔마로 88,흥남동,서흥남동,
6912,아시아음식,티노콴,전북 군산시 팔마로 129,흥남동,서흥남동,063-452-0407
6906,한식,맹구네명태찜,전북 군산시 팔마로 117,흥남동,서흥남동,
6896,한식,시골토종순대,전북 군산시 축동로 128,흥남동,서흥남동,063-468-5549
6893,한식,배꼽시계(생선구이),전북 군산시 축동로 169-1,흥남동,서흥남동,
6892,한식,대가식당,전북 군산시 축동로 169,흥남동,서흥남동,063-466-8659
6885,술집,엘베강,전북 군산시 축동로 128,흥남동,서흥남동,
6884,중식,태평각,전북 군산시 축동로 128,흥남동,서흥남동,063-465-0023
6883,분식,오떡,전북 군산시 축동로 128,흥남동,서흥남동,063-465-5859
6882,술집,착한가맥,전북 군산시 축동로 128,흥남동,서흥남동,
6876,술집,왠 통닭,전북 군산시 월명로 343,흥남동,서흥남동,063-465-0919
6871,간식,김현진과자점,전북 군산시 월명로 338,흥남동,서흥남동,063-443-2003
6868,한식,서수로스,전북 군산시 월명로 336,흥남동,서흥남동,063-442-7428
6850,치킨,딸부자네통닭,전북 군산시 서흥길 68-2,흥남동,서흥남동,063-446-9989
6848,카페,이매진,전북 군산시 서흥길 83-1,흥남동,서흥남동,063-467-9113
6846,일식,경양식돈까스,전북 군산시 서흥2길 75,흥남동,서흥남동,
6844,한식,은혜밥집,전북 군산시 서흥2길 57,흥남동,서흥남동,063-466-4502
6841,중식,수송반점,전북 군산시 동메3길 23,흥남동,서흥남동,063-463-5445
6839,치킨,금암통닭식당,전북 군산시 서수면 황등서로 419,서수면,서수면,
6832,중식,청나라,전북 군산시 서수면 항쟁로 223,서수면,서수면,063-453-6203
6828,한식,고향식당,전북 군산시 서수면 항쟁로 213,서수면,서수면,
6827,중식,서수반점,전북 군산시 서수면 항쟁로 210,서수면,서수면,063-451-0788
6826,분식,서수김밥,전북 군산시 서수면 항쟁로 209,서수면,서수면,
6825,중식,임정원,전북 군산시 서수면 항쟁로 209,서수면,서수면,063-451-9485
6824,한식,일번지 춘천닭갈비,전북 군산시 서수면 항쟁로 207,서수면,서수면,
6823,한식,부부식당,전북 군산시 서수면 항쟁로 204,서수면,서수면,
6821,중식,황궁반점,전북 군산시 서수면 항쟁로 180,서수면,서수면,063-451-3969
6817,한식,웰빙밥상,전북 군산시 서수면 함안로 435-6,서수면,서수면,063-453-6652
6808,중식,우리밀,전북 군산시 서수면 동군산로 863,서수면,서수면,
6807,양식,99씨엘,전북 군산시 서수면 임피중길 8,서수면,서수면,063-453-1950
6805,한식,정가든,전북 군산시 서수면 용천로 5,서수면,서수면,063-453-1777
6804,한식,일흥정육식당,전북 군산시 서수면 용천로 357,서수면,서수면,
6794,카페,하얀집,전북 군산시 서수면 서수문화길 39,서수면,서수면,063-453-9872
6793,한식,솔향,전북 군산시 서수면 서수문화길 33,서수면,서수면,063-453-5004
6791,치킨,맛나통닭,전북 군산시 서수면 항쟁로 207,서수면,서수면,063-453-3811
6789,카페,찻집은,전북 군산시 서수면 신상용전길 47,서수면,서수면,
6782,한식,동군산가든,전북 군산시 서수면 서라로 110-29,서수면,서수면,
6781,한식,행운가든,전북 군산시 서수면 마룡리,서수면,서수면,063-453-5292
6777,한식,서수 해장국,전북 군산시 서수면 남산로 306,서수면,서수면,063-453-3926
6772,술집,와바통닭,전북 군산시 풍마길 12,삼학동,삼학동,
6769,한식,꿀꿀이곱창,전북 군산시 축동로 195,삼학동,삼학동,
6764,한식,대우생삼겹살,전북 군산시 축동로 187-1,삼학동,삼학동,063-466-1172
6759,한식,엄마손아귀찜,전북 군산시 축동로 174,삼학동,삼학동,
6758,한식,우일아구찜,전북 군산시 축동로 173,삼학동,삼학동,
6749,술집,황태가맥,전북 군산시 오룡로 8-1,삼학동,삼학동,063-461-7888
6744,한식,돼랑이곱창삼겹살,전북 군산시 오룡로 4,삼학동,삼학동,063-463-3592
6740,한식,또와정육식당,전북 군산시 삼학안1길 21,삼학동,삼학동,063-465-4538
6739,식품판매,또와정육점,전북 군산시 삼학안1길 21,삼학동,삼학동,
6737,한식,생생맛족,전북 군산시 미원로 64-1,삼학동,삼학동,063-467-6221
6734,한식,서궁숯불갈비,전북 군산시 미원로 56,삼학동,삼학동,063-466-1851
6733,샐러드,킹스푸드,전북 군산시 삼학9길 4,삼학동,삼학동,063-464-6661
6726,간식,신영떡집,전북 군산시 삼학8길 59,삼학동,삼학동,063-463-4391
6720,한식,군일분식,전북 군산시 삼학8길 31,삼학동,삼학동,
6711,술집,인생술집,전북 군산시 삼학2길 49,삼학동,삼학동,
6710,술집,만화포장마차,전북 군산시 삼학2길 44,삼학동,삼학동,
6706,술집,그리움한잔,전북 군산시 삼학1길 38-1,삼학동,삼학동,
6701,식품판매,손수당,전북 군산시 삼학1길 17,삼학동,삼학동,
6700,카페,카페편지를쓰다,전북 군산시 미원로 85,삼학동,삼학동,
6699,한식,양파전,전북 군산시 미원로 85,삼학동,삼학동,063-464-3336
6698,카페,군산 보리터,전북 군산시 미원로 85,삼학동,삼학동,063-732-3733
6695,한식,외갓집족발,전북 군산시 미원로 74-1,삼학동,삼학동,063-463-3077
6694,치킨,멕시카나삼학월명점,전북 군산시 미원로 72-1,삼학동,삼학동,
6693,한식,알콩달콩콩나물국밥,전북 군산시 미원로 72,삼학동,삼학동,
6688,한식,이포크고기백화점,전북 군산시 미원로 61,삼학동,삼학동,063-463-1238
6682,치킨,호식이두마리치킨,전북 군산시 미원로 54,삼학동,삼학동,
6680,중식,사해방,전북 군산시 미원로 50-1,삼학동,삼학동,063-466-4884
6678,한식,삼학갈비,전북 군산시 미원로 49,삼학동,삼학동,063-466-3001
6677,술집,11번가,전북 군산시 미원로 47,삼학동,삼학동,
6673,치킨,새벽닭옛날치킨,전북 군산시 미원로 43,삼학동,삼학동,063-466-9253
6670,음식점,청춘사업 분식점빵,전북 군산시 미원로 39-1,삼학동,삼학동,
6669,술집,역전할머니맥주삼학점,전북 군산시 미원로 39-1,삼학동,삼학동,
6666,한식,한방에빠진족발,전북 군산시 미원로 35,삼학동,삼학동,063-464-7177
6665,간식,길쭉이호떡,전북 군산시 미원로 35,삼학동,삼학동,
6657,한식,뻥코생곱창구이,전북 군산시 미원로 31,삼학동,삼학동,063-461-4092
6656,한식,서해명태식당,전북 군산시 미원로 31,삼학동,삼학동,063-442-4225
6655,한식,초원식당,전북 군산시 미원로 30,삼학동,삼학동,063-461-2505
6652,뷔페,다둥이네,전북 군산시 미원로 27,삼학동,삼학동,063-462-7642
6649,분식,불타는여고24시,전북 군산시 미원로 25,삼학동,삼학동,063-465-0291
6648,분식,불타는여고 24시,전북 군산시 미원로 25,삼학동,삼학동,
6645,중식,세운성,전북 군산시 동리2길 17-1,삼학동,삼학동,063-468-8333
6644,한식,코아식당,전북 군산시 동리2길 17,삼학동,삼학동,063-466-4175
6640,한식,유명순대국밥,전북 군산시 기와골3길 7,삼학동,삼학동,
6636,중식,이비가짬뽕군산산북점,전북 군산시 해망로 657,미성동,산북동,063-464-7307
6629,한식,연화구,전북 군산시 칠성안2길 39,미성동,산북동,063-468-7792
6627,카페,뚜레쥬르 군산산북점,전북 군산시 칠성안2길 38,미성동,산북동,
6626,분식,바푸리,전북 군산시 칠성안2길 38,미성동,산북동,
6625,한식,회먹는돼지,전북 군산시 칠성안2길 37,미성동,산북동,
6624,한식,엄마밥상,전북 군산시 칠성안2길 37,미성동,산북동,063-466-1353
6623,치킨,맥시칸치킨,전북 군산시 칠성안2길 37,미성동,산북동,063-471-9919
6622,한식,한씨네대가추어탕,전북 군산시 칠성안2길 32,미성동,산북동,
6621,음식점,셰프하우스,전북 군산시 칠성안2길 21,미성동,산북동,
6619,한식,샛터,전북 군산시 칠성안2길 18,미성동,산북동,
6618,술집,터미널가맥,전북 군산시 칠성안2길 18,미성동,산북동,
6616,한식,아침밥상,전북 군산시 칠성안1길 54,미성동,산북동,063-466-2536
6614,음식점,황금마차,전북 군산시 칠성안1길 46,미성동,산북동,
6613,한식,김정호 동태찌개,전북 군산시 칠성안1길 46,미성동,산북동,063-466-0049
6612,술집,오늘만,전북 군산시 칠성안1길 44,미성동,산북동,
6611,한식,진장어,전북 군산시 칠성안1길 44,미성동,산북동,
6610,치킨,충만치킨 산북점,전북 군산시 칠성안1길 44,미성동,산북동,063-466-1100
6609,술집,장미맨숀산북점,전북 군산시 칠성안1길 38,미성동,산북동,
6608,치킨,구운통닭,전북 군산시 칠성안1길 38,미성동,산북동,063-467-7792
6605,술집,역전할머니맥주산북점,전북 군산시 칠성안1길 37,미성동,산북동,063-442-7624
6604,한식,예감쪽갈비,전북 군산시 칠성안1길 32,미성동,산북동,
6603,술집,황태1번가,전북 군산시 칠성안1길 30,미성동,산북동,
6602,분식,수원 떡볶이,전북 군산시 칠성안1길 25,미성동,산북동,
6601,한식,경원해물찜,전북 군산시 칠성안1길 25,미성동,산북동,063-466-1742
6599,한식,이화네갈비찜,전북 군산시 칠성안1길 25,미성동,산북동,063-471-8006
6597,음식점,야!무지개횟집,전북 군산시 칠성안1길 23,미성동,산북동,063-465-8825
6595,술집,모임실비포차,전북 군산시 칠성안1길 18,미성동,산북동,
6594,치킨,처갓집양념치킨,전북 군산시 칠성안1길 17,미성동,산북동,
6593,한식,할매집,전북 군산시 칠성안1길 17,미성동,산북동,
6592,한식,화로구이,전북 군산시 칠성안1길 17,미성동,산북동,063-462-7592
6591,중식,천왕성,전북 군산시 칠성안1길 17,미성동,산북동,063-462-4006
6590,한식,남도아구,전북 군산시 칠성안1길 17,미성동,산북동,
6588,한식,배꼽달래기,전북 군산시 칠성안1길 16,미성동,산북동,
6587,음식점,고향맛집,전북 군산시 칠성안1길 15,미성동,산북동,
6586,술집,끄릴래뽀글래,전북 군산시 칠성안1길 15,미성동,산북동,
6585,한식,족발이맛있다,전북 군산시 칠성안1길 38,미성동,산북동,063-468-7882
6583,한식,서해민박식당,전북 군산시 칠성로 120,미성동,산북동,
6582,한식,바다로가자(본점),전북 군산시 칠성로 99,미성동,산북동,
6580,한식,장어야놀자,전북 군산시 칠성로 84,미성동,산북동,063-467-8892
6575,한식,춘향골,전북 군산시 칠성로 162,미성동,산북동,
6574,한식,민선초가,전북 군산시 칠성로 160,미성동,산북동,063-465-8882
6573,술집,바운스,전북 군산시 칠성로 158,미성동,산북동,
6572,술집,영암골가보자,전북 군산시 칠성로 157,미성동,산북동,
6571,술집,79대포 산북점,전북 군산시 칠성로 157,미성동,산북동,
6570,술집,청담동말자싸롱산북점,전북 군산시 칠성로 157,미성동,산북동,
6569,한식,팔팔산꼼장어,전북 군산시 칠성로 156,미성동,산북동,
6568,술집,더비어,전북 군산시 칠성로 149,미성동,산북동,
6566,중식,송반장,전북 군산시 칠성로 149,미성동,산북동,
6565,한식,바다상회,전북 군산시 칠성로 148,미성동,산북동,
6564,술집,1도씨맥주산북숙성고,전북 군산시 칠성로 148,미성동,산북동,063-462-8253
6563,한식,천하장사산북점,전북 군산시 칠성로 148,미성동,산북동,
6562,한식,시발점,전북 군산시 칠성로 147,미성동,산북동,
6561,한식,이모작숯불구이,전북 군산시 칠성로 147,미성동,산북동,063-468-3306
6560,한식,냉삼집,전북 군산시 칠성로 147,미성동,산북동,
6559,술집,옛날통닭,전북 군산시 칠성로 145,미성동,산북동,
6558,한식,칼맛,전북 군산시 칠성로 144,미성동,산북동,
6557,한식,부대장낙곱새,전북 군산시 칠성로 144,미성동,산북동,
6556,한식,명월갈비2호점,전북 군산시 칠성로 144,미성동,산북동,
6555,술집,크라운호프 산북점,전북 군산시 칠성로 143,미성동,산북동,063-468-0096
6554,술집,넌어묵!난!강정호프,전북 군산시 칠성로 143,미성동,산북동,
6552,한식,윤이불닭발,전북 군산시 칠성로 142,미성동,산북동,
6551,한식,북촌삼대갈비 군산산북점,전북 군산시 칠성로 142,미성동,산북동,
6550,술집,더꼬치다,전북 군산시 칠성로 142,미성동,산북동,063-471-1151
6549,중식,강남양꼬치,전북 군산시 칠성로 142,미성동,산북동,
6548,양식,하루,전북 군산시 칠성로 139,미성동,산북동,
6547,분식,짱여사꼬마김밥,전북 군산시 칠성로 139,미성동,산북동,
6546,한식,왕굴면옥냉면&굴구이 전문점,전북 군산시 칠성로 134,미성동,산북동,063-467-9295
6545,일식,와인수제돈까스,전북 군산시 칠성로 134,미성동,산북동,
6544,치킨,굽네치킨(산북소룡점),전북 군산시 칠성로 129,미성동,산북동,
6542,식품판매,적셔갈비,전북 군산시 칠성로 127,미성동,산북동,063-461-7788
6541,한식,대가감자탕,전북 군산시 칠성로 127,미성동,산북동,063-467-7788
6537,카페,심봉사도로케카페베트남,전북 군산시 칠성로 120,미성동,산북동,
6529,양식,피자나라치킨공주,전북 군산시 칠성로 111-1,미성동,산북동,
6524,한식,월명아구찜추어탕,전북 군산시 칠성로 111,미성동,산북동,063-462-6334
6522,한식,군산한우한돈정육식당,전북 군산시 칠성로 110,미성동,산북동,
6520,한식,가소산북점,전북 군산시 칠성로 108,미성동,산북동,
6517,중식,산북짬뽕,전북 군산시 칠성로 101,미성동,산북동,063-464-3100
6515,치킨,비비큐산북소룡점,전북 군산시 칠성7길 96,미성동,산북동,063-465-9263
6514,한식,행복순대국,전북 군산시 칠성7길 96,미성동,산북동,063-464-7313
6513,패스트푸드,서로,전북 군산시 칠성7길 96,미성동,산북동,
6512,한식,군산생곱창,전북 군산시 칠성7길 96,미성동,산북동,
6511,한식,삼성식당,전북 군산시 칠성7길 96,미성동,산북동,063-461-0988
6508,한식,진또배기,전북 군산시 칠성7길 85,미성동,산북동,063-471-0809
6507,한식,뚜껑,전북 군산시 칠성7길 85,미성동,산북동,063-468-8418
6506,한식,두레반,전북 군산시 칠성7길 80,미성동,산북동,063-465-3075
6505,한식,미담,전북 군산시 칠성7길 74,미성동,산북동,
6498,한식,돈두랑,전북 군산시 칠성7길 56,미성동,산북동,063-467-8492
6495,카페,지나의커피,전북 군산시 칠성7길 56,미성동,산북동,
6489,한식,김가네밥상,전북 군산시 칠성7길 47,미성동,산북동,
6487,술집,진아반점윤포차,전북 군산시 칠성7길 43,미성동,산북동,
6480,한식,청해진횟집,전북 군산시 칠성6길 154,미성동,산북동,063-467-8990
6478,중식,쑈워이오리목점,전북 군산시 칠성6길 144,미성동,산북동,063-468-1308
6477,한식,놀부네집 산북점,전북 군산시 칠성6길 144,미성동,산북동,063-468-7212
6476,한식,소달구지곱창막창,전북 군산시 칠성6길 144,미성동,산북동,
6475,한식,김치콩나물 삼겹살,전북 군산시 칠성6길 130,미성동,산북동,063-461-9292
6474,간식,좋은날,전북 군산시 칠성6길 130,미성동,산북동,063-465-9056
6473,한식,와방터,전북 군산시 칠성6길 127,미성동,산북동,063-466-7888
6468,한식,명가해장국,전북 군산시 칠성6길 109,미성동,산북동,
6459,한식,삼대족발,전북 군산시 칠성5길 139,미성동,산북동,
6458,중식,자금성,전북 군산시 칠성5길 139,미성동,산북동,063-911-9100
6457,치킨,젤라토레,전북 군산시 칠성5길 137,미성동,산북동,063-465-2288
6456,치킨,못참아그파닭 더탕수육,전북 군산시 칠성5길 137,미성동,산북동,063-468-0084
6449,한식,누렁소까망돼지,전북 군산시 칠성4길 52,미성동,산북동,063-461-2906
6448,한식,마마,전북 군산시 칠성4길 146,미성동,산북동,063-467-5792
6447,간식,쉐프윤찹쌀꽈배기고로케,전북 군산시 칠성4길 146,미성동,산북동,
6446,음식점,카모밀레,전북 군산시 칠성4길 146,미성동,산북동,
6445,한식,현주순대국밥,전북 군산시 칠성4길 144,미성동,산북동,063-467-8385
6437,한식,영일식당,전북 군산시 칠성3길 125,미성동,산북동,063-465-6788
6436,한식,땅개촌,전북 군산시 칠성3길 123,미성동,산북동,063-465-3297
6431,중식,산북성,전북 군산시 칠성2길 71,미성동,산북동,063-471-5635
6428,뷔페,군산뷔페일품,전북 군산시 칠성2길 43,미성동,산북동,
6424,카페,더리터 산북점,전북 군산시 칠성1길 33,미성동,산북동,
6423,도시락,락푸드,전북 군산시 칠성1길 31,미성동,산북동,063-466-4014
6420,치킨,굽네치킨산북소룡점,전북 군산시 원산북2길 37,미성동,산북동,
6416,유흥시설,그늘집,전북 군산시 원산북1길 58-4,미성동,산북동,
6408,뷔페,군산한식뷔페,전북 군산시 외항로 41,미성동,산북동,
6388,뷔페,민들레한식뷔페,전북 군산시 외항로 221,미성동,산북동,063-466-5300
6381,한식,두산식당,전북 군산시 외항로 185,미성동,산북동,063-462-5820
6369,한식,바우네나주곰탕산북점,전북 군산시 소룡안3길 27,미성동,산북동,063-465-3792
6358,한식,산북왕새우직판장,전북 군산시 소룡안1길 47,미성동,산북동,063-467-4667
6355,음식점,성일분식,전북 군산시 소룡안1길 39,미성동,산북동,
6354,술집,누구누나네,전북 군산시 소룡안1길 39,미성동,산북동,
6353,한식,지리산옻닭흑돼지,전북 군산시 소룡안1길 34,미성동,산북동,
6352,음식점,오케이반점,전북 군산시 소룡안1길 34,미성동,산북동,
6351,술집,두식이,전북 군산시 소룡안1길 34,미성동,산북동,
6350,술집,언니네,전북 군산시 소룡안1길 33,미성동,산북동,063-466-6529
6346,한식,웰빙식당,전북 군산시 소룡2길 12-2,미성동,산북동,
6343,한식,함지박,전북 군산시 산북로 89-13,미성동,산북동,
6341,한식,산북우돈가,전북 군산시 산북로 88,미성동,산북동,063-468-1002
6333,한식,장원순대,전북 군산시 산북로 32-3,미성동,산북동,
6306,한식,동네식당,전북 군산시 사전길 26,미성동,산북동,
6305,한식,모산방,전북 군산시 부원로 97-9,미성동,산북동,063-463-4411
6303,카페,카페베네산북점,전북 군산시 부원로 129,미성동,산북동,063-462-6232
6302,분식,태정만두 석갈비,전북 군산시 부원로 129,미성동,산북동,063-466-3217
6301,한식,부부 백반,전북 군산시 부원로 124,미성동,산북동,063-466-4101
6299,카페,아프리카커피가게산북점,전북 군산시 부원로 123,미성동,산북동,063-465-5945
6296,한식,장수 한우 소머리곰탕,전북 군산시 부곡로 153,미성동,산북동,
6295,중식,짬뽕세상,전북 군산시 부곡로 150,미성동,산북동,063-468-2728
6294,한식,엄마손팥칼국수,전북 군산시 부곡로 150,미성동,산북동,063-471-8883
6293,한식,자매탕.찜,전북 군산시 부곡로 148,미성동,산북동,
6290,기사식당,문화식당,전북 군산시 미창로 9,미성동,산북동,
6288,중식,성화루,전북 군산시 미창로 7,미성동,산북동,063-465-9902
6278,중식,대통령짬뽕,전북 군산시 미성로 479,미성동,산북동,063-468-5300
6276,치킨,티바두마리치킨,전북 군산시 미성로 462,미성동,산북동,
6274,카페,베르나,전북 군산시 미성로 461,미성동,산북동,063-464-7123
6273,한식,종가집생선구이,전북 군산시 미성로 461,미성동,산북동,
6263,한식,호호삼겹,전북 군산시 미성로 388,미성동,산북동,063-466-3727
6262,한식,산천장어,전북 군산시 미성로 343,미성동,산북동,063-466-5600
6251,카페,이디야커피,전북 군산시 동아로 155,미성동,산북동,063-465-1084
6249,분식,김밥나라,전북 군산시 동아로 155,미성동,산북동,063-466-8011
6244,분식,감탄(산북점),전북 군산시 동아로 153,미성동,산북동,063-467-3458
6241,치킨,구어조은닭,전북 군산시 동아로 153,미성동,산북동,063-465-9925
6238,카페,카페안셀프스튜디오하루,전북 군산시 동아로 148,미성동,산북동,
6236,카페,더벤티군산산북점,전북 군산시 동아로 148,미성동,산북동,063-471-3237
6228,분식,참스민,전북 군산시 동아로 147,미성동,산북동,063-466-2101
6225,카페,에이비씨커피,전북 군산시 동아로 147,미성동,산북동,063-467-8300
6223,중식,제일각,전북 군산시 동아로 147,미성동,산북동,063-466-1258
6222,한식,국밥마트,전북 군산시 동아로 147,미성동,산북동,063-464-9945
6221,한식,구이가,전북 군산시 동아로 146-4,미성동,산북동,
6220,술집,렉시,전북 군산시 동아로 146-3,미성동,산북동,
6210,한식,불맛천국,전북 군산시 동아로 144,미성동,산북동,063-468-9445
6208,술집,소주한잔,전북 군산시 동아로 142,미성동,산북동,
6206,술집,투다리 산북점,전북 군산시 동아로 140,미성동,산북동,063-466-1940
6204,뷔페,늘푸른고기뷔폐,전북 군산시 동아로 138,미성동,산북동,
6196,간식,대장금,전북 군산시 동아로 130,미성동,산북동,
6195,치킨,네네치킨 (소룡.산북점),전북 군산시 동아로 130,미성동,산북동,063-468-4434
6174,한식,행복한식당,전북 군산시 공항로 294,미성동,산북동,063-466-6997
6170,식품판매,주식회사 서해,전북 군산시 공항로 250,미성동,산북동,063-732-2333
6160,한식,청하순대,전북 군산시 공항로 126,미성동,산북동,
6158,한식,혁이네엄마칼국수,전북 군산시 공항로 122,미성동,산북동,
6156,한식,양평해장국 군산시소룡점,전북 군산시 공항로 118,미성동,산북동,063-468-1238
6146,카페,골든글로리,전북 군산시 토성길 16-7,개정동,사정동,063-451-6565
6145,한식,압강옥,전북 군산시 삼수길 46,개정동,사정동,063-452-2777
6143,카페,커피 902,전북 군산시 사정동길 35,개정동,사정동,063-452-5902
6142,한식,닭촌,전북 군산시 사정동길 17,개정동,사정동,
6138,식품판매,삼기닭집,전북 군산시 사정동길 17,개정동,사정동,063-468-5586
6134,음식점,치킨하우스,전북 군산시 두란뜸2길 3,개정동,사정동,063-452-9288
6132,한식,한라산푸줏간 군산,전북 군산시 번영로 376,개정동,사정동,
6131,한식,와글와글소문난 낙지,전북 군산시 번영로 372,개정동,사정동,063-451-0369
6130,한식,황금코다리군산직영점,전북 군산시 번영로 372,개정동,사정동,063-453-1330
6129,한식,풍천장어타운,전북 군산시 번영로 370,개정동,사정동,
6128,중식,차이홍,전북 군산시 번영로 344,개정동,사정동,
6118,치킨,바른치킨(군산종합경기장점),전북 군산시 번영로 239,개정동,사정동,
6116,중식,주몽반점,전북 군산시 번영로 237,개정동,사정동,
6103,카페,유유,전북 군산시 경기장로 36,개정동,사정동,063-471-4001
6101,카페,하버브릿지(사정점),전북 군산시 경기장로 16,개정동,사정동,063-452-6687
6095,한식,어가 생선구이,전북 군산시 비응안5길 27,소룡동,비응도동,
6094,한식,미라식당,전북 군산시 비응안4길 7,소룡동,비응도동,
6092,한식,등대로,전북 군산시 비응로 71,소룡동,비응도동,063-446-9500
6089,중식,비응반점,전북 군산시 비응로 64,소룡동,비응도동,
6087,한식,완도회집,전북 군산시 비응로 43,소룡동,비응도동,063-462-0621
6086,카페,커피아일랜드,전북 군산시 비응로 37,소룡동,비응도동,063-467-7524
6081,한식,1박2일,전북 군산시 비응로 36,소룡동,비응도동,
6080,한식,등대가돌게장,전북 군산시 비응로 35,소룡동,비응도동,
6079,한식,파랑돔횟집,전북 군산시 비응로 24,소룡동,비응도동,063-464-1100
6078,한식,어화,전북 군산시 비응로 20,소룡동,비응도동,063-464-2110
6074,한식,장가네,전북 군산시 비응동로 67,소룡동,비응도동,063-466-2995
6073,한식,새만금소문난해물칼국수,전북 군산시 비응동로 63,소룡동,비응도동,063-462-9909
6072,한식,예향수산,전북 군산시 비응동로 59,소룡동,비응도동,063-464-7100
6071,한식,일등,전북 군산시 비응동로 55,소룡동,비응도동,063-467-8939
6070,카페,커피하우스,전북 군산시 비응동로 55,소룡동,비응도동,
6064,한식,뜨는회2호점,전북 군산시 비응동로 40,소룡동,비응도동,063-464-2009
6061,식품판매,105번새만금수산,전북 군산시 비응동로 40,소룡동,비응도동,063-465-0059
6046,한식,새만금횟집,전북 군산시 비응안7길 13,소룡동,비응도동,063-464-1001
6043,한식,물고기자리,전북 군산시 비응남로 5,소룡동,비응도동,063-463-1784
6042,뷔페,해바라기 한식뷔페,전북 군산시 비응남로 3,소룡동,비응도동,063-468-2007
6040,카페,카페또(cafe ddo),전북 군산시 비응남로 89,소룡동,비응도동,
6036,한식,부자식당,전북 군산시 비응남로 71,소룡동,비응도동,063-467-1120
6035,한식,부자식당,전북 군산시 비응남로 71,소룡동,비응도동,
6033,한식,와라횟집,전북 군산시 비응남로 55,소룡동,비응도동,
6031,카페,커피홀릭,전북 군산시 비응남로 3,소룡동,비응도동,
6030,카페,가고픈 섬,전북 군산시 비응남로 3,소룡동,비응도동,063-465-8014
6029,한식,일억조횟집 2호점,전북 군산시 비응남로 21,소룡동,비응도동,
6014,한식,석호수산식당,전북 군산시 비응남로 111,소룡동,비응도동,
6009,일식,장춘해변횟집,전북 군산시 비응남로 1,소룡동,비응도동,
5999,한식,춘천닭갈비,전북 군산시 진포로 87,수송동,미장동,063-453-9288
5997,카페,시그니처제이,전북 군산시 진포로 73,수송동,미장동,
5986,중식,무연마라탕,전북 군산시 수송로 336,수송동,미장동,
5985,샐러드,샐럽스프군산미장점,전북 군산시 수송로 336,수송동,미장동,
5980,양식,코지하우스(군산점),전북 군산시 수송로 324,수송동,미장동,
5977,샤브샤브,샤브쌈주머니 군산점,전북 군산시 수송로 315,수송동,미장동,063-463-7016
5974,퓨전요리,본죽&비빔밥카페,전북 군산시 수송로 289,수송동,미장동,063-453-6288
5973,양식,고피자 군산미장점,전북 군산시 수송로 289,수송동,미장동,
5971,간식,자미당 수송점,전북 군산시 수송로 286,수송동,미장동,063-732-5550
5969,술집,포텐,전북 군산시 수송로 286,수송동,미장동,
5967,분식,청년다방 미장점,전북 군산시 수송로 286,수송동,미장동,063-452-5244
5963,간식,파리바게뜨미장센트럴점,전북 군산시 수송로 285,수송동,미장동,063-443-8204
5951,카페,컴포즈커피 군산미장점,전북 군산시 수송로 279,수송동,미장동,063-910-1332
5948,간식,크리스피크림 군산수송로점,전북 군산시 수송로 257,수송동,미장동,063-734-0001
5939,간식,뚜레주르미장점,전북 군산시 미장안길 3,수송동,미장동,063-452-0092
5935,카페,이디야 군산미장점,전북 군산시 미장안길 7,수송동,미장동,
5934,분식,김밥킹,전북 군산시 미장안길 7,수송동,미장동,063-451-8836
5916,카페,할리스커피(군산미장점),전북 군산시 미장안길 54,수송동,미장동,
5915,분식,돌돌이꼬마김밥,전북 군산시 미장안길 54,수송동,미장동,063-442-6800
5907,카페,카페 코너나인,전북 군산시 미장안길 50-3,수송동,미장동,
5903,술집,79대포 군산미장파인빌점,전북 군산시 미장안길 50-13,수송동,미장동,063-445-7969
5902,치킨,Bhc군산시미장점,전북 군산시 미장안길 50-13,수송동,미장동,063-445-9233
5900,치킨,바보스 미장점,전북 군산시 미장안길 50-1,수송동,미장동,
5898,한식,통큰식당,전북 군산시 미장안길 50-1,수송동,미장동,063-442-2607
5897,술집,역전할머니맥주미장점,전북 군산시 미장안길 50-1,수송동,미장동,
5888,한식,방자고기,전북 군산시 미장안길 50-1,수송동,미장동,063-446-7578
5883,간식,스마일 꽈배기,전북 군산시 미장안길 42,수송동,미장동,
5875,간식,베스킨라빈스 미장점,전북 군산시 미장안길 3,수송동,미장동,
5872,카페,프레드(Fread),전북 군산시 미장안길 21,수송동,미장동,
5866,아시아음식,포아이니,전북 군산시 미장안길 11,수송동,미장동,063-451-5975
5863,카페,동네커피 군산미장점,전북 군산시 미장안9길 7,수송동,미장동,
5862,아시아음식,자딘콴,전북 군산시 미장안9길 7,수송동,미장동,
5861,중식,란향,전북 군산시 미장안9길 7,수송동,미장동,
5858,일식,솜초밥,전북 군산시 미장안9길 14,수송동,미장동,
5854,한식,현대옥(미장점),전북 군산시 미장안7길 34,수송동,미장동,063-452-9885
5853,술집,The룸Beer,전북 군산시 미장안7길 18,수송동,미장동,
5852,한식,한우진대감,전북 군산시 미장안7길 18,수송동,미장동,063-453-5656
5851,한식,꽃닭,전북 군산시 미장안7길 18,수송동,미장동,
5845,분식,튀김떡볶이순대&딜리버리,전북 군산시 미장안6길 2,수송동,미장동,063-451-3636
5842,패스트푸드,호응,전북 군산시 미장안5길 5,수송동,미장동,
5840,카페,리리프,전북 군산시 미장안5길 11,수송동,미장동,
5837,간식,빈빈,전북 군산시 미장안3길 65,수송동,미장동,
5834,카페,에이비씨커피(미장점),전북 군산시 미장안2길 12,수송동,미장동,
5825,한식,곱분이 곱창,전북 군산시 미장남로 79,수송동,미장동,
5824,한식,감나무집 미장점,전북 군산시 미장남로 74,수송동,미장동,
5821,한식,더갈비 미장점,전북 군산시 미장남로 61,수송동,미장동,063-451-6271
5820,한식,정수산,전북 군산시 미장남로 61,수송동,미장동,
5819,술집,청담동말자싸롱 미장점,전북 군산시 미장남로 38,수송동,미장동,
5817,치킨,처갓집양념치킨미장점,전북 군산시 미장남로 36,수송동,미장동,063-468-9282
5811,양식,모트(Motte),전북 군산시 미장남로 111-5,수송동,미장동,
5809,카페,카페엠티티 MTT,전북 군산시 미장남로 111-3,수송동,미장동,
5805,카페,더벤티(군산미장점),전북 군산시 미장남로 100,수송동,미장동,063-452-0010
5803,한식,하나네집,전북 군산시 미장남로 100,수송동,미장동,
5793,치킨,비비큐(BBQ)군산미장점,전북 군산시 미장남로 10,수송동,미장동,
5791,카페,파이맘,전북 군산시 미장남로 10,수송동,미장동,063-452-7603
5789,치킨,BBQ 군산시미장점,전북 군산시 미장남로 10,수송동,미장동,063-452-2488
5786,술집,백스비어군산미장점,전북 군산시 미장9길 7,수송동,미장동,
5785,한식,이중돈곱창,전북 군산시 미장9길 5,수송동,미장동,
5783,술집,엄마가 생맥주,전북 군산시 미장9길 15,수송동,미장동,
5782,술집,역전할머니맥주미장2호점,전북 군산시 미장9길 1,수송동,미장동,
5781,카페,커피에반하다군산시미장점,전북 군산시 미장9길 1,수송동,미장동,
5780,치킨,치킨플러스 군산미장점,전북 군산시 미장9길 1,수송동,미장동,063-451-0515
5778,한식,장어골숯불구이,전북 군산시 미장7길 11,수송동,미장동,063-452-0709
5777,한식,금손팥칼국수,전북 군산시 미장7길 43,수송동,미장동,063-453-8899
5776,카페,감성커피 군산미장점,전북 군산시 미장7길 43,수송동,미장동,063-462-9977
5775,치킨,불로만 치킨바베큐 미장점,전북 군산시 미장7길 15,수송동,미장동,
5774,카페,나훔(Nahum),전북 군산시 미장6길 7,수송동,미장동,
5773,카페,카페미장,전북 군산시 미장6길 43,수송동,미장동,
5767,한식,군산떡갈비,전북 군산시 미장6길 16,수송동,미장동,063-467-8877
5766,한식,군산떡갈비,전북 군산시 미장6길 16,수송동,미장동,063-467-8877
5764,한식,군산숯불갈비,전북 군산시 미장3길 1,수송동,미장동,063-452-9209
5762,한식,양푼왕갈비 감자탕나라,전북 군산시 미장2길 21,수송동,미장동,
5760,술집,종로맥가(군산미장점),전북 군산시 미장1길 40,수송동,미장동,
5759,한식,군산불곱창,전북 군산시 미장1길 40,수송동,미장동,
5758,한식,족발야시장(미장점),전북 군산시 미장1길 38,수송동,미장동,063-453-4969
5757,치킨,구운통닭 미장점,전북 군산시 미장1길 38,수송동,미장동,063-451-9778
5756,한식,흑돈회관,전북 군산시 미장1길 36,수송동,미장동,063-452-4048
5754,치킨,자담치킨앤드호프카페,전북 군산시 미장1길 30,수송동,미장동,
5752,양식,파스타소아베(PASTA SOAVE),전북 군산시 미장1길 14,수송동,미장동,
5751,한식,모이,전북 군산시 미장1길 14,수송동,미장동,063-452-2862
5749,간식,육빵집,전북 군산시 미장14길 35,수송동,미장동,
5748,분식,마더스쿡,전북 군산시 미장14길 35,수송동,미장동,
5745,분식,별난만두까페,전북 군산시 미장13길 33,수송동,미장동,
5739,술집,투다리미장점,전북 군산시 미장12길 27,수송동,미장동,063-453-2221
5738,한식,소곰집,전북 군산시 미장12길 27,수송동,미장동,063-452-7775
5735,치킨,신통치킨 미장점,전북 군산시 미장11길 16,수송동,미장동,063-452-7123
5734,치킨,신통치킨 미장점,전북 군산시 미장11길 16,수송동,미장동,
5730,한식,가장맛있는족발(미장점),전북 군산시 미장10길 2,수송동,미장동,063-451-0508
5729,분식,또또꼬마김밥군산미장점,전북 군산시 미장10길 2,수송동,미장동,063-453-2737
5726,음식점,마포화곱창 군산미장점,전북 군산시 미장10길 18,수송동,미장동,
5724,한식,장땡활어도매센터,전북 군산시 미장10길 14,수송동,미장동,063-453-8880
5723,한식,국수관,전북 군산시 미장10길 12,수송동,미장동,063-452-9797
5722,한식,돈엔비,전북 군산시 미장10길 12,수송동,미장동,063-454-8141
5721,술집,맛있는술집미술관,전북 군산시 미장10길 12,수송동,미장동,
5720,간식,파리바게뜨군산미장점,전북 군산시 문화로 194,수송동,미장동,063-442-8204
5708,한식,핵밥 미장점,전북 군산시 문화로 205,수송동,미장동,063-442-5677
5707,치킨,가마치통닭,전북 군산시 문화로 194,수송동,미장동,
5706,한식,일품회집,전북 군산시 문화로 194,수송동,미장동,063-442-5292
5704,중식,차이문,전북 군산시 문화로 191,수송동,미장동,063-443-0808
5697,한식,두거리우신탕군산점,전북 군산시 공단대로 85,수송동,미장동,063-452-1588
5696,중식,이비가 짬뽕,전북 군산시 공단대로 85,수송동,미장동,063-451-7789
5694,치킨,장수통닭미장점,전북 군산시 공단대로 77,수송동,미장동,063-451-8292
5691,한식,남다른감자탕 군산미장점,전북 군산시 공단대로 163,수송동,미장동,063-445-2110
5686,중식,1989마라탕군산점,전북 군산시 공단대로 147,수송동,미장동,
5684,한식,해물의 명수,전북 군산시 공단대로 129,수송동,미장동,063-443-1642
5683,분식,엄마김밥,전북 군산시 공단대로 125,수송동,미장동,
5682,한식,금강매운탕,전북 군산시 공단대로 121-27,수송동,미장동,
5681,중식,교동짬뽕,전북 군산시 공단대로 117,수송동,미장동,
5680,한식,군산함박,전북 군산시 공단대로 117,수송동,미장동,
5679,한식,박경규웰빙항아리보쌈,전북 군산시 공단대로 117,수송동,미장동,063-453-1988
5665,치킨,멕시카나치킨,전북 군산시 경포천로 34,수송동,미장동,063-452-5592
5658,양식,59쌀피자 미장점,전북 군산시 경포천로 34,수송동,미장동,063-452-5989
5652,카페,어라이브(Arrive),전북 군산시 경포천로 110,수송동,미장동,
5649,중식,복성루,전북 군산시 풍문안1길 28,흥남동,미원동,
5646,카페,예쁘오 (F5),전북 군산시 풍문3길 37,흥남동,미원동,
5645,치킨,미원닭집,전북 군산시 풍문3길 36,흥남동,미원동,
5644,카페,까페미원동,전북 군산시 풍문2길 5-2,흥남동,미원동,
5643,한식,로객정,전북 군산시 풍문2길 7,흥남동,미원동,
5642,한식,먹거리식당,전북 군산시 풍문2길 5,흥남동,미원동,
5639,카페,카페건,전북 군산시 월명로 384,흥남동,미원동,
5638,한식,제이앤푸드,전북 군산시 월명로 374,흥남동,미원동,063-443-3777
5630,카페,포레스트(for rest),전북 군산시 월명로 409-1,흥남동,미원동,
5625,한식,금강호 민물장어,전북 군산시 월명로 405-1,흥남동,미원동,
5622,한식,밀기울바지락칼국수전문점,전북 군산시 월명로 404,흥남동,미원동,063-446-3339
5621,카페,플랫앤웨이브,전북 군산시 월명로 402,흥남동,미원동,
5615,중식,이사부중화요리전문점,전북 군산시 월명로 389,흥남동,미원동,063-467-8940
5608,한식,금강순대,전북 군산시 월명로 374,흥남동,미원동,
5604,한식,두리식당,전북 군산시 미원안길 8,흥남동,미원동,063-445-3417
5599,카페,향다방,전북 군산시 미원로 95,흥남동,미원동,
5597,분식,새벽분식,전북 군산시 미원로 93,흥남동,미원동,063-464-3345
5595,한식,군산생선구이,전북 군산시 미원로 87-1,흥남동,미원동,063-467-0552
5594,중식,지린성,전북 군산시 미원로 87,흥남동,미원동,
5593,중식,지린성,전북 군산시 미원로 87,흥남동,미원동,063-467-2906
5592,분식,옛날왕만두,전북 군산시 미원로 124,흥남동,미원동,
5583,카페,다정다감,전북 군산시 미원로 118-1,흥남동,미원동,
5576,한식,양지식당,전북 군산시 미원로 110,흥남동,미원동,063-443-0932
5574,한식,백년식당,전북 군산시 미원로 109,흥남동,미원동,063-445-7693
5573,한식,맛나식당,전북 군산시 미원로 109,흥남동,미원동,063-442-6160
5566,술집,다줄께?,전북 군산시 미원로 91-1,흥남동,미원동,063-463-3811
5559,한식,부대통령,전북 군산시 황룡안길 6,나운3동,미룡동,063-461-6667
5558,분식,고봉민김밥인 미룡점,전북 군산시 황룡안길 50,나운3동,미룡동,063-471-6776
5557,분식,불닭발땡초동대문엽기떡볶이 군산미룡점,전북 군산시 황룡안길 50,나운3동,미룡동,063-466-8592
5555,양식,파스토,전북 군산시 황룡안길 50,나운3동,미룡동,063-464-6202
5551,한식,민들레국수,전북 군산시 황룡안길 39,나운3동,미룡동,063-471-2343
5550,일식,로뎀푸드,전북 군산시 황룡안길 3-1,나운3동,미룡동,063-462-6222
5548,술집,하루오뎅,전북 군산시 황룡안길 21-3,나운3동,미룡동,
5545,카페,나무,전북 군산시 황룡안길 16,나운3동,미룡동,063-466-9559
5543,한식,밥카페,전북 군산시 황룡로 16,나운3동,미룡동,
5541,한식,밀크밥버거 군산시대리점,전북 군산시 황룡로 10,나운3동,미룡동,063-461-3350
5539,퓨전요리,본죽&비빔밥(군산대점),전북 군산시 황룡로 9,나운3동,미룡동,063-471-6288
5538,카페,빽다방 군산대점,전북 군산시 황룡로 9,나운3동,미룡동,
5535,한식,산들양푼갈비,전북 군산시 황룡로 88,나운3동,미룡동,
5534,술집,한잔하까,전북 군산시 황룡로 73,나운3동,미룡동,
5530,카페,카페하임,전북 군산시 황룡로 71-12,나운3동,미룡동,063-467-1208
5527,카페,카페안시군산점,전북 군산시 황룡로 65,나운3동,미룡동,
5522,술집,종로맥가3호점,전북 군산시 황룡로 63,나운3동,미룡동,
5517,한식,싱싱세꼬시,전북 군산시 황룡로 57,나운3동,미룡동,
5516,한식,옛날토속왕순대,전북 군산시 황룡로 57,나운3동,미룡동,063-471-6609
5512,술집,즐겨찾기,전북 군산시 황룡로 53,나운3동,미룡동,063-471-1214
5511,카페,미룡동커피,전북 군산시 황룡로 53,나운3동,미룡동,
5509,카페,커피마마,전북 군산시 황룡로 37,나운3동,미룡동,
5508,양식,59쌀피자미룡점,전북 군산시 황룡로 37,나운3동,미룡동,063-471-5958
5507,카페,한국기독교장로회 좋은교회커피랑도서관,전북 군산시 황룡로 35,나운3동,미룡동,
5493,카페,이디야 군산대점,전북 군산시 황룡로 12,나운3동,미룡동,063-465-4566
5492,치킨,노랑통닭,전북 군산시 황룡로 12,나운3동,미룡동,063-732-2991
5486,패스트푸드,써브웨이 군산대점,전북 군산시 황룡로 10,나운3동,미룡동,
5485,치킨,군산60계치킨나운미룡점,전북 군산시 황룡로 10,나운3동,미룡동,063-467-6092
5481,분식,감탄,전북 군산시 황룡로 10,나운3동,미룡동,063-466-8817
5480,한식,갈무리,전북 군산시 황룡로 10,나운3동,미룡동,063-466-0803
5479,양식,라라코스트군산대점,전북 군산시 황룡로 10,나운3동,미룡동,063-442-3230
5476,치킨,수원왕갈비통닭&통큰두마리찜닭,전북 군산시 황룡2길 71-10,나운3동,미룡동,063-468-8876
5473,중식,사천성,전북 군산시 황룡2길 4-1,나운3동,미룡동,063-461-3351
5471,간식,큰집닭강정,전북 군산시 황룡2길 4-1,나운3동,미룡동,063-471-1019
5464,한식,궁중왕족발,전북 군산시 황룡2길 22,나운3동,미룡동,
5463,한식,한갈비,전북 군산시 황룡2길 20,나운3동,미룡동,063-463-2300
5453,음식점,국수마을,전북 군산시 황룡2길 10,나운3동,미룡동,
5451,간식,커피에빠진호떡,전북 군산시 황룡1길 29,나운3동,미룡동,063-465-1177
5447,중식,우낀짬뽕,전북 군산시 황룡1길 17,나운3동,미룡동,
5446,한식,미룡가마솥설렁탕,전북 군산시 할미로 82-41,나운3동,미룡동,
5443,한식,행복한밥상,전북 군산시 칠성안4길 2,나운3동,미룡동,063-465-6542
5442,한식,팥죽명가,전북 군산시 칠성안4길 16,나운3동,미룡동,063-465-8855
5441,한식,전장의신 부대찌개,전북 군산시 칠성안4길 16,나운3동,미룡동,063-471-7252
5440,분식,출출할때,전북 군산시 칠성안4길 16,나운3동,미룡동,063-462-7171
5439,간식,아무르베이커리,전북 군산시 칠성안4길 16,나운3동,미룡동,063-468-8586
5434,카페,카페루앤비,전북 군산시 칠성로 39,나운3동,미룡동,
5433,중식,교동짬뽕&감자탕,전북 군산시 칠성로 39,나운3동,미룡동,063-451-7707
5431,술집,은파24시세꼬시,전북 군산시 칠성6길 7,나운3동,미룡동,063-465-6837
5430,중식,우리반점,전북 군산시 칠성6길 40,나운3동,미룡동,063-466-4580
5428,카페,멜로우브런치카페,전북 군산시 칠성5길 32,나운3동,미룡동,063-464-7522
5425,치킨,"군산통닭(미룡,산북,소룡점)",전북 군산시 칠성5길 32,나운3동,미룡동,
5422,한식,들녘,전북 군산시 칠성5길 31,나운3동,미룡동,
5421,한식,나래밥상,전북 군산시 칠성5길 31,나운3동,미룡동,
5415,치킨,신통치킨 미룡점,전북 군산시 칠성4길 30,나운3동,미룡동,063-465-4279
5414,음식점,최애찬,전북 군산시 칠성4길 30,나운3동,미룡동,063-465-3662
5412,분식,이도튀김분식,전북 군산시 칠성4길 28,나운3동,미룡동,063-471-6573
5411,치킨,멕시카나미룡점,전북 군산시 칠성4길 28,나운3동,미룡동,063-467-9085
5408,한식,대명해장국,전북 군산시 칠성4길 28,나운3동,미룡동,
5407,한식,시골순대,전북 군산시 칠성4길 28,나운3동,미룡동,
5406,한식,시골순대,전북 군산시 칠성4길 28,나운3동,미룡동,063-465-7177
5396,술집,가맥먹태촌,전북 군산시 칠성3길 26,나운3동,미룡동,
5395,중식,경화루,전북 군산시 칠성3길 26,나운3동,미룡동,
5394,한식,밥이랑꼬기랑,전북 군산시 칠성3길 25,나운3동,미룡동,
5393,한식,갈비순삭,전북 군산시 칠성3길 13,나운3동,미룡동,
5391,치킨,치킨보급소(산북미룡점),전북 군산시 칠성3길 13,나운3동,미룡동,063-467-0717
5388,카페,벨로마노,전북 군산시 은파순환길 92,나운3동,미룡동,063-471-5158
5387,한식,싱가폴식당,전북 군산시 은파순환길 88,나운3동,미룡동,
5385,카페,수제전통찻집천보,전북 군산시 은파순환길 80,나운3동,미룡동,
5384,술집,군산주막,전북 군산시 은파순환길 80,나운3동,미룡동,
5382,카페,레드햇49-5,전북 군산시 은파순환길 78,나운3동,미룡동,063-466-8203
5381,유흥시설,뮤직포유,전북 군산시 은파순환길 78,나운3동,미룡동,
5380,술집,물빛마을,전북 군산시 은파순환길 76,나운3동,미룡동,063-471-5563
5379,한식,광장해물파전,전북 군산시 은파순환길 76,나운3동,미룡동,
5378,술집,해담,전북 군산시 은파순환길 174-6,나운3동,미룡동,063-465-8789
5377,카페,크레마,전북 군산시 은파순환길 174-5,나운3동,미룡동,063-445-7755
5376,양식,페이지원,전북 군산시 은파순환길 174-4,나운3동,미룡동,063-471-5234
5375,양식,은파아리울레스토랑,전북 군산시 은파순환길 174-4,나운3동,미룡동,
5372,카페,하얀코끼리,전북 군산시 은파순환길 174-13,나운3동,미룡동,063-462-3300
5370,카페,몬주익,전북 군산시 은파순환길 174-1,나운3동,미룡동,
5368,한식,정석통바베큐족구이(미룡점),전북 군산시 은파순환길 156-9,나운3동,미룡동,063-463-9005
5365,카페,㈜유일방재산업(커피니군산대원당점),전북 군산시 원당길 73-5,나운3동,미룡동,
5361,한식,복's한가족,전북 군산시 용둔길 8,나운3동,미룡동,063-451-2400
5354,식품판매,우리한우마을,전북 군산시 용둔길 14,나운3동,미룡동,063-466-7292
5348,술집,삼순이비어,전북 군산시 부곡로 130,나운3동,미룡동,
5347,한식,소반,전북 군산시 부곡로 130,나운3동,미룡동,063-468-2888
5346,치킨,마더맘치킨&피자,전북 군산시 부곡로 129,나운3동,미룡동,063-465-4111
5345,술집,봉자,전북 군산시 부곡로 129,나운3동,미룡동,063-463-9898
5344,한식,구공탄,전북 군산시 부곡로 129,나운3동,미룡동,
5342,한식,바다실비,전북 군산시 부곡로 126,나운3동,미룡동,
5341,한식,아나고랑 돼지랑,전북 군산시 부곡로 126,나운3동,미룡동,
5340,술집,객주포차,전북 군산시 부곡로 126,나운3동,미룡동,
5339,술집,주당,전북 군산시 부곡로 126,나운3동,미룡동,063-468-9869
5338,술집,황제세꼬시,전북 군산시 부곡로 126,나운3동,미룡동,
5337,치킨,페리카나미룡산북점,전북 군산시 부곡로 125,나운3동,미룡동,
5336,한식,대명참숯불구이,전북 군산시 부곡로 125,나운3동,미룡동,063-461-5040
5334,술집,놀부집,전북 군산시 부곡로 125,나운3동,미룡동,
5333,도시락,맛찬도시락,전북 군산시 부곡로 124,나운3동,미룡동,
5332,음식점,달자네식당,전북 군산시 부곡로 124,나운3동,미룡동,
5331,한식,꽃돼지연탄구이,전북 군산시 부곡로 124,나운3동,미룡동,
5330,한식,대명명태찜,전북 군산시 부곡로 124,나운3동,미룡동,
5326,술집,다사랑치킨피자 군산대점,전북 군산시 미제길 8,나운3동,미룡동,063-463-9900
5324,술집,불칸,전북 군산시 미제길 8,나운3동,미룡동,
5320,한식,영하우스,전북 군산시 미제길 46,나운3동,미룡동,
5319,한식,청하순대 미룡점,전북 군산시 미제길 41,나운3동,미룡동,
5318,중식,칭타오,전북 군산시 미제길 41,나운3동,미룡동,
5316,한식,와따국밥,전북 군산시 미제길 35-1,나운3동,미룡동,
5315,한식,솥뚜껑,전북 군산시 미제길 34,나운3동,미룡동,
5314,치킨,자담치킨&호프 군산대점,전북 군산시 미제길 32,나운3동,미룡동,063-466-9293
5313,한식,군산순대국밥,전북 군산시 미제길 31,나운3동,미룡동,063-466-0740
5312,한식,대학로맛고기식당,전북 군산시 미제길 25,나운3동,미룡동,063-471-8708
5311,한식,별미백반생선탕,전북 군산시 미제길 22,나운3동,미룡동,063-463-0013
5310,술집,싸다구(4다9)포차,전북 군산시 미제길 21,나운3동,미룡동,063-471-3342
5309,한식,현대옥군산대점,전북 군산시 미제길 18,나운3동,미룡동,
5308,한식,꼬치닭,전북 군산시 미제길 16,나운3동,미룡동,
5306,한식,양평해장국 미룡점,전북 군산시 미제길 14,나운3동,미룡동,
5305,술집,크라운호프 군산대점,전북 군산시 미제길 13,나운3동,미룡동,
5303,한식,교동국수 군산대점,전북 군산시 미제길 13,나운3동,미룡동,063-464-5879
5298,한식,춘천닭갈비 비비리,전북 군산시 미제길 13,나운3동,미룡동,
5296,카페,케틀온,전북 군산시 미제4길 9,나운3동,미룡동,
5295,치킨,치킨마루,전북 군산시 미제4길 1,나운3동,미룡동,063-465-9930
5294,한식,신시도세꼬시,전북 군산시 미제4길 1,나운3동,미룡동,063-471-4033
5293,카페,컴포즈커피 군산미룡점,전북 군산시 미제4길 1,나운3동,미룡동,063-471-5512
5289,간식,정담떡방,전북 군산시 미제4길 1,나운3동,미룡동,
5288,한식,우리목살집,전북 군산시 미제3길 3,나운3동,미룡동,063-468-7933
5287,간식,뚜레쥬르 군산대점,전북 군산시 미제3길 2,나운3동,미룡동,063-468-9949
5286,한식,노다지감자탕,전북 군산시 미제3길 2,나운3동,미룡동,
5285,아시아음식,라이스 스토리,전북 군산시 미제3길 2,나운3동,미룡동,063-465-4259
5283,한식,옛날막창,전북 군산시 미제2길 8-7,나운3동,미룡동,
5282,술집,역전할머니맥주 군산대점,전북 군산시 미제2길 8-4,나운3동,미룡동,
5281,치킨,오꾸닭,전북 군산시 미제2길 8-4,나운3동,미룡동,
5280,술집,역전할머니맥주 군산대점,전북 군산시 미제2길 8-4,나운3동,미룡동,063-462-1800
5279,술집,미사리라이브호프,전북 군산시 미제2길 8-10,나운3동,미룡동,
5278,카페,하버브릿지,전북 군산시 미제2길 8-1,나운3동,미룡동,063-467-9333
5276,샤브샤브,홈인샤브미룡점,전북 군산시 미제2길 34,나운3동,미룡동,063-910-2692
5275,일식,후성식당,전북 군산시 미제2길 33,나운3동,미룡동,
5273,술집,뒤푸리,전북 군산시 미제2길 31,나운3동,미룡동,063-468-2051
5271,치킨,치킨플러스 군산대점,전북 군산시 미제2길 29,나운3동,미룡동,
5269,한식,화불닭 미룡점,전북 군산시 미제2길 26,나운3동,미룡동,063-467-9253
5267,일식,치쿠린,전북 군산시 미제2길 26,나운3동,미룡동,
5266,카페,카페라비아파리,전북 군산시 미제2길 24,나운3동,미룡동,
5265,분식,신전떡볶이 군산대점,전북 군산시 미제2길 19,나운3동,미룡동,063-468-3377
5264,카페,공차 군산대점,전북 군산시 미제2길 19,나운3동,미룡동,063-464-0468
5263,패스트푸드,맘스터치 군산대점,전북 군산시 미제2길 19,나운3동,미룡동,063-465-9280
5262,치킨,충만치킨군산대점,전북 군산시 미제1길 8,나운3동,미룡동,063-451-7120
5261,한식,신흥대패,전북 군산시 미제1길 8,나운3동,미룡동,
5259,한식,족발명가,전북 군산시 미제1길 7,나운3동,미룡동,063-442-5850
5257,치킨,비에이치씨 군산대점,전북 군산시 미제1길 7,나운3동,미룡동,
5256,술집,코봉이 무한 리필,전북 군산시 미제1길 7,나운3동,미룡동,
5255,음식점,청춘연어,전북 군산시 미제1길 6,나운3동,미룡동,
5254,치킨,네네치킨 군산대점,전북 군산시 미제1길 5-4,나운3동,미룡동,063-461-4492
5252,일식,신촌돈가스,전북 군산시 미제1길 18,나운3동,미룡동,063-471-5332
5251,술집,시장골목집(군산대),전북 군산시 미제1길 17,나운3동,미룡동,063-466-1752
5248,치킨,교촌치킨 군산대점,전북 군산시 미제1길 12,나운3동,미룡동,
5247,중식,야미마라탕,전북 군산시 미제1길 11,나운3동,미룡동,
5246,치킨,맥시칸 미룡점,전북 군산시 미제1길 10,나운3동,미룡동,
5235,분식,김밥킹 군산대점,전북 군산시 미룡로 9,나운3동,미룡동,063-465-2777
5230,카페,엔티엘(NTL),전북 군산시 미룡로 9,나운3동,미룡동,063-911-9332
5229,카페,유유카페,전북 군산시 미룡로 75,나운3동,미룡동,063-465-5546
5218,분식,또또꼬마김밥 미룡점,전북 군산시 미룡로 46,나운3동,미룡동,
5217,치킨,만남치킨,전북 군산시 미룡로 46,나운3동,미룡동,063-468-9244
5210,한식,명랑부대찌개,전북 군산시 미룡로 45,나운3동,미룡동,063-465-8289
5188,간식,드림베이커리,전북 군산시 미룡로 24,나운3동,미룡동,063-462-7975
5183,카페,메가샵크로플,전북 군산시 미룡로 22,나운3동,미룡동,063-732-8887
5181,치킨,비비큐치킨,전북 군산시 미룡로 22,나운3동,미룡동,063-467-1418
5178,중식,취향각,전북 군산시 미룡로 15,나운3동,미룡동,063-471-6800
5176,한식,가람명태,전북 군산시 미룡로 12,나운3동,미룡동,
5174,분식,이웃집소녀떡볶이,전북 군산시 미룡로 12,나운3동,미룡동,063-471-1113
5172,카페,아트,전북 군산시 미룡로 12,나운3동,미룡동,
5171,한식,아빠애족발,전북 군산시 미룡로 12,나운3동,미룡동,063-468-2343
5167,한식,푸짐한 해와달,전북 군산시 미룡로 11,나운3동,미룡동,063-464-6738
5157,술집,변학도,전북 군산시 미룡로 45,나운3동,미룡동,
5156,치킨,조선치킨 군산대점,전북 군산시 미룡로 15,나운3동,미룡동,
5151,양식,피자스쿨 군산대점,전북 군산시 황룡2길 8,나운3동,미룡동,063-468-9559
5146,분식,김밥생각 미룡점,전북 군산시 황룡로 16,나운3동,미룡동,063-468-9004
5144,간식,파리바게트,전북 군산시 황룡로 12,나운3동,미룡동,
5140,패스트푸드,롯데리아 군산대학점,전북 군산시 황룡로 3,나운3동,미룡동,063-464-7007
5138,분식,이화분식,전북 군산시 미제2길 26,나운3동,미룡동,063-467-4450
5137,분식,신포우리만두,전북 군산시 미제길 23,나운3동,미룡동,063-468-3342
5136,한식,김대감찜닭,전북 군산시 미제2길 29,나운3동,미룡동,063-468-9787
5132,한식,가야궁영미네홍탁,전북 군산시 은파순환길 174-8,나운3동,미룡동,063-463-0642
5130,카페,티티카카,전북 군산시 은파순환길 92,나운3동,미룡동,063-443-5541
5128,한식,오감,전북 군산시 미제길 74,나운3동,미룡동,063-464-0166
5125,한식,곱창이 최고예요,전북 군산시 미제1길 11,나운3동,미룡동,063-466-1149
5114,카페,커피면회소(군산대점),전북 군산시 대학로 549,나운3동,미룡동,
5110,도시락,한솥 군산대점,전북 군산시 대학로 539,나운3동,미룡동,063-461-0158
5109,한식,한뚝수육국밥,전북 군산시 대학로 535,나운3동,미룡동,
5107,일식,불맛제대로낸웍스50,전북 군산시 대학로 533,나운3동,미룡동,
5106,카페,탐앤탐스 군산대점,전북 군산시 대학로 531,나운3동,미룡동,063-466-7800
5105,간식,군산대 이삭토스트,전북 군산시 대학로 529,나운3동,미룡동,063-466-3212
5103,패스트푸드,피자써클 군산대점,전북 군산시 대학로 529,나운3동,미룡동,063-462-2369
5102,카페,쉬즈베이글 군산대점,전북 군산시 대학로 527,나운3동,미룡동,063-462-0510
5077,한식,나누리추어탕,전북 군산시 팔마로 61,신풍동,문화동,063-466-0893
5075,한식,비당국수,전북 군산시 팔마로 54,신풍동,문화동,
5060,카페,킹스키친,전북 군산시 팔마로 10,신풍동,문화동,063-910-8828
5059,분식,상고앞분식,전북 군산시 팔마로 10,신풍동,문화동,
5057,한식,송가네참숯불구이,전북 군산시 축동로 121,신풍동,문화동,063-462-9202
5056,한식,서흥회관,전북 군산시 축동로 121,신풍동,문화동,063-466-4420
5055,한식,명태찜마을,전북 군산시 청소년회관로 6,신풍동,문화동,063-471-9438
5054,한식,명산옥,전북 군산시 청소년회관로 4,신풍동,문화동,063-465-4224
5053,카페,차더하기,전북 군산시 석치2길 12-1,신풍동,문화동,
5050,한식,나라식당,전북 군산시 서흥안2길 30,신풍동,문화동,063-462-0673
5047,건강식품판매,천하장사건강원,전북 군산시 서흥안1길 12,신풍동,문화동,
5046,한식,먹거리장터,전북 군산시 서흥안1길 3,신풍동,문화동,063-462-2121
5038,한식,일풍식당,전북 군산시 서흥1길 9,신풍동,문화동,063-442-6098
5037,분식,더머거(THE MUGER),전북 군산시 서흥1길 3,신풍동,문화동,
5035,한식,민들레식당,전북 군산시 서흥1길 3,신풍동,문화동,
5034,한식,의정부부대찌개,전북 군산시 서흥1길 13,신풍동,문화동,063-467-8003
5032,카페,카페남다른,전북 군산시 삼화길 6,신풍동,문화동,
5030,카페,감성스토리카페,전북 군산시 삼화길 42,신풍동,문화동,063-462-5369
5029,한식,하제방파제회집,전북 군산시 삼화길 40,신풍동,문화동,063-471-5348
5012,한식,땡초먹고맴맴,전북 군산시 백토로 92,신풍동,문화동,063-471-9333
5011,음식점,아구의명가,전북 군산시 백토로 92,신풍동,문화동,
5006,간식,동네빵집,전북 군산시 백토로 80,신풍동,문화동,
5003,한식,엄마손칼국수,전북 군산시 백토로 76,신풍동,문화동,063-468-7141
4997,한식,냠냠이유식,전북 군산시 백토로 65,신풍동,문화동,
4993,한식,얼큰이아구,전북 군산시 백토로 52,신풍동,문화동,
4982,한식,낙원볼태기,전북 군산시 백토로 349-7,신풍동,문화동,
4974,카페,카페캔디,전북 군산시 백토로 29,신풍동,문화동,063-443-6101
4973,한식,거목,전북 군산시 백토로 25-1,신풍동,문화동,063-461-4405
4972,한식,거목식당,전북 군산시 백토로 25-1,신풍동,문화동,
4970,한식,시골식당,전북 군산시 백토로 23,신풍동,문화동,063-461-5065
4964,한식,옥희네칼국수,전북 군산시 미원로 12,신풍동,문화동,
4963,한식,아줌마순대국밥,전북 군산시 미원로 10,신풍동,문화동,063-467-0929
4957,한식,한국인의 밥상,전북 군산시 문화안길 12,신풍동,문화동,
4955,간식,모락모락떡집,전북 군산시 문화로 37,신풍동,문화동,
4951,간식,못난이꽈배기,전북 군산시 문화로 37,신풍동,문화동,
4948,카페,에이비씨(ABC)커피,전북 군산시 문화로 33,신풍동,문화동,
4947,한식,정칼국수,전북 군산시 문화로 33,신풍동,문화동,
4945,분식,청년만두,전북 군산시 문화로 33,신풍동,문화동,063-465-9599
4935,한식,양평해장국문화점,전북 군산시 문화로 17,신풍동,문화동,
4925,중식,싱싱반점,전북 군산시 서흥안2길 39,신풍동,문화동,063-461-4003
4909,중식,덕성루,전북 군산시 백토로 34,신풍동,문화동,063-463-6758
4908,한식,우리떡갈비,전북 군산시 백토로 36,신풍동,문화동,
4893,분식,김밥짱,전북 군산시 문화로 33,신풍동,문화동,063-465-7461
4892,분식,우리분식,전북 군산시 문화로 33,신풍동,문화동,063-464-5878
4889,한식,군산시활어회센터,전북 군산시 문화로 41,신풍동,문화동,
4881,음식점,문화치킨,전북 군산시 문화3길 20,신풍동,문화동,
4876,양식,줌인면사무소,전북 군산시 문화1길 87,신풍동,문화동,
4875,한식,순이네명태찜.탕,전북 군산시 문화1길 87,신풍동,문화동,063-467-3077
4874,분식,만두한판,전북 군산시 문화1길 39-3,신풍동,문화동,063-452-1615
4873,카페,마노아(MANOAH),전북 군산시 문화1길 39-3,신풍동,문화동,
4866,한식,삼학골,전북 군산시 문화1길 22,신풍동,문화동,
4863,한식,황선생 참 건강원,전북 군산시 문화1길 19-1,신풍동,문화동,063-446-0012
4861,한식,밀타운,전북 군산시 문화1길 17,신풍동,문화동,063-462-1495
4860,중식,황금성,전북 군산시 문화1길 15,신풍동,문화동,063-471-7880
4855,간식,정다운 베이커리,전북 군산시 대학로 220,신풍동,문화동,063-445-8097
4843,카페,심콩,전북 군산시 대학로 209,신풍동,문화동,
4842,중식,왕산반점,전북 군산시 대학로 209,신풍동,문화동,063-467-1318
4830,중식,대박짜장,전북 군산시 대학로 187,신풍동,문화동,063-471-8413
4828,건강식품판매,대성건강원,전북 군산시 대학로 186-1,신풍동,문화동,
4816,간식,빵떡아찌,전북 군산시 대학로 168,신풍동,문화동,
4791,분식,핵떡 나운점,전북 군산시 나운로 4,신풍동,문화동,063-467-5882
4765,한식,얼큰이녹돈갈비,전북 군산시 군중길 1,신풍동,문화동,
4759,술집,가마꿉,전북 군산시 월명로 468,월명동,명산동,
4753,치킨,군산통닭,전북 군산시 월명로 465,월명동,명산동,
4752,한식,영희네생선탕,전북 군산시 월명로 464,월명동,명산동,
4750,중식,장가계,전북 군산시 월명로 464,월명동,명산동,063-464-8882
4743,카페,메가커피(군산명산1호점),전북 군산시 월명로 460-2,월명동,명산동,063-910-2304
4742,간식,허갈닭강정,전북 군산시 월명로 460-1,월명동,명산동,063-442-5009
4740,카페,보통날,전북 군산시 월명로 454,월명동,명산동,
4738,양식,남산돈까스(16호),전북 군산시 오룡로 65-1,월명동,명산동,
4737,간식,빵굽는오남매,전북 군산시 오룡로 65-1,월명동,명산동,063-463-8186
4736,한식,명산식당,전북 군산시 오룡로 65,월명동,명산동,063-445-6055
4735,중식,북경반점,전북 군산시 오룡로 63-1,월명동,명산동,063-453-4433
4734,한식,웅이집,전북 군산시 오룡로 60-1,월명동,명산동,063-452-9544
4733,한식,먹방촌,전북 군산시 오룡로 60,월명동,명산동,
4726,한식,뚱보식당,전북 군산시 오룡로 58-2,월명동,명산동,
4724,일식,남산왕돈가스,전북 군산시 오룡로 57-7,월명동,명산동,
4713,분식,순애분식,전북 군산시 오룡로 57-7,월명동,명산동,
4712,한식,명산순대,전북 군산시 오룡로 57-7,월명동,명산동,
4710,건강식품판매,허니하우스,전북 군산시 오룡로 57-2,월명동,명산동,
4709,한식,명산칼국수,전북 군산시 오룡로 57-2,월명동,명산동,063-468-1470
4707,카페,셀레네,전북 군산시 오룡로 55,월명동,명산동,
4702,양식,피자스쿨(명산사거리점),전북 군산시 대학로 60-1,월명동,명산동,063-445-0573
4691,한식,국수미는남자,전북 군산시 명산길 16,월명동,명산동,063-445-8838
4690,양식,스테이블,전북 군산시 명산길 12,월명동,명산동,063-468-8502
4675,한식,향연,전북 군산시 대학로 67-2,월명동,명산동,063-445-8433
4660,패스트푸드,롯데리아 군산점,전북 군산시 대학로 52,월명동,명산동,063-442-7711
4659,술집,추억촌,전북 군산시 대학로 52,월명동,명산동,063-466-3100
4657,중식,다원각,전북 군산시 대학로 51-3,월명동,명산동,063-442-3175
4648,분식,만남스넥,전북 군산시 금광길 5,월명동,명산동,
4634,술집,순미식당,전북 군산시 거석길 9-1,월명동,명산동,
4633,한식,명산양푼왕갈비,전북 군산시 거석길 9-1,월명동,명산동,063-445-3922
4632,한식,동경횟집,전북 군산시 거석길 8,월명동,명산동,063-445-1662
4631,카페,메리그린,전북 군산시 거석길 7,월명동,명산동,
4627,한식,군산댁,전북 군산시 거석길 5-8,월명동,명산동,063-461-7771
4625,한식,대전집,전북 군산시 거석길 41,월명동,명산동,063-446-1315
4622,한식,신창동도가니탕,전북 군산시 거석길 3-2,월명동,명산동,063-445-9067
4621,한식,회마당,전북 군산시 거석길 3,월명동,명산동,063-446-1999
4620,한식,사골뚝배기,전북 군산시 거석길 29,월명동,명산동,
4619,분식,또리분식,전북 군산시 거석길 15,월명동,명산동,
4617,한식,명산동 바다장어,전북 군산시 거석길 12,월명동,명산동,063-464-3800
4616,한식,군산시실비횟집,전북 군산시 거석길 10,월명동,명산동,063-445-9135
4615,한식,고향 옛 칼국수,전북 군산시 미원3길 51,월명동,둔율동,063-446-2269
4614,한식,안동식당,전북 군산시 아리랑로 39,월명동,둔율동,063-442-4785
4612,양식,프로토타입,전북 군산시 둔율1길 2,월명동,둔율동,
4608,한식,남산식당,전북 군산시 흥남2길 60,흥남동,동흥남동,063-442-4442
4600,한식,초가마루,전북 군산시 팔마로 203,흥남동,동흥남동,063-445-6340
4596,중식,왕서방,전북 군산시 팔마로 190,흥남동,동흥남동,
4595,패스트푸드,마시꼬,전북 군산시 팔마로 186,흥남동,동흥남동,
4587,술집,해피투게더,전북 군산시 팔마로 182,흥남동,동흥남동,
4579,중식,대만원,전북 군산시 팔마로 155-1,흥남동,동흥남동,063-442-7468
4574,한식,내고향족발보쌈,전북 군산시 팔마로 150,흥남동,동흥남동,063-462-3040
4569,카페,오니라,전북 군산시 진포3길 17,흥남동,동흥남동,063-465-9995
4561,한식,제일식당,전북 군산시 동팔마길 3-1,흥남동,동흥남동,063-453-0873
4551,카페,육교다방,전북 군산시 대야면 번영로 927,대야면,대야면,063-451-6051
4550,양식,오구쌀피자,전북 군산시 대야면 번영로 910,대야면,대야면,063-451-5944
4549,분식,만나분식,전북 군산시 대야면 번영로 910,대야면,대야면,063-451-3883
4548,한식,등대양푼이동태찌개,전북 군산시 대야면 번영로 903,대야면,대야면,
4543,한식,성하식당,전북 군산시 대야면 대야관통로 63,대야면,대야면,063-451-0178
4537,치킨,데니스피자모아양념통닭,전북 군산시 대야면 지경리,대야면,대야면,063-451-2454
4532,한식,손맛칼국수,전북 군산시 대야면 우덕2길 15,대야면,대야면,063-451-7871
4523,한식,큰들마루,전북 군산시 대야면 석화로 8,대야면,대야면,
4522,한식,설악추어탕,전북 군산시 대야면 석화로 8,대야면,대야면,063-453-7272
4517,한식,강산식당,전북 군산시 대야면 석화로 3,대야면,대야면,063-451-1515
4516,한식,나드리식당,전북 군산시 대야면 석화로 3,대야면,대야면,063-451-7997
4515,치킨,홍가네치킨,전북 군산시 대야면 석화로 3,대야면,대야면,
4511,치킨,비에이치씨치킨대야점,전북 군산시 대야면 석화로 13,대야면,대야면,063-452-5100
4507,술집,다사랑대야점,전북 군산시 대야면 석화로 1,대야면,대야면,063-451-9292
4505,한식,으뜸족발,전북 군산시 대야면 석화로 1,대야면,대야면,063-454-8582
4504,카페,브라운카펫,전북 군산시 대야면 석화로 1,대야면,대야면,063-453-8333
4502,카페,에이비씨커피,전북 군산시 대야면 석화로 1,대야면,대야면,
4499,카페,주식회사씬스1904 (리즈리),전북 군산시 대야면 서만자2길 6,대야면,대야면,063-453-6661
4492,건강식품판매,만수건강원,전북 군산시 대야면 만경로 1929-22,대야면,대야면,063-451-2126
4486,카페,"해,바람",전북 군산시 대야면 보덕안정길 61-7,대야면,대야면,
4477,카페,큰들카페,전북 군산시 대야면 번영로 943,대야면,대야면,
4476,간식,코리아 제과,전북 군산시 대야면 번영로 939,대야면,대야면,063-451-2040
4474,중식,중화반점,전북 군산시 대야면 번영로 935,대야면,대야면,
4462,한식,장터국수,전북 군산시 대야면 번영로 907,대야면,대야면,063-451-3061
4459,카페,청을담는동네청담동,전북 군산시 대야면 번영로 900,대야면,대야면,063-452-5296
4456,분식,호아네김밥만두,전북 군산시 대야면 번영로 897,대야면,대야면,063-451-7179
4455,술집,칸꼬치구이,전북 군산시 대야면 번영로 897,대야면,대야면,
4445,한식,정가든,전북 군산시 대야면 번영로 1237,대야면,대야면,063-451-4094
4440,한식,도부리감자탕 대야점,전북 군산시 대야면 백마길 22,대야면,대야면,063-453-3716
4439,간식,오남매,전북 군산시 대야면 백마길 19,대야면,대야면,
4438,한식,맛있는 백반,전북 군산시 대야면 백마길 15-3,대야면,대야면,
4436,한식,토종순대국,전북 군산시 대야면 백마길 15-1,대야면,대야면,
4435,야식,역전야식,전북 군산시 대야면 백마길 13,대야면,대야면,063-451-0133
4428,건강식품판매,제일건강원,전북 군산시 대야면 만경로 1943,대야면,대야면,063-451-6488
4426,한식,대야장터국밥,전북 군산시 대야면 만경로 1933,대야면,대야면,063-463-6586
4416,한식,대야회집,전북 군산시 대야면 동오산길 11-1,대야면,대야면,
4414,한식,대야시장국수,전북 군산시 대야면 대야시장로 9-1,대야면,대야면,
4413,노점,노점,전북 군산시 대야면 대야시장로 9-1,대야면,대야면,
4412,식품판매,만나쌀상회,전북 군산시 대야면 대야시장로 9-1,대야면,대야면,
4410,식품판매,고산농산고추방앗간,전북 군산시 대야면 대야시장로 9-1,대야면,대야면,
4409,분식,장터짜장,전북 군산시 대야면 대야시장로 9-1,대야면,대야면,
4407,노점,노점,전북 군산시 대야면 대야시장로 9-1,대야면,대야면,
4406,노점,노점,전북 군산시 대야면 대야시장로 9-1,대야면,대야면,
4405,노점,노점,전북 군산시 대야면 대야시장로 9-1,대야면,대야면,
4404,노점,노점,전북 군산시 대야면 대야시장로 9-1,대야면,대야면,
4403,노점,노점,전북 군산시 대야면 대야시장로 9-1,대야면,대야면,
4402,한식,장미수산,전북 군산시 대야면 대야시장로 9-1,대야면,대야면,
4401,노점,채소,전북 군산시 대야면 대야시장로 9,대야면,대야면,
4399,노점,노점,전북 군산시 대야면 대야시장로 9,대야면,대야면,
4398,한식,닭,전북 군산시 대야면 대야시장로 9,대야면,대야면,
4397,한식,"마늘,모종",전북 군산시 대야면 대야시장로 9,대야면,대야면,
4384,분식,호떡,전북 군산시 대야면 대야시장로 9,대야면,대야면,
4382,간식,빵,전북 군산시 대야면 대야시장로 9,대야면,대야면,
4380,한식,족발,전북 군산시 대야면 대야시장로 9,대야면,대야면,
4376,한식,생선,전북 군산시 대야면 대야시장로 9,대야면,대야면,
4369,노점,노점,전북 군산시 대야면 대야시장로 9,대야면,대야면,
4368,노점,노점,전북 군산시 대야면 대야시장로 9,대야면,대야면,
4344,식품판매,문성호,전북 군산시 대야면 대야시장로 7-1,대야면,대야면,
4328,한식,남도식당,전북 군산시 대야면 대야시장로 21,대야면,대야면,063-451-8851
4327,노점,노점,전북 군산시 대야면 대야시장로 19,대야면,대야면,
4283,한식,대가촌흑염소,전북 군산시 대야면 대야관통로 96,대야면,대야면,
4282,한식,대야한우농장식당,전북 군산시 대야면 대야관통로 90,대야면,대야면,063-451-4620
4281,한식,우사랑,전북 군산시 대야면 대야관통로 90,대야면,대야면,
4280,한식,청예우,전북 군산시 대야면 대야관통로 90,대야면,대야면,063-451-6464
4278,한식,유)청예우농업회사법인,전북 군산시 대야면 대야관통로 90,대야면,대야면,063-451-6464
4273,한식,대야식당,전북 군산시 대야면 대야관통로 60,대야면,대야면,063-451-4222
4272,한식,고향순대,전북 군산시 대야면 대야관통로 60,대야면,대야면,
4269,카페,또봄,전북 군산시 대야면 대야관통로 55,대야면,대야면,
4268,한식,명품뒷고기,전북 군산시 대야면 대야관통로 55,대야면,대야면,
4259,중식,대야성,전북 군산시 대야면 대야관통로 136,대야면,대야면,063-451-6788
4255,한식,탑천전주매운탕,전북 군산시 대야면 광교리,대야면,대야면,063-451-5068
4250,양식,뉴욕버거터미널점,전북 군산시 해망로 23,흥남동,대명동,063-442-1007
4249,한식,대원회관,전북 군산시 해망로 23,흥남동,대명동,
4247,양식,샐러빗,전북 군산시 해망로 21,흥남동,대명동,
4245,간식,이삭토스트터미널점,전북 군산시 해망로 17-9,흥남동,대명동,063-443-2492
4244,한식,정담순대,전북 군산시 해망로 17-7,흥남동,대명동,063-445-5220
4242,치킨,노랑통닭(군산터미널점),전북 군산시 해망로 17-5,흥남동,대명동,063-443-4473
4240,분식,공가네김밥,전북 군산시 해망로 13-1,흥남동,대명동,063-461-3392
4239,중식,태백원,전북 군산시 해망로 13-1,흥남동,대명동,
4236,한식,시골막국수,전북 군산시 중앙로 56,흥남동,대명동,
4235,카페,에스바이크라이더커피숍,전북 군산시 중앙로 54,흥남동,대명동,063-445-5543
4234,치킨,교촌치킨미원점,전북 군산시 중앙로 43,흥남동,대명동,
4232,중식,무지개식당,전북 군산시 중앙로 43,흥남동,대명동,
4230,분식,옛날수제튀김&김밥,전북 군산시 중앙로 43,흥남동,대명동,
4227,카페,숲이야기,전북 군산시 중앙로 30,흥남동,대명동,
4225,한식,동서회관,전북 군산시 중앙로 29,흥남동,대명동,063-443-1508
4222,한식,권씨네밥상,전북 군산시 중앙로 18-3,흥남동,대명동,063-451-7474
4217,카페,카페아르,전북 군산시 동팔마길 50-1,흥남동,대명동,
4215,한식,어?곱창이네,전북 군산시 동팔마길 47,흥남동,대명동,063-445-6221
4214,한식,돼지우리,전북 군산시 동팔마길 40,흥남동,대명동,063-442-0359
4213,한식,광주순대,전북 군산시 동팔마길 40,흥남동,대명동,063-445-3257
4212,간식,스튜디오밀,전북 군산시 동팔마길 32,흥남동,대명동,
4209,음식점,아인푸드,전북 군산시 동팔마길 20-1,흥남동,대명동,
4204,한식,송정식당,전북 군산시 구암3.1로 6-1,흥남동,대명동,063-446-0303
4194,술집,다사랑치킨피자대명점,전북 군산시 대명길 8,흥남동,대명동,
4187,치킨,비비큐군산경암점,전북 군산시 대명길 3,흥남동,대명동,063-443-9280
4186,분식,김밥이야기 흥남점,전북 군산시 대명길 3,흥남동,대명동,063-443-3800
4185,간식,와플대학 군산대명캠퍼스,전북 군산시 대명길 16,흥남동,대명동,
4184,술집,터미날 호프,전북 군산시 대명길 16,흥남동,대명동,
4183,간식,파리바게뜨군산터미널점,전북 군산시 대명길 14-7,흥남동,대명동,063-445-2935
4182,분식,김밥천국,전북 군산시 대명길 14-7,흥남동,대명동,063-445-8086
4181,술집,경원상회,전북 군산시 대명길 14-2,흥남동,대명동,
4176,분식,33떡볶이 군산1호점,전북 군산시 대명길 13,흥남동,대명동,063-442-7933
4174,치킨,당신은지금치킨이땡긴다 대명점,전북 군산시 대명길 13,흥남동,대명동,
4167,간식,골목떡집,전북 군산시 대명3길 7,흥남동,대명동,063-445-9324
4162,간식,신평떡집,전북 군산시 대명3길 48-1,흥남동,대명동,063-445-9042
4158,간식,미면떡집,전북 군산시 대명3길 48,흥남동,대명동,063-446-9086
4130,식품판매,개야도수산,전북 군산시 대명2길 10-1,흥남동,대명동,
4121,간식,군산 떡집,전북 군산시 구암3.1로 9,흥남동,대명동,063-446-4466
4120,간식,빵장수야곱,전북 군산시 구암3.1로 9,흥남동,대명동,
4116,중식,중국관,전북 군산시 구암3.1로 6-1,흥남동,대명동,063-446-2009
4114,카페,커피베이 군산터미널점,전북 군산시 구암3.1로 30,흥남동,대명동,
4112,술집,마녀생맥주,전북 군산시 구암3.1로 30,흥남동,대명동,063-442-8988
4110,치킨,가마치통닭대명점,전북 군산시 구암3.1로 30,흥남동,대명동,
4103,한식,장터국수,전북 군산시 구암3.1로 13-1,흥남동,대명동,063-442-4578
4090,간식,시장떡집,전북 군산시 구암3.1로 13-1,흥남동,대명동,063-445-1798
4075,음식점,대명식당,전북 군산시 구암3.1로 13-1,흥남동,대명동,
4027,카페,커피앤,전북 군산시 구시장로 14,흥남동,대명동,
4026,한식,대명순두부,전북 군산시 구시장로 9-4,흥남동,대명동,063-465-6742
4024,카페,허브,전북 군산시 구시장로 9-2,흥남동,대명동,
4011,한식,은혜식당,전북 군산시 구시장로 24,흥남동,대명동,
3998,카페,그곳에가면,전북 군산시 구시장로 16,흥남동,대명동,063-445-5874
3997,한식,얼큰이칼국수,전북 군산시 구시장로 16,흥남동,대명동,063-446-6922
3990,식품판매,역전상회,전북 군산시 구시장로 10-1,흥남동,대명동,063-446-3716
3983,한식,건어구이,전북 군산시 정자로 13,구암동,내흥동,063-910-9291
3982,치킨,"자담치킨 내흥,구암점",전북 군산시 정자로 13,구암동,내흥동,063-442-9233
3981,치킨,비비큐(BBQ)군산역점,전북 군산시 정자로 13,구암동,내흥동,
3980,음식점,언덕위에,전북 군산시 안정길 5-12,구암동,내흥동,063-453-5601
3979,한식,콩마을,전북 군산시 안정길 15-11,구암동,내흥동,063-452-7373
3976,패스트푸드,오늘도 샌드,전북 군산시 돌끝로 52,구암동,내흥동,
3973,카페,카페153,전북 군산시 내흥1길 19,구암동,내흥동,
3967,한식,하구둑보신옥,전북 군산시 거척길 3-16,구암동,내흥동,063-445-6880
3948,한식,미래횟집,전북 군산시 산단로 68-10,미성동,내초동,063-467-2638
3937,중식,자금성,전북 군산시 나포면 외곤1길 4,나포면,나포면,063-466-4545
3935,한식,하구식당,전북 군산시 나포면 십자들로 665,나포면,나포면,063-453-1546
3934,치킨,사랑방통닭,전북 군산시 나포면 십자들로 651,나포면,나포면,
3932,한식,24시 휴게식당(시골밥상),전북 군산시 나포면 십자들로 643,나포면,나포면,063-451-4131
3926,한식,뜰안에정원,전북 군산시 나포면 십자들로 373,나포면,나포면,063-453-1479
3922,한식,옹고집쌈밥,전북 군산시 나포면 서왕길 34,나포면,나포면,063-453-8883
3920,카페,옹다방,전북 군산시 나포면 서왕길 34,나포면,나포면,063-453-8883
3917,중식,나포윤반점,전북 군산시 나포면 나포초교길 5-1,나포면,나포면,063-453-1575
3914,한식,하늘바람팜스토랑,전북 군산시 나포면 군둔길 156,나포면,나포면,063-451-4588
3911,치킨,나포통닭,전북 군산시 나포면 교동2길 6,나포면,나포면,063-453-1005
3906,한식,이순신장군갈비,전북 군산시 현충로 96,나운동,나운동,
3905,한식,지수만풍천민물장어,전북 군산시 현충로 93-2,나운동,나운동,063-466-9288
3904,한식,원조장터곱창,전북 군산시 현충로 91-3,나운동,나운동,063-471-9707
3902,한식,삼거리매운탕,전북 군산시 현충로 8,나운동,나운동,063-463-5811
3901,한식,두부명가,전북 군산시 현충로 71,나운동,나운동,
3900,한식,대박부대찌개,전북 군산시 현충로 71,나운동,나운동,063-463-4273
3899,한식,장안통아귀찜,전북 군산시 현충로 62-7,나운동,나운동,063-465-9901
3898,한식,고방골오리,전북 군산시 현충로 43,나운동,나운동,
3895,음식점,라봉찬,전북 군산시 현충로 34,나운동,나운동,063-731-1071
3894,도시락,런치박스,전북 군산시 현충로 34,나운동,나운동,063-462-2001
3893,한식,육대장나운점,전북 군산시 현충로 34,나운동,나운동,
3890,간식,구움 9OUM,전북 군산시 현충로 33,나운동,나운동,
3888,카페,엠오비(MOB),전북 군산시 현충로 33,나운동,나운동,
3885,분식,분식당,전북 군산시 현충로 33,나운동,나운동,063-471-4442
3882,한식,유원동태탕,전북 군산시 현충로 3,나운동,나운동,
3880,한식,궁전매운탕,전북 군산시 현충로 12,나운동,나운동,
3875,한식,경춘면옥,전북 군산시 한밭로 76-9,나운동,나운동,063-443-4433
3874,한식,은파 장작구이,전북 군산시 한밭로 76-7,나운동,나운동,
3873,한식,은파풍천장어,전북 군산시 한밭로 76-5,나운동,나운동,
3872,카페,산타로사,전북 군산시 한밭로 76-12,나운동,나운동,063-464-4991
3871,양식,파라디소페르두또,전북 군산시 한밭로 76-11,나운동,나운동,063-471-8525
3870,카페,빈타이군산은파점,전북 군산시 한밭로 76-10,나운동,나운동,063-732-4376
3869,카페,미제리,전북 군산시 한밭로 21,나운동,나운동,
3865,중식,엄마반점,전북 군산시 한밭3길 23,나운동,나운동,063-465-1300
3863,한식,진호수산.회,전북 군산시 한밭1길 43,나운동,나운동,063-471-7708
3858,한식,곰돌이네,전북 군산시 한밭1길 19,나운동,나운동,063-465-0006
3857,한식,성일추어탕,전북 군산시 한밭1길 17,나운동,나운동,063-465-6999
3856,중식,청해루,전북 군산시 하신재길 8,나운동,나운동,
3855,한식,돼지사냥,전북 군산시 하신재길 8,나운동,나운동,
3850,일식,서소문소바,전북 군산시 하신안길 62,나운동,나운동,063-471-0040
3849,한식,동갑명태,전북 군산시 하신안길 52,나운동,나운동,
3848,한식,곱창주세요,전북 군산시 하신안길 40,나운동,나운동,
3846,한식,아리랑삼겹,전북 군산시 하신안길 33,나운동,나운동,
3845,한식,올레곱창,전북 군산시 하신안길 2,나운동,나운동,063-463-3214
3844,술집,줌마포차,전북 군산시 하신안길 2,나운동,나운동,063-466-6757
3843,한식,꿈에본족발,전북 군산시 하신안길 18,나운동,나운동,
3842,한식,닭발하우스,전북 군산시 하신안길 17,나운동,나운동,
3841,중식,산동성,전북 군산시 하신안길 14,나운동,나운동,063-465-3343
3839,한식,진포횟집,전북 군산시 하신안길 12,나운동,나운동,063-466-6321
3836,분식,와따가분식,전북 군산시 하신3길 7,나운동,나운동,063-465-5276
3829,술집,주동아리,전북 군산시 하신2길 5-4,나운동,나운동,
3826,한식,케이케이푸드,전북 군산시 하신2길 17-1,나운동,나운동,
3825,술집,반딧불,전북 군산시 하신2길 16-4,나운동,나운동,
3824,술집,크로바,전북 군산시 하신2길 16-4,나운동,나운동,
3823,술집,센스,전북 군산시 하신2길 16-4,나운동,나운동,
3821,한식,동명상회,전북 군산시 하신2길 16,나운동,나운동,
3820,뷔페,단골집,전북 군산시 하신2길 16,나운동,나운동,063-462-7232
3819,한식,족발슈퍼 군산점,전북 군산시 하신2길 15,나운동,나운동,063-466-7372
3818,한식,춘하추동 보신탕,전북 군산시 하신2길 15,나운동,나운동,063-465-8484
3817,음식점,놀러가게호프,전북 군산시 하신2길 15,나운동,나운동,
3816,한식,부산세꼬시,전북 군산시 하신2길 12-3,나운동,나운동,
3815,한식,대중이네,전북 군산시 하신2길 12-3,나운동,나운동,
3814,한식,황여사밥상,전북 군산시 하신2길 12-3,나운동,나운동,
3813,한식,나포순대,전북 군산시 하신2길 12-3,나운동,나운동,
3812,한식,신우식당,전북 군산시 하신2길 12-3,나운동,나운동,063-466-7642
3811,술집,해바라기,전북 군산시 하신1길 8,나운동,나운동,063-467-1662
3810,한식,맛둥지,전북 군산시 하신1길 7-6,나운동,나운동,
3807,치킨,호식이두마리치킨군산나운점,전북 군산시 하신1길 32,나운동,나운동,
3804,한식,도싯골 본점,전북 군산시 하신1길 26,나운동,나운동,063-446-9595
3803,한식,대가복해춘,전북 군산시 하신1길 25,나운동,나운동,063-461-2008
3802,한식,"직화요리 볶음 찜닭,볶찜(군산나운점)",전북 군산시 하신1길 24-1,나운동,나운동,
3801,양식,도담,전북 군산시 하신1길 24-1,나운동,나운동,
3800,카페,(#)밥다방,전북 군산시 하신1길 24-1,나운동,나운동,
3799,일식,일품초밥&돈까스,전북 군산시 하신1길 24-1,나운동,나운동,
3798,치킨,컬투앤포차,전북 군산시 하신1길 22-1,나운동,나운동,063-443-5565
3797,술집,개코포차,전북 군산시 하신1길 22,나운동,나운동,
3796,한식,형제족발,전북 군산시 하신1길 22,나운동,나운동,063-466-8828
3795,한식,라라소갈비찜,전북 군산시 하신1길 19-1,나운동,나운동,063-465-5557
3794,한식,뒷고기,전북 군산시 하신1길 17,나운동,나운동,
3793,한식,어청동생선탕.찜,전북 군산시 하신1길 16,나운동,나운동,
3792,술집,달려라,전북 군산시 하신1길 16,나운동,나운동,
3791,술집,아찌네,전북 군산시 하신1길 14,나운동,나운동,
3790,술집,미르,전북 군산시 하신1길 14,나운동,나운동,
3789,한식,본초불닭발군산나운점,전북 군산시 하신1길 14,나운동,나운동,063-467-9245
3788,한식,천하장사,전북 군산시 하신1길 14,나운동,나운동,063-465-0838
3787,한식,곱창과저팔계,전북 군산시 하신1길 14,나운동,나운동,
3786,한식,돼지우리곱창,전북 군산시 하신1길 14,나운동,나운동,
3785,술집,옛촌,전북 군산시 하신1길 14,나운동,나운동,
3784,술집,술푸마,전북 군산시 하신1길 14,나운동,나운동,
3783,한식,우정명태 나운점,전북 군산시 하신1길 12,나운동,나운동,063-464-2490
3780,한식,나운해물마당,전북 군산시 하신1길 11-4,나운동,나운동,
3776,양식,칠(7)번가,전북 군산시 하신1길 11,나운동,나운동,063-462-7007
3773,한식,부덕이네 국밥,전북 군산시 하신1길 11,나운동,나운동,
3772,한식,생고기육회,전북 군산시 하나운안2길 6-1,나운동,나운동,
3771,한식,처갓집말뚝,전북 군산시 하나운안2길 8-2,나운동,나운동,063-465-0563
3770,한식,윤서네,전북 군산시 하나운안2길 6-4 ,나운동,나운동,
3769,한식,미정명가,전북 군산시 하나운안2길 6-3,나운동,나운동,063-471-6300
3767,술집,달빛창가에서,전북 군산시 하나운안2길 6-1,나운동,나운동,063-466-7900
3766,술집,우리동네,전북 군산시 하나운안2길 6-1,나운동,나운동,
3765,한식,밥참잘하는집,전북 군산시 하나운안2길 18,나운동,나운동,
3764,한식,온나게장,전북 군산시 하나운안2길 18,나운동,나운동,063-462-4417
3763,한식,나들목 나운점,전북 군산시 하나운안2길 17,나운동,나운동,
3762,한식,감칠맛,전북 군산시 하나운안2길 15-6,나운동,나운동,063-467-8915
3761,한식,깜도야,전북 군산시 하나운안2길 14,나운동,나운동,
3760,한식,비행장정문부대찌개,전북 군산시 하나운안2길 14,나운동,나운동,063-471-2159
3759,술집,소나기,전북 군산시 하나운안2길 12,나운동,나운동,063-461-4024
3758,퓨전요리,달보드레,전북 군산시 하나운안2길 12,나운동,나운동,
3756,한식,찰보리오리향,전북 군산시 하나운안1길 8-6,나운동,나운동,063-471-7992
3755,한식,화끈장어&갈비살,전북 군산시 하나운안1길 8-4,나운동,나운동,063-462-1472
3754,뷔페,행자네집,전북 군산시 하나운안1길 8,나운동,나운동,063-461-9988
3748,치킨,황가네통닭,전북 군산시 하나운안1길 51,나운동,나운동,063-467-3999
3746,치킨,군산장터통닭,전북 군산시 하나운안1길 51,나운동,나운동,063-461-3666
3745,치킨,언니닭,전북 군산시 하나운안1길 49,나운동,나운동,063-471-8885
3742,한식,만원족발,전북 군산시 하나운안1길 49,나운동,나운동,
3737,한식,한서울전집,전북 군산시 하나운안1길 43-1,나운동,나운동,
3729,간식,무초프루토,전북 군산시 하나운안1길 39,나운동,나운동,063-464-5412
3724,한식,주공칼국수,전북 군산시 하나운안1길 39,나운동,나운동,063-466-4002
3717,노점,노점,전북 군산시 하나운안1길 39,나운동,나운동,
3716,노점,노점,전북 군산시 하나운안1길 39,나운동,나운동,
3708,한식,양가네분식,전북 군산시 하나운안1길 39,나운동,나운동,
3703,노점,노점,전북 군산시 하나운안1길 39,나운동,나운동,
3696,노점,노점,전북 군산시 하나운안1길 39,나운동,나운동,
3685,치킨,신라직화구이치킨,전북 군산시 하나운안1길 37-5,나운동,나운동,
3683,분식,김밥천국,전북 군산시 하나운안1길 37-1,나운동,나운동,
3680,술집,트리플크라운,전북 군산시 하나운안1길 27,나운동,나운동,
3679,한식,밥장군푸드,전북 군산시 하나운안1길 27,나운동,나운동,
3678,한식,테트리스찜닭,전북 군산시 하나운안1길 27,나운동,나운동,063-910-7373
3677,카페,주민네가게,전북 군산시 하나운안1길 20,나운동,나운동,063-461-3635
3676,한식,뚱보보쌈 백반,전북 군산시 하나운안1길 20,나운동,나운동,
3675,술집,삼각지,전북 군산시 하나운안1길 16,나운동,나운동,063-467-2157
3674,한식,골목식당,전북 군산시 하나운안1길 16,나운동,나운동,063-463-8891
3673,술집,그시절그노래,전북 군산시 하나운안1길 16,나운동,나운동,
3672,한식,딜리버리쿡군산점,전북 군산시 하나운안1길 12,나운동,나운동,
3671,카페,인사동찻집,전북 군산시 하나운안1길 12,나운동,나운동,063-465-3048
3666,분식,청년다방,전북 군산시 하나운로 82,나운동,나운동,
3659,카페,빽다방군산나운점,전북 군산시 하나운로 79,나운동,나운동,
3658,치킨,가마치통닭,전북 군산시 하나운로 79,나운동,나운동,
3655,중식,라화쿵부마라탕군산나운점,전북 군산시 하나운로 77,나운동,나운동,063-465-0155
3654,간식,유명빵집,전북 군산시 하나운로 77,나운동,나운동,
3653,카페,뉴리터,전북 군산시 하나운로 77,나운동,나운동,063-466-0331
3647,한식,땅스부대찌개나운점,전북 군산시 하나운로 76,나운동,나운동,
3645,분식,우리할매떡볶이,전북 군산시 하나운로 76,나운동,나운동,
3640,샐러드,샐럽스프 나운점,전북 군산시 하나운로 73,나운동,나운동,
3639,패스트푸드,롯데리아군산나운점,전북 군산시 하나운로 73,나운동,나운동,
3635,한식,이차돌 군산나운점,전북 군산시 하나운로 72,나운동,나운동,063-465-0592
3628,한식,양평해장국 나운점,전북 군산시 하나운로 70,나운동,나운동,
3624,일식,역전우동0410 군산나운점,전북 군산시 하나운로 69,나운동,나운동,063-910-5410
3623,카페,컴포즈커피 군산나운점,전북 군산시 하나운로 69,나운동,나운동,
3617,카페,공차 군산나운점,전북 군산시 하나운로 68,나운동,나운동,
3614,간식,스마일찹쌀꽈배기,전북 군산시 하나운로 63,나운동,나운동,
3612,일식,제이제이,전북 군산시 하나운로 63,나운동,나운동,063-442-7301
3599,치킨,구운통닭,전북 군산시 하나운로 45,나운동,나운동,
3594,분식,명인만두,전북 군산시 하나운로 44,나운동,나운동,
3593,간식,파리바게트 군산나운점,전북 군산시 하나운로 44,나운동,나운동,063-467-8205
3587,분식,죠스떡볶이,전북 군산시 하나운로 44,나운동,나운동,063-467-5055
3584,간식,알통떡강정나운점,전북 군산시 하나운로 43,나운동,나운동,063-467-3443
3582,한식,세상에없던갈비,전북 군산시 하나운로 43,나운동,나운동,
3581,카페,더벤티(군산나운롯데점),전북 군산시 하나운로 43,나운동,나운동,063-461-8090
3580,한식,사골먹은 감자탕,전북 군산시 하나운로 43,나운동,나운동,
3579,간식,손이가꽈배기,전북 군산시 하나운로 43,나운동,나운동,
3578,한식,제육대가(군산점),전북 군산시 하나운로 43,나운동,나운동,063-911-7555
3563,분식,고봉민김밥인,전북 군산시 하나운로 38,나운동,나운동,063-462-7008
3557,분식,뚜만두,전북 군산시 하나운로 37,나운동,나운동,
3556,간식,이삭토스트 군산롯데점,전북 군산시 하나운로 37,나운동,나운동,063-463-2472
3555,치킨,신토불이,전북 군산시 하나운로 37,나운동,나운동,063-463-9929
3554,한식,장인족발,전북 군산시 하나운로 37,나운동,나운동,063-463-7789
3553,분식,으뜸이야,전북 군산시 하나운로 37,나운동,나운동,063-461-3382
3552,한식,국수나무 군산나운점,전북 군산시 하나운로 37,나운동,나운동,063-462-0080
3544,카페,이디야 군산나운점,전북 군산시 하나운로 32,나운동,나운동,063-468-1526
3528,간식,달이토스트생과일,전북 군산시 하나운로 29,나운동,나운동,
3527,치킨,구어좋은닭 나운점,전북 군산시 하나운로 29,나운동,나운동,063-465-9285
3517,한식,나운동춘천닭갈비,전북 군산시 하나운로 25,나운동,나운동,063-461-4323
3516,양식,피자스쿨,전북 군산시 하나운로 23,나운동,나운동,063-466-1002
3505,식품판매,하니,전북 군산시 하나운로 18,나운동,나운동,
3499,중식,몬스터탕수육,전북 군산시 하나운로 18,나운동,나운동,063-466-7702
3479,중식,홍콩반점,전북 군산시 하나운3길 3,나운동,나운동,063-463-8020
3478,한식,수원본석갈비,전북 군산시 하나운3길 26-7,나운동,나운동,063-463-5533
3475,뷔페,포만,전북 군산시 하나운3길 20,나운동,나운동,063-911-6646
3474,한식,시골집구들장 생삼겹살,전북 군산시 하나운3길 20,나운동,나운동,063-465-3363
3472,술집,본전집,전북 군산시 하나운3길 14,나운동,나운동,063-465-9336
3471,한식,920,전북 군산시 하나운3길 14,나운동,나운동,063-467-2774
3470,한식,소문난명태찜,전북 군산시 하나운3길 14,나운동,나운동,
3469,한식,곱창이 끝내줘요,전북 군산시 하나운3길 12,나운동,나운동,
3468,한식,한실골,전북 군산시 하나운3길 12,나운동,나운동,063-468-0185
3467,치킨,굽닭오븐구이,전북 군산시 하나운3길 12,나운동,나운동,063-463-3955
3466,일식,이쉐프수제돈가스,전북 군산시 하나운3길 12,나운동,나운동,
3458,카페,오늘의 디저트,전북 군산시 하나운2길 35,나운동,나운동,
3457,중식,메이찬,전북 군산시 하나운2길 33,나운동,나운동,063-468-1110
3456,카페,노아카페,전북 군산시 하나운2길 31-1,나운동,나운동,
3455,카페,노아카페,전북 군산시 하나운2길 31-1,나운동,나운동,
3454,한식,애돈가,전북 군산시 하나운1길 33,나운동,나운동,063-911-9255
3453,한식,대명로스,전북 군산시 하나운1길 31,나운동,나운동,
3451,한식,한마음밥상,전북 군산시 하나운1길 3,나운동,나운동,063-465-4121
3450,술집,들목주,전북 군산시 하나운1길 28,나운동,나운동,
3449,한식,자갈치브라더스(나운점),전북 군산시 하나운1길 27,나운동,나운동,
3447,한식,소문난팥칼국수,전북 군산시 하나운1길 25,나운동,나운동,063-467-9482
3446,술집,술펑?취펑?,전북 군산시 하나운1길 25,나운동,나운동,
3445,한식,군산뼈삼겹,전북 군산시 하나운1길 23,나운동,나운동,
3444,한식,사랑채,전북 군산시 하나운1길 19,나운동,나운동,
3443,한식,갈비스토리,전북 군산시 하나운1길 15,나운동,나운동,063-442-2832
3442,편의점,베스트 올,전북 군산시 팔마로 172,나운동,나운동,
3441,한식,해물나라,전북 군산시 칠성로 164,나운동,나운동,
3427,분식,설가네팥칼국수,전북 군산시 축동로 59,나운동,나운동,063-464-1300
3424,치킨,처갓집양념치킨(조촌점),전북 군산시 조촌로 68,나운동,나운동,
3421,치킨,치순이통닭,전북 군산시 의료원로 131,나운동,나운동,063-462-2999
3411,치킨,다다치킨,전북 군산시 의료원로 180,나운동,나운동,
3403,패스트푸드,파파스,전북 군산시 의료원로 159,나운동,나운동,063-466-2279
3400,분식,감탄,전북 군산시 의료원로 159,나운동,나운동,063-466-3055
3395,패스트푸드,명랑시대쌀핫도그,전북 군산시 의료원로 149,나운동,나운동,063-465-2313
3391,한식,홈쿡24 나운점,전북 군산시 의료원로 149,나운동,나운동,063-468-1188
3390,간식,인생닭강정,전북 군산시 의료원로 149,나운동,나운동,063-462-5599
3389,식품판매,영영상점 군산 21호 상점,전북 군산시 의료원로 149,나운동,나운동,
3388,분식,김밥이야기 나운점,전북 군산시 의료원로 149,나운동,나운동,063-462-8982
3378,술집,인생건어물,전북 군산시 의료원로 141,나운동,나운동,063-467-9210
3377,한식,고주몽,전북 군산시 의료원로 141,나운동,나운동,
3376,카페,더벤티 나운점,전북 군산시 의료원로 141,나운동,나운동,063-466-3237
3374,한식,고래뱃속,전북 군산시 의료원로 141,나운동,나운동,
3373,분식,라라분식,전북 군산시 의료원로 141,나운동,나운동,063-467-7769
3361,술집,투다리,전북 군산시 의료원로 131,나운동,나운동,
3360,치킨,비에이치씨(BHC) 나운1호점,전북 군산시 의료원로 131,나운동,나운동,
3351,간식,황제 찹쌀꽈배기 군산 직영점,전북 군산시 의료원로 119,나운동,나운동,
3347,한식,장터팥칼국수,전북 군산시 은파순환길 56,나운동,나운동,063-462-0555
3343,양식,스카이라운지파르베,전북 군산시 은파순환길 20,나운동,나운동,063-466-7000
3342,양식,스카이라운지파르베,전북 군산시 은파순환길 20,나운동,나운동,
3333,한식,마루 구암점,전북 군산시 양촌1길 50,나운동,나운동,
3328,한식,자갈집,전북 군산시 신설로 7,나운동,나운동,
3327,한식,나운생곱창,전북 군산시 신설로 7,나운동,나운동,
3320,치킨,09옛치킨,전북 군산시 신설로 3,나운동,나운동,063-462-0909
3319,중식,북경반점,전북 군산시 신설로 28,나운동,나운동,063-453-4433
3311,분식,거북이 왕만두김밥,전북 군산시 신설로 2,나운동,나운동,063-466-7992
3306,카페,카페카사비앙카,전북 군산시 신설로 16,나운동,나운동,
3305,한식,돼지코생곱창갈비,전북 군산시 신설로 15,나운동,나운동,063-471-8877
3303,카페,바이킹,전북 군산시 신설로 10,나운동,나운동,
3300,한식,힐링스파식당,전북 군산시 신설4길 9,나운동,나운동,
3295,간식,올베이커리,전북 군산시 신설4길 9,나운동,나운동,
3291,한식,참숯힐링스파,전북 군산시 신설4길 9,나운동,나운동,
3290,한식,나리생곱창구이 전문점,전북 군산시 신설3길 9,나운동,나운동,063-465-1137
3289,한식,대방촌,전북 군산시 신설3길 6-10,나운동,나운동,
3287,한식,엔제이푸드,전북 군산시 신설3길 6,나운동,나운동,063-468-3311
3286,카페,새참,전북 군산시 신설3길 6,나운동,나운동,063-471-7155
3284,카페,전북군산지역자활센터 카페보네군산점,전북 군산시 신설3길 13,나운동,나운동,063-468-9731
3283,중식,남원성,전북 군산시 신설2길 6-8,나운동,나운동,
3281,치킨,네네치킨(나운1호점),전북 군산시 신설2길 6-4,나운동,나운동,
3280,치킨,네네치킨(나운1호점),전북 군산시 신설2길 6-4,나운동,나운동,063-468-4492
3278,한식,쎈언니푸드,전북 군산시 신설2길 5-7,나운동,나운동,
3277,한식,온새미로,전북 군산시 신설2길 5-6,나운동,나운동,063-462-7467
3276,한식,삼시세끼,전북 군산시 신설2길 5-5,나운동,나운동,
3274,한식,장원꽃게장,전북 군산시 신설2길 4-3,나운동,나운동,063-471-5811
3273,분식,김마리,전북 군산시 신설2길 4,나운동,나운동,063-468-3247
3272,한식,옛날팥죽,전북 군산시 신설2길 4,나운동,나운동,063-442-8884
3267,한식,새벽회군산점,전북 군산시 신설1길 6,나운동,나운동,
3263,음식점,까투리 대박점,전북 군산시 신설1길 5,나운동,나운동,
3255,분식,만두여행예스트점,전북 군산시 수송로 86,나운동,나운동,063-468-2885
3254,한식,신포우리만두예스트점,전북 군산시 수송로 72,나운동,나운동,063-466-0389
3253,분식,일번지김밥,전북 군산시 수송로 70,나운동,나운동,063-471-8181
3244,술집,"도도랑(나운점), OUR PUB",전북 군산시 수송로 86,나운동,나운동,063-464-8085
3243,분식,두끼군산점,전북 군산시 수송로 86,나운동,나운동,
3241,간식,카롱하우스,전북 군산시 수송로 86,나운동,나운동,
3239,한식,제이비(JB)푸드,전북 군산시 수송로 86,나운동,나운동,
3235,카페,설빙 나운점,전북 군산시 수송로 86,나운동,나운동,063-461-7555
3230,카페,더컵,전북 군산시 수송로 8,나운동,나운동,063-462-2212
3221,일식,정스돈까스,전북 군산시 수송로 73,나운동,나운동,063-468-6389
3214,양식,킹스타피자나운점,전북 군산시 수송로 71,나운동,나운동,
3202,카페,디저트39군산나운점,전북 군산시 수송로 56,나운동,나운동,
3198,한식,현대옥나운동삼성아파트점,전북 군산시 수송로 56,나운동,나운동,063-462-8876
3196,술집,투다리나운점,전북 군산시 수송로 51,나운동,나운동,
3193,치킨,지코바나운점,전북 군산시 수송로 5,나운동,나운동,
3190,카페,에이비씨커피나운2호점,전북 군산시 수송로 5,나운동,나운동,063-466-6622
3185,일식,동순초밥참치,전북 군산시 수송로 48,나운동,나운동,063-466-2241
3184,카페,더리터군산나운점,전북 군산시 수송로 48,나운동,나운동,
3183,카페,우리까페,전북 군산시 수송로 48,나운동,나운동,063-463-4233
3177,패스트푸드,맘스터치 나운점,전북 군산시 수송로 42,나운동,나운동,063-461-4800
3175,간식,던킨군산나운점,전북 군산시 수송로 42,나운동,나운동,
3174,퓨전요리,본죽,전북 군산시 수송로 42,나운동,나운동,063-461-7444
3168,중식,부어비어양꼬치,전북 군산시 수송로 37,나운동,나운동,
3167,치킨,비비큐군산나운행운점,전북 군산시 수송로 37,나운동,나운동,
3166,한식,연탄꽃삼겹 나운점,전북 군산시 수송로 36,나운동,나운동,063-466-8864
3165,한식,육회총각,전북 군산시 수송로 35,나운동,나운동,
3164,카페,이디야 나운로데오점,전북 군산시 수송로 34,나운동,나운동,063-464-7711
3163,술집,역전할머니맥주 나운점,전북 군산시 수송로 34,나운동,나운동,
3162,술집,아리수,전북 군산시 수송로 33-1,나운동,나운동,
3161,술집,달빛시장,전북 군산시 수송로 33-1,나운동,나운동,
3159,한식,휴식이베리코,전북 군산시 수송로 32,나운동,나운동,
3158,술집,쉼표맥주,전북 군산시 수송로 32,나운동,나운동,
3157,한식,삼바리군산점,전북 군산시 수송로 31,나운동,나운동,
3155,분식,고봉민김밥인차병원점,전북 군산시 수송로 3,나운동,나운동,
3153,술집,청담동말자싸롱,전북 군산시 수송로 28,나운동,나운동,
3152,유흥시설,버터플라이,전북 군산시 수송로 27,나운동,나운동,063-465-1223
3151,술집,로얄자카르타(나운점),전북 군산시 수송로 25,나운동,나운동,
3150,술집,쿠담,전북 군산시 수송로 25,나운동,나운동,
3149,한식,동백집,전북 군산시 수송로 24,나운동,나운동,063-731-0303
3148,술집,인하쿠나마타타,전북 군산시 수송로 24,나운동,나운동,063-463-1369
3146,술집,포차어게인,전북 군산시 수송로 23,나운동,나운동,
3144,술집,더칸,전북 군산시 수송로 22-1,나운동,나운동,
3143,중식,진미양꼬치,전북 군산시 수송로 22-1,나운동,나운동,063-464-5887
3142,한식,모토이시,전북 군산시 수송로 22,나운동,나운동,
3141,한식,미친고기 나운점,전북 군산시 수송로 22,나운동,나운동,
3140,한식,꽃돼지삼겹살,전북 군산시 수송로 21-1,나운동,나운동,
3139,한식,친구,전북 군산시 수송로 21-1,나운동,나운동,
3138,술집,전일맥주 군산나운점,전북 군산시 수송로 21,나운동,나운동,
3137,한식,왕고래족발,전북 군산시 수송로 21,나운동,나운동,063-466-4336
3135,술집,세월촌,전북 군산시 수송로 20,나운동,나운동,063-462-0606
3134,술집,다사랑치킨피자호프나운점,전북 군산시 수송로 19,나운동,나운동,063-465-9944
3132,한식,장미맨숀(나운점),전북 군산시 수송로 17,나운동,나운동,
3131,술집,낚GO먹GO,전북 군산시 수송로 17,나운동,나운동,
3129,한식,쪽찌나운점,전북 군산시 수송로 16,나운동,나운동,
3127,한식,정쉐프 덤앤덤,전북 군산시 수송로 16,나운동,나운동,
3123,간식,파리바게뜨군산수송오투점,전북 군산시 수송로 137,나운동,나운동,063-461-0455
3117,양식,쉐프테라스,전북 군산시 수송로 135,나운동,나운동,063-910-1055
3111,술집,삼이,전북 군산시 수송로 13,나운동,나운동,
3110,술집,포장맛차,전북 군산시 수송로 13,나운동,나운동,063-461-7799
3104,한식,원조부안집 군산수송로점,전북 군산시 수송로 119,나운동,나운동,063-466-7782
3103,치킨,시골통닭,전북 군산시 수송로 119,나운동,나운동,063-468-8292
3096,간식,파운데이군산나운점,전북 군산시 수송로 10,나운동,나운동,
3091,일식,THE담다,전북 군산시 소룡안3길 19,나운동,나운동,063-466-7458
3089,카페,꿈꾸는마카롱,전북 군산시 설림3길 35,나운동,나운동,
3088,한식,전설의스테이크갈비군산본점,전북 군산시 서수송안2길 9,나운동,나운동,063-466-8866
3087,술집,어울림가맥,전북 군산시 서수송안2길 8,나운동,나운동,
3086,간식,셰프의선물베이커리,전북 군산시 서수송안2길 8,나운동,나운동,063-467-5524
3085,한식,술도가,전북 군산시 서수송안2길 7,나운동,나운동,
3084,한식,은성복집,전북 군산시 서수송안2길 5,나운동,나운동,
3083,카페,웅스커피,전북 군산시 서수송안2길 28,나운동,나운동,063-468-4024
3081,양식,피자에땅,전북 군산시 서수송안2길 19-3,나운동,나운동,
3075,식품판매,튼튼맘마,전북 군산시 서수송안2길 10,나운동,나운동,063-462-1242
3074,중식,친친객잔,전북 군산시 서수송안1길 7,나운동,나운동,
3073,음식점,잔칫집,전북 군산시 서수송안1길 5,나운동,나운동,
3072,한식,동네파전,전북 군산시 서수송안1길 3,나운동,나운동,063-464-8287
3071,식품판매,성연푸드,전북 군산시 서수송안1길 19-5,나운동,나운동,063-471-8898
3070,한식,왕새우한마당,전북 군산시 서수송안1길 19-4,나운동,나운동,
3068,한식,원조팥칼국수,전북 군산시 서수송안1길 15-6,나운동,나운동,
3066,한식,돗대골뱅이,전북 군산시 서수송안1길 15-4,나운동,나운동,
3064,한식,막창일번지,전북 군산시 서수송안1길 15-3,나운동,나운동,063-465-9501
3063,양식,그라운드 플로어,전북 군산시 서수송안1길 15-1,나운동,나운동,
3062,식품,참새방앗간,전북 군산시 서수송안1길 15,나운동,나운동,063-468-3445
3061,간식,와플칸(군산점),전북 군산시 서수송안1길 12-1,나운동,나운동,
3055,양식,한스델리,전북 군산시 서수송안1길 10,나운동,나운동,063-445-5215
3053,분식,김밥천국 수송점,전북 군산시 서수송안1길 1,나운동,나운동,063-468-6188
3051,한식,연화구,전북 군산시 서수송길 9,나운동,나운동,063-471-8895
3050,한식,갈비명절,전북 군산시 서수송길 17,나운동,나운동,
3049,한식,선현대솥뚜껑갈비,전북 군산시 서수송길 17,나운동,나운동,063-465-9906
3046,양식,피자플래넷,전북 군산시 서수송2길 40,나운동,나운동,063-912-9111
3045,술집,일도씨맥주 나운신도시점,전북 군산시 서수송2길 40,나운동,나운동,063-462-8700
3044,양식,청년피자 군산점,전북 군산시 서수송2길 38,나운동,나운동,
3038,술집,가맥생활,전북 군산시 서수송2길 32,나운동,나운동,
3035,식품판매,원빈니치커피하우스,전북 군산시 서수송2길 20,나운동,나운동,063-911-6768
3033,치킨,비비큐 나운점,전북 군산시 서수송2길 19,나운동,나운동,063-465-9288
3030,술집,삼백삼호(303호),전북 군산시 서수송2길 18,나운동,나운동,063-466-1303
3029,한식,완스푸드,전북 군산시 서수송2길 18,나운동,나운동,
3025,한식,일품대패,전북 군산시 서수송1길 9,나운동,나운동,063-466-3948
3022,한식,달려라닭발,전북 군산시 서수송1길 8-4,나운동,나운동,063-467-9882
3020,치킨,조선치킨 나운점,전북 군산시 서수송1길 8-4,나운동,나운동,
3018,양식,프레드피자 군산점,전북 군산시 서수송1길 8-3,나운동,나운동,
3017,한식,식구,전북 군산시 서수송1길 8-1,나운동,나운동,063-468-3592
3015,한식,행복한집,전북 군산시 서수송1길 47,나운동,나운동,063-467-6565
3013,치킨,피자나라치킨공주(나운점),전북 군산시 서수송1길 39,나운동,나운동,063-465-8663
3012,한식,9292뒷고기,전북 군산시 서수송1길 35,나운동,나운동,063-442-9295
3009,한식,영산포,전북 군산시 서수송1길 24,나운동,나운동,063-462-3377
3008,패스트푸드,㈜한일알이에스 롯데리아,전북 군산시 서수송1길 2,나운동,나운동,
3006,카페,아우어인어스,전북 군산시 서수송1길 18-3,나운동,나운동,
3005,한식,육번지,전북 군산시 서수송1길 16,나운동,나운동,063-471-8668
3004,카페,하루쿠키,전북 군산시 서수송1길 14-5,나운동,나운동,
3002,술집,술술포차,전북 군산시 서수송1길 14-2,나운동,나운동,
3000,일식,대양참치,전북 군산시 서수송1길 12-3,나운동,나운동,
2999,한식,일월부대찌개,전북 군산시 서수송1길 12-1,나운동,나운동,063-468-9643
2996,한식,명가돌판삼겹살,전북 군산시 상신안길 9,나운동,나운동,
2991,카페,디저트풍경,전북 군산시 상신안길 43,나운동,나운동,
2987,한식,돼지부엌,전북 군산시 상신안길 40,나운동,나운동,063-471-5551
2984,한식,도토리와수제비,전북 군산시 상신안길 34,나운동,나운동,063-911-8318
2983,음식점,주공순대나운점,전북 군산시 상신안길 34,나운동,나운동,063-461-8880
2982,한식,빨강스타킹,전북 군산시 상신안길 34,나운동,나운동,
2981,카페,카페 에코인 스토어,전북 군산시 상신안길 32,나운동,나운동,
2977,분식,깐따삐야분식,전북 군산시 상신안길 30-1,나운동,나운동,
2972,한식,향토감자탕,전북 군산시 상신5길 8,나운동,나운동,063-468-8233
2971,한식,청기와집,전북 군산시 상신5길 5-6,나운동,나운동,
2970,한식,지리산 갈비마을,전북 군산시 상신5길 5,나운동,나운동,063-468-5542
2962,카페,카페 봄봄,전북 군산시 상신3길 23,나운동,나운동,063-468-2674
2957,식품판매,세일푸드,전북 군산시 상신3길 12,나운동,나운동,
2952,카페,카페디아크(CAFE THEARK),전북 군산시 상신2길 17,나운동,나운동,
2949,중식,영빈각,전북 군산시 상신1길 7,나운동,나운동,
2940,한식,한마당순대,전북 군산시 상나운안길 13,나운동,나운동,063-466-8558
2936,치킨,처갓집양념치킨,전북 군산시 상나운로 86,나운동,나운동,063-466-7666
2933,한식,꼭지네연탄구이,전북 군산시 상나운로 8,나운동,나운동,063-467-8534
2931,간식,빵굽는 나라,전북 군산시 상나운로 79,나운동,나운동,
2930,패스트푸드,보라빛차,전북 군산시 상나운로 79,나운동,나운동,
2925,한식,털보 원조감자탕,전북 군산시 상나운로 14,나운동,나운동,063-465-0010
2922,치킨,꼬끼오치킨,전북 군산시 상나운로 14,나운동,나운동,
2920,한식,수정식당,전북 군산시 상나운로 12,나운동,나운동,063-471-0606
2918,한식,열정국밥,전북 군산시 상나운로 118,나운동,나운동,
2913,한식,군산시함흥냉면,전북 군산시 상나운길 11,나운동,나운동,063-462-6686
2912,카페,음미당,전북 군산시 상나운3길 42,나운동,나운동,063-467-0650
2911,한식,옥천왕족발,전북 군산시 상나운3길 35,나운동,나운동,063-465-0033
2910,한식,황산산오리,전북 군산시 상나운3길 29-4,나운동,나운동,063-471-5285
2909,한식,현대옥 상나운점,전북 군산시 상나운3길 29-3,나운동,나운동,063-467-5689
2906,한식,옹기마을손칼국수,전북 군산시 상나운3길 12,나운동,나운동,063-462-8786
2897,분식,마루분식,전북 군산시 상나운1길 15,나운동,나운동,063-465-3278
2896,한식,나운동구공탄,전북 군산시 상나운1길 15,나운동,나운동,063-467-8234
2894,한식,유푸드(돈이도니),전북 군산시 상나운1길 15,나운동,나운동,063-465-9891
2891,한식,사계절꽃게,전북 군산시 부원로 8,나운동,나운동,063-463-2239
2888,술집,고래포차,전북 군산시 부원로 22,나운동,나운동,
2887,중식,뽕의신화 짬뽕,전북 군산시 부원로 21,나운동,나운동,063-463-1745
2886,한식,음식마당,전북 군산시 부원로 21,나운동,나운동,
2884,한식,예림옥,전북 군산시 부원로 16,나운동,나운동,063-462-4309
2883,한식,신선식당,전북 군산시 부원로 15-1,나운동,나운동,063-461-7579
2882,술집,그랑프리,전북 군산시 부원로 15,나운동,나운동,063-466-4667
2881,분식,떡볶이참잘하는집 군산나운점,전북 군산시 부원로 12-1,나운동,나운동,
2880,술집,더한잔,전북 군산시 부원로 12-1,나운동,나운동,
2878,음식점,두부반장,전북 군산시 부곡로 6,나운동,나운동,063-732-3377
2874,중식,짬뽕일번지,전북 군산시 부곡5길 18,나운동,나운동,063-468-9444
2872,한식,양푼왕갈비감자탕나라,전북 군산시 부곡4길 4,나운동,나운동,063-471-7960
2871,한식,전주백반,전북 군산시 부곡4길 28,나운동,나운동,063-471-0958
2870,일식,참치본가,전북 군산시 부곡4길 26-5,나운동,나운동,
2869,한식,하얀섬,전북 군산시 부곡4길 26-5,나운동,나운동,
2866,한식,민선초가설렁탕,전북 군산시 부곡4길 12-2,나운동,나운동,063-465-8884
2865,한식,미성식당,전북 군산시 부곡3길 20,나운동,나운동,063-466-7853
2861,식품판매,집밥이 그리울때,전북 군산시 부곡2길 10,나운동,나운동,
2858,카페,심도카페(simdo cafe),전북 군산시 부곡1길 44,나운동,나운동,063-467-4425
2857,술집,한잔어때,전북 군산시 부곡1길 42,나운동,나운동,
2854,한식,조개구이해녀대합실,전북 군산시 부곡1길 74,나운동,나운동,063-471-3096
2853,한식,해오름회집,전북 군산시 부곡1길 7,나운동,나운동,063-464-0880
2852,일식,군산일식,전북 군산시 부곡1길 7,나운동,나운동,063-468-8100
2850,한식,인천행,전북 군산시 부곡1길 60,나운동,나운동,063-463-0450
2848,카페,서일한방찻집,전북 군산시 부곡1길 5,나운동,나운동,063-465-9948
2847,술집,롤링스톤,전북 군산시 부곡1길 49,나운동,나운동,
2846,술집,달빛연가,전북 군산시 부곡1길 49,나운동,나운동,
2845,한식,오원집,전북 군산시 부곡1길 48,나운동,나운동,
2844,술집,해와달,전북 군산시 부곡1길 44,나운동,나운동,
2843,술집,밴드 호프,전북 군산시 부곡1길 44,나운동,나운동,
2842,술집,투다리나운점,전북 군산시 부곡1길 42,나운동,나운동,063-465-7713
2841,한식,이모네연탄구이,전북 군산시 부곡1길 42,나운동,나운동,063-461-5207
2831,치킨,굽네치킨 나운2호점,전북 군산시 부곡1길 39,나운동,나운동,063-465-9492
2830,치킨,호호야,전북 군산시 부곡1길 38,나운동,나운동,
2829,카페,코뿔소,전북 군산시 부곡1길 38,나운동,나운동,
2828,한식,압구정양푼갈비,전북 군산시 부곡1길 21,나운동,나운동,063-466-4487
2827,한식,비행장매운탕,전북 군산시 부곡1길 20,나운동,나운동,063-461-6409
2826,한식,홍대횟집,전북 군산시 부곡1길 20,나운동,나운동,
2825,한식,이모네연탄구이,전북 군산시 부곡1길 19,나운동,나운동,
2824,한식,신자네연탄구이,전북 군산시 부곡1길 17,나운동,나운동,063-466-7770
2822,한식,깜돌 흑돼지,전북 군산시 백토로 331-13,나운동,나운동,063-468-3392
2821,한식,한소끔,전북 군산시 백토로 284-8,나운동,나운동,
2820,한식,백두개가든,전북 군산시 백토로 284-37,나운동,나운동,063-462-8957
2819,한식,백두게,전북 군산시 백토로 284-37,나운동,나운동,063-471-0203
2818,한식,두메골,전북 군산시 백토로 284-20,나운동,나운동,063-461-0611
2817,양식,화덕쟁이,전북 군산시 백토로 284-11,나운동,나운동,063-464-1400
2815,카페,㈜ 카페리즈 (Cafeliz),전북 군산시 백토로 261,나운동,나운동,063-466-7689
2814,음식점,술을담다,전북 군산시 백토로 253,나운동,나운동,063-465-0222
2813,치킨,신이내린닭(지곡호수점),전북 군산시 백토로 253,나운동,나운동,
2812,카페,투썸플레이스 군산지곡호수공원점,전북 군산시 백토로 253,나운동,나운동,063-463-8700
2808,패스트푸드,청춘핫도그,전북 군산시 백토로 244,나운동,나운동,063-464-7030
2795,카페,커피나무,전북 군산시 백토로 198,나운동,나운동,063-466-2142
2792,분식,신창떡볶이 군산시나운점,전북 군산시 백토로 198,나운동,나운동,063-464-5377
2791,카페,카페로컬,전북 군산시 백토로 192,나운동,나운동,
2781,치킨,장수통닭 나운점,전북 군산시 백토로 144,나운동,나운동,063-465-9595
2780,간식,비건베이커리이담,전북 군산시 백토로 144,나운동,나운동,
2776,간식,가마로강정 군산점,전북 군산시 백토로 142,나운동,나운동,063-466-5914
2768,간식,케익이모,전북 군산시 백토로 128,나운동,나운동,
2764,치킨,푸다닭,전북 군산시 백토로 120,나운동,나운동,063-465-7712
2752,분식,오늘의 분식,전북 군산시 백토로 116,나운동,나운동,063-471-9003
2739,카페,셀렉토커피 군산나운점,전북 군산시 백토로 114,나운동,나운동,063-461-5211
2735,간식,본빠네,전북 군산시 백토로 113,나운동,나운동,063-467-0045
2733,분식,감탄,전북 군산시 백토로 113,나운동,나운동,063-466-3055
2731,카페,메가엠지씨커피 군산나운점,전북 군산시 백토로 110,나운동,나운동,
2725,한식,유쾌한돈 미장직영점,전북 군산시 미장안7길 6,나운동,나운동,
2724,카페,더리터 군산대점,전북 군산시 미룡로 28,나운동,나운동,
2723,한식,추억의연탄갈비2호점,전북 군산시 문화안길 4,나운동,나운동,
2722,한식,바다회집현대코아점,전북 군산시 문화안길 11,나운동,나운동,063-466-1197
2721,카페,에클레시아,전북 군산시 문화안길 10,나운동,나운동,063-468-6217
2717,치킨,하바드치킨,전북 군산시 문화로 36,나운동,나운동,063-461-7509
2714,간식,케익하우스 노엘,전북 군산시 문화로 36,나운동,나운동,063-466-6031
2708,한식,자매순대,전북 군산시 동신영길 9,나운동,나운동,
2707,카페,커피담다,전북 군산시 대학로 250,나운동,나운동,
2705,한식,황금코다리 나운점,전북 군산시 대학로 432,나운동,나운동,063-471-9988
2700,한식,동이트는집,전북 군산시 대학로 416,나운동,나운동,063-462-9234
2696,일식,다래횟집,전북 군산시 대학로 394,나운동,나운동,063-464-7875
2695,한식,탄탄대로,전북 군산시 대학로 392,나운동,나운동,063-445-2120
2687,한식,군산칼국수냉면,전북 군산시 대학로 370,나운동,나운동,063-468-5109
2686,한식,군산아구세상,전북 군산시 대학로 368,나운동,나운동,063-466-6234
2685,음식점,카페온(cafe on),전북 군산시 대학로 368,나운동,나운동,
2684,치킨,디디치킨,전북 군산시 대학로 367,나운동,나운동,063-468-8209
2677,패스트푸드,버거킹 군산나운FS점,전북 군산시 대학로 362,나운동,나운동,
2649,분식,소풍김밥,전북 군산시 대학로 322,나운동,나운동,
2648,중식,나요마라탕,전북 군산시 대학로 322,나운동,나운동,
2647,아시아음식,미스사이공,전북 군산시 대학로 322,나운동,나운동,063-468-0420
2645,카페,컴포즈커피 군산문화원점,전북 군산시 대학로 321,나운동,나운동,063-465-3334
2643,카페,엠오비(M.O.B),전북 군산시 대학로 321,나운동,나운동,063-461-2290
2631,카페,이디야커피군산시민문화회관점,전북 군산시 대학로 316,나운동,나운동,
2630,치킨,굽네치킨나운점,전북 군산시 대학로 316,나운동,나운동,063-468-9481
2628,간식,이삭토스트,전북 군산시 대학로 316,나운동,나운동,063-463-1963
2625,간식,파리바게트(제일점),전북 군산시 대학로 316,나운동,나운동,063-467-4732
2611,한식,왔따쪽갈비,전북 군산시 대학로 303,나운동,나운동,063-466-9696
2585,한식,만빵,전북 군산시 대학로 290,나운동,나운동,
2583,분식,정성김밥,전북 군산시 대학로 290,나운동,나운동,063-466-3866
2545,카페,전북군산한마음지역자활센터,전북 군산시 대학로 248,나운동,나운동,063-446-4124
2536,간식,파리바게뜨 군산시 보람점,전북 군산시 대학로 243,나운동,나운동,063-464-8203
2533,분식,참새방앗간분식,전북 군산시 대학로 237,나운동,나운동,063-462-9633
2526,양식,뽕뜨락피자 나운점,전북 군산시 대학로 233,나운동,나운동,063-468-1082
2511,카페,늘해랑,전북 군산시 나운우회로 91,나운동,나운동,
2505,한식,초가집가든,전북 군산시 나운우회로 131,나운동,나운동,063-462-4001
2503,한식,영희네 팥칼국수,전북 군산시 나운안길 8,나운동,나운동,063-465-1122
2491,치킨,순돌이네통닭집,전북 군산시 나운안길 36,나운동,나운동,
2483,치킨,자담치킨 나운점,전북 군산시 나운안길 34,나운동,나운동,
2482,간식,더팡,전북 군산시 나운안길 34,나운동,나운동,063-466-7100
2481,한식,고깃집(소·돼지),전북 군산시 나운안길 34,나운동,나운동,
2480,일식,스시고,전북 군산시 나운안길 34,나운동,나운동,
2479,중식,가향마라탕&훠궈,전북 군산시 나운안길 34,나운동,나운동,
2478,간식,슈가걸,전북 군산시 나운안길 34,나운동,나운동,063-466-9100
2477,분식,배떡 나운점,전북 군산시 나운안길 34,나운동,나운동,063-471-7857
2476,치킨,bhc치킨 군산시나운2호점,전북 군산시 나운안길 34,나운동,나운동,063-462-3592
2475,한식,콩불,전북 군산시 나운안길 34,나운동,나운동,063-464-5309
2469,한식,케이와이(KY)푸드,전북 군산시 나운안길 27,나운동,나운동,
2468,카페,요마이거트,전북 군산시 나운안길 27,나운동,나운동,
2467,중식,대성각,전북 군산시 나운안길 27,나운동,나운동,
2465,카페,카페라봉,전북 군산시 나운안길 27,나운동,나운동,
2462,한식,강천국밥,전북 군산시 나운안길 27,나운동,나운동,
2461,치킨,솜리치킨,전북 군산시 나운안길 27,나운동,나운동,063-466-1266
2456,일식,오롯이통닭,전북 군산시 나운안길 27,나운동,나운동,063-463-8592
2455,한식,강천연탄구이,전북 군산시 나운안길 27,나운동,나운동,063-467-1599
2453,한식,옛맛김치찌개,전북 군산시 나운안길 27,나운동,나운동,063-467-0567
2447,중식,사천성,전북 군산시 나운안길 27,나운동,나운동,063-465-2001
2446,한식,만나식당,전북 군산시 나운안길 27,나운동,나운동,063-466-8040
2443,한식,밥짓는 카페,전북 군산시 나운안3길 8,나운동,나운동,063-466-8373
2442,술집,백스비어군산나운점,전북 군산시 나운안3길 6-3,나운동,나운동,
2441,한식,태산실내마차,전북 군산시 나운안3길 6,나운동,나운동,063-461-1002
2440,음식점,현대삼겹살,전북 군산시 나운안3길 5,나운동,나운동,063-462-2589
2439,한식,다사식당,전북 군산시 나운안3길 5,나운동,나운동,
2437,술집,투다리코아점,전북 군산시 나운안3길 11,나운동,나운동,
2436,한식,피엠푸드군산점,전북 군산시 나운안3길 11,나운동,나운동,
2435,한식,(유)푸드플러스,전북 군산시 나운안3길 11,나운동,나운동,063-465-6442
2434,술집,피플,전북 군산시 나운안3길 11,나운동,나운동,063-463-7977
2432,간식,나드리떡본가,전북 군산시 나운안3길 10-5,나운동,나운동,063-462-0074
2427,한식,정석통바베큐족구이,전북 군산시 나운안3길 10,나운동,나운동,063-445-9005
2425,술집,왕대박,전북 군산시 나운안2길 9-6,나운동,나운동,063-465-9989
2422,식품판매,보라889 수산,전북 군산시 나운안2길 9-5,나운동,나운동,
2417,중식,금문,전북 군산시 나운안2길 9-4,나운동,나운동,063-468-3355
2416,술집,메인소주방,전북 군산시 나운안2길 9-3,나운동,나운동,
2409,술집,고래호프,전북 군산시 나운안2길 7,나운동,나운동,063-461-3372
2408,분식,장보고,전북 군산시 나운안2길 7,나운동,나운동,
2407,한식,우정명태 2호점,전북 군산시 나운안2길 7,나운동,나운동,063-464-2490
2404,한식,미담,전북 군산시 나운안2길 5-4,나운동,나운동,063-462-2266
2400,식품판매,맛있는반찬,전북 군산시 나운안2길 5,나운동,나운동,063-426-7720
2398,술집,얌얌,전북 군산시 나운안2길 5,나운동,나운동,063-445-4063
2393,치킨,네네치킨 나운2호점,전북 군산시 나운안2길 11,나운동,나운동,063-466-4479
2387,식품,대덕떡방앗간,전북 군산시 나운안2길 1,나운동,나운동,063-465-5912
2384,한식,신신불닭발,전북 군산시 나운안1길 7,나운동,나운동,063-464-5801
2383,치킨,멕시카나치킨 나운점,전북 군산시 나운안1길 9-5,나운동,나운동,
2382,양식,송범준식당,전북 군산시 나운안1길 9-5,나운동,나운동,
2380,한식,하얀돌,전북 군산시 나운안1길 9-3,나운동,나운동,
2376,술집,한남동그집 군산나운점,전북 군산시 나운안1길 7,나운동,나운동,
2375,술집,79대포 군산나운점,전북 군산시 나운안1길 7,나운동,나운동,
2374,술집,해바라기,전북 군산시 나운안1길 7,나운동,나운동,
2371,치킨,바른치킨 군산나운점,전북 군산시 나운안1길 7,나운동,나운동,063-467-9942
2370,술집,꼬치구이 변사또,전북 군산시 나운안1길 7,나운동,나운동,063-467-9237
2366,일식,유생촌,전북 군산시 나운안1길 36,나운동,나운동,
2365,카페,밀카페(MIL cafe),전북 군산시 나운안1길 35,나운동,나운동,063-732-2222
2360,일식,고군산활아나고구이,전북 군산시 나운안1길 32-5,나운동,나운동,
2359,카페,카페(cafe)요즈음,전북 군산시 나운안1길 32-3,나운동,나운동,
2358,한식,서해식당,전북 군산시 나운안1길 32-27,나운동,나운동,
2347,한식,88콩나물국밥,전북 군산시 나운안1길 23,나운동,나운동,063-464-1616
2346,한식,공주네,전북 군산시 나운안1길 23,나운동,나운동,063-466-8188
2339,카페,아리스타 커피점,전북 군산시 나운안1길 19,나운동,나운동,063-471-2233
2327,간식,황금빛 떡방,전북 군산시 나운안1길 17,나운동,나운동,
2325,카페,투썸플레이스 군산나운점,전북 군산시 나운안1길 1,나운동,나운동,063-461-0096
2324,일식,돈부리야,전북 군산시 나운안1길 9-5,나운동,나운동,
2323,카페,쉴만한물가,전북 군산시 나운로 18,나운동,나운동,
2322,술집,운수대통,전북 군산시 나운로 99,나운동,나운동,
2319,한식,어부가횟집,전북 군산시 나운로 97,나운동,나운동,063-462-2192
2317,카페,우리끼리,전북 군산시 나운로 95,나운동,나운동,063-468-6686
2316,샤브샤브,채선당,전북 군산시 나운로 93,나운동,나운동,
2315,한식,명품장어랑돼지랑,전북 군산시 나운로 91,나운동,나운동,
2314,한식,가장맛있는미니족,전북 군산시 나운로 91,나운동,나운동,
2310,치킨,교촌치킨 나운1호점,전북 군산시 나운로 82,나운동,나운동,063-468-5545
2304,치킨,후라이드참잘하는집,전북 군산시 나운로 77,나운동,나운동,
2303,치킨,후라이드 참 잘하는 집,전북 군산시 나운로 77,나운동,나운동,
2302,분식,신짱,전북 군산시 나운로 73,나운동,나운동,
2301,중식,중화요리 효문,전북 군산시 나운로 73,나운동,나운동,
2300,식품판매,신화푸드,전북 군산시 나운로 73,나운동,나운동,063-446-1555
2299,한식,광스타우럭이,전북 군산시 나운로 73,나운동,나운동,063-466-9492
2298,한식,신바람숯불고기,전북 군산시 나운로 73,나운동,나운동,
2297,한식,매화촌(킴스플라워),전북 군산시 나운로 73,나운동,나운동,063-465-0400
2289,한식,가장맛있는 족발 군산나운점,전북 군산시 나운로 69,나운동,나운동,063-468-5849
2288,술집,어여와,전북 군산시 나운로 69,나운동,나운동,063-466-2054
2286,술집,카스톡스,전북 군산시 나운로 67,나운동,나운동,
2284,양식,지정환임실치즈피자,전북 군산시 나운로 67,나운동,나운동,063-466-2119
2281,카페,띵(Thing),전북 군산시 나운로 66,나운동,나운동,
2279,카페,댕리단커피군산점,전북 군산시 나운로 66,나운동,나운동,
2278,카페,메가엠지씨커피 군산나운동백점,전북 군산시 나운로 66,나운동,나운동,
2277,한식,장파전,전북 군산시 나운로 66,나운동,나운동,
2267,술집,즐겨찾기,전북 군산시 나운로 61,나운동,나운동,
2262,분식,찐분식,전북 군산시 나운로 58,나운동,나운동,
2260,치킨,푸라닭 군산나운점,전북 군산시 나운로 56,나운동,나운동,063-466-9207
2258,한식,봉달,전북 군산시 나운로 54,나운동,나운동,
2257,치킨,충만치킨,전북 군산시 나운로 54,나운동,나운동,063-452-0011
2249,분식,또와김밥,전북 군산시 나운로 46,나운동,나운동,
2247,술집,약수터,전북 군산시 나운로 43,나운동,나운동,
2245,한식,더큰두마리치킨&피자,전북 군산시 나운로 43,나운동,나운동,
2244,양식,59쌀피자 나운현대점,전북 군산시 나운로 43,나운동,나운동,063-463-5977
2235,간식,리.베이커리,전북 군산시 나운로 40,나운동,나운동,063-468-0444
2231,한식,대가풍천장어,전북 군산시 나운로 28,나운동,나운동,063-452-4900
2228,한식,배달삼겹돼지되지 군산1호점,전북 군산시 나운로 24,나운동,나운동,063-465-8592
2224,한식,은파꼬기냉면,전북 군산시 나운로 170,나운동,나운동,
2223,술집,더꼬치다,전북 군산시 나운로 16,나운동,나운동,
2212,카페,차타타군산시점,전북 군산시 나운로 13,나운동,나운동,063-467-0920
2201,한식,홍가네 꽃삼겹,전북 군산시 나운로 1,나운동,나운동,
2181,한식,일번지장어,전북 군산시 부곡5길 18,나운동,나운동,063-466-0814
2179,한식,조여사백반,전북 군산시 부곡4길 26-5,나운동,나운동,063-468-3973
2173,한식,또또생곱창,전북 군산시 하나운안2길 15-4,나운동,나운동,063-468-5250
2172,한식,옛고을민속집,전북 군산시 하나운안1길 16,나운동,나운동,
2165,한식,원곱창,전북 군산시 하신1길 12-2,나운동,나운동,063-463-5293
2164,한식,한우네소곱창,전북 군산시 하신1길 12-2,나운동,나운동,063-465-3545
2148,치킨,이삼치킨,전북 군산시 하나운로 122,나운동,나운동,063-468-2355
2147,식품판매,시골반찬,전북 군산시 나운안3길 10-4,나운동,나운동,063-464-7149
2144,분식,중동호떡,전북 군산시 나운안2길 5-5,나운동,나운동,063-462-7773
2140,한식,서우식당,전북 군산시 백토로 118,나운동,나운동,063-465-7322
2138,한식,새천년 유황오리,전북 군산시 나운안2길 7,나운동,나운동,063-465-9766
2134,간식,뚜레쥬르군산나운점,전북 군산시 수송로 48,나운동,나운동,063-468-8288
2130,분식,탱탱만두,전북 군산시 백토로 111,나운동,나운동,
2125,한식,목살집,전북 군산시 나운3길 4-3,나운동,나운동,
2124,한식,목살집나운분점,전북 군산시 나운3길 4-4,나운동,나운동,063-463-0826
2122,한식,금강산추어탕,전북 군산시 나운4길 19,나운동,나운동,
2119,간식,쉘브르제과점,전북 군산시 하나운로 43,나운동,나운동,063-466-0455
2115,한식,가림뚝배기,전북 군산시 나운5길 12,나운동,나운동,063-468-8988
2112,카페,엔제리너스 은파유원지점,전북 군산시 백토로 284-35,나운동,나운동,063-467-1199
2111,한식,낚시터매운탕,전북 군산시 백토로 284-39,나운동,나운동,063-462-1456
2110,한식,산정,전북 군산시 백토로 284-16,나운동,나운동,063-462-7932
2109,한식,뽕나무집,전북 군산시 백토로 284-22,나운동,나운동,063-463-8407
2103,간식,정읍떡집,전북 군산시 의료원로 159,나운동,나운동,063-467-7447
2088,한식,해송,전북 군산시 서수송1길 12-5,나운동,나운동,063-466-0947
2079,일식,오죽,전북 군산시 한밭로 17,나운동,나운동,063-464-5625
2078,음식점,해녀,전북 군산시 한밭2길 25,나운동,나운동,063-442-7800
2077,일식,마코토회전초밥,전북 군산시 백토로 198,나운동,나운동,063-468-8879
2075,일식,이찌돈,전북 군산시 하나운로 38,나운동,나운동,063-462-0989
2065,한식,고래면옥,전북 군산시 나운5길 8,나운동,나운동,063-468-1616
2064,한식,산마루,전북 군산시 나운5길 63-2,나운동,나운동,063-463-2311
2063,한식,현대회집,전북 군산시 나운5길 48,나운동,나운동,063-462-6042
2062,한식,청송회집,전북 군산시 나운5길 46-1,나운동,나운동,
2061,중식,짜장면집,전북 군산시 나운5길 46-1,나운동,나운동,063-471-1238
2058,한식,장수식당,전북 군산시 나운5길 46,나운동,나운동,063-467-0336
2057,카페,바이킹,전북 군산시 나운5길 44,나운동,나운동,
2056,한식,곱창고(나운점),전북 군산시 나운5길 44,나운동,나운동,063-465-9772
2055,한식,제주돈대감,전북 군산시 나운5길 42,나운동,나운동,063-463-1233
2054,한식,가정팥칼국수,전북 군산시 나운5길 40,나운동,나운동,
2053,한식,도마,전북 군산시 나운5길 16,나운동,나운동,
2051,한식,올미,전북 군산시 나운5길 14,나운동,나운동,
2050,한식,콩깍지 콩나물국밥,전북 군산시 나운4길 9,나운동,나운동,063-465-9292
2049,중식,일미짜장,전북 군산시 나운4길 7-8,나운동,나운동,
2047,샤브샤브,등촌칼국수 군산점,전북 군산시 나운4길 7-5,나운동,나운동,063-471-4471
2046,한식,원조나포순대,전북 군산시 나운4길 7-3,나운동,나운동,
2039,한식,구담회집,전북 군산시 나운4길 29-4,나운동,나운동,063-466-7190
2037,한식,전주감자탕,전북 군산시 나운4길 17,나운동,나운동,
2036,카페,나운카페,전북 군산시 나운4길 11,나운동,나운동,
2030,한식,병천순대,전북 군산시 나운3길 8,나운동,나운동,063-468-2959
2028,한식,용궁회집,전북 군산시 나운3길 22,나운동,나운동,063-464-5571
2027,술집,민들레향기,전북 군산시 나운3길 20,나운동,나운동,
2026,카페,카페프레이,전북 군산시 나운3길 20,나운동,나운동,
2025,한식,메주네 민물매운탕,전북 군산시 나운3길 2,나운동,나운동,063-471-4349
2024,한식,미락도,전북 군산시 나운3길 17,나운동,나운동,
2022,한식,아스텔라,전북 군산시 나운2길 38,나운동,나운동,063-467-5043
2019,양식,덤덤피자군산점,전북 군산시 나운2길 58,나운동,나운동,063-462-2294
2015,카페,엠에스씨,전북 군산시 나운2길 50,나운동,나운동,
2011,분식,불닭발땡초동대문엽기떡볶이 나운점,전북 군산시 나운2길 42,나운동,나운동,
2008,카페,기억나눔커피,전북 군산시 나운2길 42,나운동,나운동,063-465-7455
2007,양식,꿉자,전북 군산시 나운2길 42,나운동,나운동,
2006,카페,올리브,전북 군산시 나운2길 38,나운동,나운동,
2005,한식,군산갈비,전북 군산시 나운2길 38,나운동,나운동,063-467-7208
2001,양식,길거리야,전북 군산시 나운2길 34,나운동,나운동,063-461-3400
2000,한식,명촌,전북 군산시 나운2길 34,나운동,나운동,
1997,카페,요거프레소,전북 군산시 나운2길 34,나운동,나운동,
1996,간식,정가담,전북 군산시 나운2길 32-5,나운동,나운동,
1988,음식점,만원포차,전북 군산시 신설로 9,나운동,나운동,063-463-8222
1980,분식,마들김밥,전북 군산시 나운1길 38-4,나운동,나운동,
1978,간식,떡보의하루나운점,전북 군산시 나운1길 36,나운동,나운동,063-443-0003
1976,한식,일등고기,전북 군산시 나운1길 34,나운동,나운동,063-471-5959
1972,한식,세풍식당,전북 군산시 구암3.1로 220,나운동,나운동,
1970,유흥시설,대박,전북 군산시 구시장로 61,나운동,나운동,
1963,한식,거사리매운탕,전북 군산시 공단대로 476-3,나운동,나운동,
1954,중식,만다린,전북 군산시 공단대로 449,나운동,나운동,063-468-0054
1951,한식,명륜진사갈비 나운점,전북 군산시 공단대로 443,나운동,나운동,
1949,뷔페,마음고기 나운점,전북 군산시 공단대로 441,나운동,나운동,
1948,뷔페,마음고기 나운점,전북 군산시 공단대로 441,나운동,나운동,
1941,한식,국가대패(군산나운점),전북 군산시 공단대로 438,나운동,나운동,
1914,한식,1958김여사,전북 군산시 공단대로 409,나운동,나운동,063-461-3220
1913,한식,고래설렁탕,전북 군산시 공단대로 408,나운동,나운동,063-468-0606
1911,한식,주식회사 윤강씨앤케이,전북 군산시 공단대로 397,나운동,나운동,063-462-4573
1910,한식,일품대패,전북 군산시 공단대로 396,나운동,나운동,063-461-3949
1907,한식,원할머니보쌈(나운점),전북 군산시 공단대로 396,나운동,나운동,063-466-5340
1895,한식,24시전주명가콩나물국밥,전북 군산시 공단대로 387,나운동,나운동,
1881,카페,에이비씨커피(나운점),전북 군산시 공단대로 374,나운동,나운동,
1877,술집,선술끼리,전북 군산시 공단대로 366,나운동,나운동,
1872,한식,돌풍식당,전북 군산시 해망로 158-1,중앙동,금암동,063-446-4059
1866,한식,중앙식당,전북 군산시 해망로 146-27,중앙동,금암동,063-446-0471
1865,한식,유락식당,전북 군산시 해망로 146-25,중앙동,금암동,063-445-6730
1862,카페,메인쿠브루잉,전북 군산시 해망로 146-24,중앙동,금암동,063-445-9979
1861,음식점,드라마틱군산브루잉,전북 군산시 해망로 146-24,중앙동,금암동,
1860,한식,유한회사 지쓰리,전북 군산시 해망로 146-24,중앙동,금암동,
1858,한식,해성식당,전북 군산시 해망로 146-17,중앙동,금암동,063-442-5349
1857,카페,오브메르,전북 군산시 해망로 146-15,중앙동,금암동,
1853,카페,리투스카페,전북 군산시 해망로 118,중앙동,금암동,
1845,음식점,바삭치킨호프,전북 군산시 신금길 26,중앙동,금암동,
1831,치킨,비에이치씨치킨대명중앙점,전북 군산시 대명4길 9,중앙동,금암동,
1824,퓨전요리,본죽&비빔밥 군산대명점,전북 군산시 대명4길 9,중앙동,금암동,063-910-6222
1823,간식,타코비 군산점,전북 군산시 대명4길 9,중앙동,금암동,
1822,음식점,통통김밥,전북 군산시 대명4길 9,중앙동,금암동,
1821,술집,까투리대명점,전북 군산시 대명4길 9,중앙동,금암동,
1820,한식,양평해장국 구시장점,전북 군산시 대명4길 9,중앙동,금암동,
1817,한식,선창아구,전북 군산시 동신영길 85,중앙동,금암동,063-442-3123
1815,한식,멧돌방식당,전북 군산시 금암3길 3,중앙동,금암동,063-446-8578
1812,한식,미가도,전북 군산시 강변로 1,중앙동,금암동,
1811,카페,한가로이,전북 군산시 강변로 1,중앙동,금암동,
1804,한식,이리횟집,전북 군산시 내항2길 216,해신동,금동,
1797,카페,차와도자기,전북 군산시 중앙로 235-3,해신동,금동,063-446-0113
1795,카페,포이제,전북 군산시 중앙로 216,해신동,금동,
1790,한식,신선횟집,전북 군산시 도선길 19,해신동,금동,063-446-9117
1783,한식,장군횟집,전북 군산시 내항2길 216,해신동,금동,
1782,한식,광주횟집,전북 군산시 내항2길 216,해신동,금동,
1780,한식,바다매운탕,전북 군산시 내항2길 216,해신동,금동,
1765,한식,충청도 횟집,전북 군산시 내항2길 216,해신동,금동,
1758,한식,경기횟집,전북 군산시 내항2길 216,해신동,금동,063-442-5563
1756,일식,방축도횟집,전북 군산시 내항2길 216,해신동,금동,063-443-4988
1755,한식,어청도횟집,전북 군산시 내항2길 216,해신동,금동,063-442-9558
1754,일식,동대전횟집,전북 군산시 내항2길 216,해신동,금동,063-443-3216
1746,일식,진영남원횟집,전북 군산시 내항2길 216,해신동,금동,
1735,한식,고군산활어,전북 군산시 내항2길 216,해신동,금동,063-445-3118
1686,한식,군산회집,전북 군산시 내항2길 173,해신동,금동,063-442-1114
1685,한식,대전횟집,전북 군산시 내항2길 149,해신동,금동,063-442-9263
1684,한식,백운식당,전북 군산시 내항2길 141,해신동,금동,
1683,한식,벽란도횟집,전북 군산시 내항2길 121,해신동,금동,
1682,중식,쌍용반점,전북 군산시 내항2길 121,해신동,금동,063-445-2633
1679,중식,홍천루,전북 군산시 중앙로 225-3,해신동,금동,063-446-4678
1672,술집,탱크조개&짬뽕,전북 군산시 군산창길 35,해신동,금동,
1667,카페,첼로네시아(Cellonesia),전북 군산시 구영신창길 88,해신동,금동,
1666,양식,버거하우스,전북 군산시 구영1길 69,해신동,금동,063-445-1129
1665,카페,8월의 정원,전북 군산시 구영1길 69,해신동,금동,063-468-9915
1660,한식,다온,전북 군산시 동국사길 16,삼학동,금광동,063-468-8623
1648,한식,전주우족설렁탕,전북 군산시 대학로 88,삼학동,금광동,063-445-9502
1639,건강식품판매,명산건강원,전북 군산시 금광길 28,삼학동,금광동,
1638,카페,일러스트까페,전북 군산시 잠두2길 1,구암동,구암동,
1626,한식,우리식당,전북 군산시 양촌1길 46-1,구암동,구암동,
1625,한식,방실이네양푼갈비,전북 군산시 서당길 8,구암동,구암동,
1620,간식,새만금모싯잎 송편,전북 군산시 서당길 10,구암동,구암동,063-445-5759
1616,도시락,담백도시락,전북 군산시 서당길 9,구암동,구암동,
1615,분식,현대분식,전북 군산시 서당길 9,구암동,구암동,063-445-4847
1613,치킨,현대페리카나통닭,전북 군산시 서당길 9,구암동,구암동,063-443-3396
1612,치킨,아빠통닭,전북 군산시 서당길 8,구암동,구암동,
1611,치킨,60계치킨 구암점,전북 군산시 서당길 4,구암동,구암동,
1607,술집,동아리꼬치전문점,전북 군산시 서당길 26,구암동,구암동,063-446-9792
1606,술집,마실,전북 군산시 서당길 26,구암동,구암동,063-446-9320
1599,한식,맛나는아지트,전북 군산시 서당길 20,구암동,구암동,
1590,한식,장국명가,전북 군산시 새터길 25,구암동,구암동,063-443-3680
1589,한식,샛터,전북 군산시 새터길 13,구암동,구암동,063-446-9991
1583,한식,더갈비구암점,전북 군산시 백릉로 269,구암동,구암동,
1579,한식,다올섬,전북 군산시 백릉로 253,구암동,구암동,063-462-9195
1578,술집,구암포차,전북 군산시 백릉로 234,구암동,구암동,063-451-5014
1574,카페,휴,전북 군산시 백릉로 228,구암동,구암동,063-465-0600
1570,한식,엄마밥상,전북 군산시 내흥1길 5,구암동,구암동,063-461-1175
1569,카페,커피베이 군산구암점,전북 군산시 내흥1길 5,구암동,구암동,
1565,한식,논두렁쌈밥,전북 군산시 구암로 124,구암동,구암동,063-445-3432
1539,한식,구암국밥,전북 군산시 구암3.1로 213,구암동,구암동,
1534,카페,프루브(PROVE),전북 군산시 구암3.1로 322-1,구암동,구암동,063-910-3221
630,한식,서당골우렁쌈밥청국장전문점,전북 군산시 구암3.1로 263,구암동,구암동,063-452-5200
624,술집,광장포차,전북 군산시 구암3.1로 218,구암동,구암동,
623,한식,원조식당,전북 군산시 구암3.1로 215,구암동,구암동,
621,한식,국수집,전북 군산시 구암3.1로 212,구암동,구암동,
620,한식,금강산아나고,전북 군산시 구암3.1로 207,구암동,구암동,063-446-9336
618,간식,자연애베이커리,전북 군산시 구암3.1로 204,구암동,구암동,
614,카페,월드탑컵커피협동조합(미곡창고),전북 군산시 구암3.1로 253,구암동,구암동,063-465-3007
602,한식,원조남원옥,전북 군산시 진포로 160,조촌동,경장동,063-452-0237
599,간식,큰집닭강정,전북 군산시 진포로 142,조촌동,경장동,063-452-4547
597,한식,할매흑염소탕,전북 군산시 진포로 139,조촌동,경장동,
595,한식,청기와아구,전북 군산시 진포로 133,조촌동,경장동,
594,한식,고창선운사 정금자할매풍천장어,전북 군산시 진포로 128,조촌동,경장동,
593,한식,밥먹고힘내자,전북 군산시 진포로 120-4,조촌동,경장동,063-452-5255
590,중식,화궁반점,전북 군산시 조촌안5길 35,조촌동,경장동,063-451-4747
582,한식,우진정육상회,전북 군산시 조촌2길 27,조촌동,경장동,
573,한식,신고궁한정식,전북 군산시 조촌1길 10,조촌동,경장동,063-451-0111
572,한식,가자토속순대,전북 군산시 양안로 5,조촌동,경장동,
570,일식,지곡동옛날돈까스,전북 군산시 양안로 5,조촌동,경장동,
557,카페,메리그레이스,전북 군산시 번영로 92,조촌동,경장동,
552,치킨,굽네치킨 조촌점,전북 군산시 번영로 86,조촌동,경장동,063-452-9492
551,양식,피자나라치킨공주,전북 군산시 번영로 86,조촌동,경장동,063-443-8864
543,분식,배달떡볶이,전북 군산시 번영로 74,조촌동,경장동,063-453-7857
541,분식,우리할매떡볶이,전북 군산시 번영로 72,조촌동,경장동,063-443-3330
540,간식,블레스유,전북 군산시 번영로 72,조촌동,경장동,063-442-7461
532,한식,웰빙쌈밥,전북 군산시 번영로 57,조촌동,경장동,
530,카페,카페일구팔오,전북 군산시 번영로 54-1,조촌동,경장동,
529,간식,복덕빵,전북 군산시 번영로 51,조촌동,경장동,
512,간식,한옥마을 기정떡,전북 군산시 번영로 20,조촌동,경장동,
511,한식,대명옥,전북 군산시 번영로 17,조촌동,경장동,063-452-6655
509,한식,농업회사법인 유한회사 우민회관,전북 군산시 번영로 158-20,조촌동,경장동,063-452-0427
506,한식,하루하루30족발,전북 군산시 번영로 154,조촌동,경장동,063-453-9282
503,한식,토지쌈밥,전북 군산시 번영로 148-4,조촌동,경장동,
494,한식,막내네,전북 군산시 번영로 121,조촌동,경장동,063-453-8898
491,일식,다이도,전북 군산시 번영로 121,조촌동,경장동,063-451-3808
489,한식,테트리스찜닭(조촌점),전북 군산시 번영로 117,조촌동,경장동,063-452-7171
483,한식,육대육,전북 군산시 번영로 102,조촌동,경장동,063-442-6699
475,패스트푸드,라임테이블,전북 군산시 백릉안1길 38,조촌동,경장동,
474,술집,다원해,전북 군산시 백릉안1길 38,조촌동,경장동,063-442-0312
459,카페,마마레(MAMARE),전북 군산시 백릉2길 11,조촌동,경장동,
455,한식,착한낙지군산점,전북 군산시 미장길 97-2,조촌동,경장동,063-453-8622
451,중식,자금성,전북 군산시 문화로 214,조촌동,경장동,
431,중식,중화요리 찬찬,전북 군산시 경암1길 8,조촌동,경장동,063-732-3344
429,치킨,중동통닭,전북 군산시 해망로 76,경암동,경암동,
423,한식,로터리회관(식당),전북 군산시 해망로 61,경암동,경암동,063-445-1219
417,한식,이화찹쌀피순대,전북 군산시 해망로 34,경암동,경암동,063-446-3672
414,카페,에이비씨커피(터미널점),전북 군산시 해망로 18,경암동,경암동,063-446-1492
411,카페,커피,전북 군산시 해망로 18,경암동,경암동,
410,치킨,신통치킨(터미널점),전북 군산시 해망로 18,경암동,경암동,
409,분식,터미널분식,전북 군산시 해망로 18,경암동,경암동,
403,술집,콤마,전북 군산시 진포로 245-2,경암동,경암동,
402,분식,신천할매떡볶이 동군산점,전북 군산시 진포로 245,경암동,경암동,063-442-1006
401,중식,상하이반점,전북 군산시 진포로 245,경암동,경암동,063-442-5777
399,한식,서울곱창,전북 군산시 진포로 244,경암동,경암동,
398,치킨,자담치킨 이마트점,전북 군산시 진포로 242,경암동,경암동,063-443-0078
395,분식,철길마을분식,전북 군산시 진포로 239-9,경암동,경암동,
390,한식,소미팥칼국수,전북 군산시 진포로 237,경암동,경암동,
387,음식점,삼오정,전북 군산시 진포로 233-1,경암동,경암동,
382,한식,군산김치찜,전북 군산시 진포로 230-1,경암동,경암동,
378,한식,참사랑명태찜,전북 군산시 진포로 227,경암동,경암동,063-446-8821
376,음식점,행복한국밥,전북 군산시 진포로 225,경암동,경암동,
375,중식,창성양꼬치,전북 군산시 진포로 223,경암동,경암동,
373,한식,청하순대,전북 군산시 진포로 221-1,경암동,경암동,063-442-5682
365,한식,다올식당,전북 군산시 진포로 212,경암동,경암동,063-442-9966
364,카페,더착한커피군산점,전북 군산시 진포로 212,경암동,경암동,063-445-9799
363,한식,명륜진사갈비 조촌점,전북 군산시 진포로 211,경암동,경암동,
362,한식,찜마을이야기,전북 군산시 진포로 210,경암동,경암동,063-445-7720
361,한식,다올식당 1호점,전북 군산시 진포로 210,경암동,경암동,
360,한식,장날숯불화로구이,전북 군산시 진포로 209,경암동,경암동,063-442-9266
359,한식,원풍갈비,전북 군산시 진포로 206,경암동,경암동,063-443-3409
358,한식,주식회사 네모선장 군산점,전북 군산시 진포로 205,경암동,경암동,
357,한식,통통배,전북 군산시 진포로 205,경암동,경암동,
356,한식,일조복집,전북 군산시 진포로 205,경암동,경암동,063-442-6612
351,한식,풍천장어타운(경암점),전북 군산시 진포로 199,경암동,경암동,063-445-4421
350,중식,군산시양꼬치,전북 군산시 진포로 199,경암동,경암동,
345,카페,스위트커피,전북 군산시 조촌로 214,경암동,경암동,
339,분식,중동호떡,전북 군산시 서래로 52,경암동,경암동,063-445-0849
331,술집,원투쓰리가맥,전북 군산시 백릉로 47,경암동,경암동,
326,한식,사랑채,전북 군산시 백릉로 35,경암동,경암동,
322,한식,맛있는한끼,전북 군산시 백릉로 27,경암동,경암동,063-467-9060
316,중식,진성원,전북 군산시 구암3.1로 70-1,경암동,경암동,063-443-5220
315,한식,퐁당퐁당,전북 군산시 구암3.1로 70,경암동,경암동,
314,한식,지운식당,전북 군산시 구암3.1로 69,경암동,경암동,
307,한식,중동연탄구이,전북 군산시 구암3.1로 56,경암동,경암동,063-446-0550
271,간식,대중양품,전북 군산시 경포천동길 86,경암동,경암동,
270,카페,카페마니,전북 군산시 경포천동길 72-1,경암동,경암동,
269,한식,사계절칼국수,전북 군산시 경포천동길 26,경암동,경암동,063-443-4739
266,한식,천광참게,전북 군산시 경포천동길 14-1,경암동,경암동,
265,양식,"늘,그곳",전북 군산시 경포2길 6,경암동,경암동,
263,식품판매,고바우정육점,전북 군산시 경포1길 14,경암동,경암동,063-443-3477
262,중식,황금짜장,전북 군산시 경포1길 14,경암동,경암동,
261,술집,라비,전북 군산시 경포1길 13-5,경암동,경암동,063-443-0726
260,한식,또오리,전북 군산시 경포1길 13-5,경암동,경암동,
259,카페,경암역,전북 군산시 경촌안3길 49,경암동,경암동,
258,카페,주식회사 온에어(경암각),전북 군산시 경촌안3길 49,경암동,경암동,063-445-6030
255,치킨,미원통닭 경암점,전북 군산시 경촌안2길 50,경암동,경암동,063-471-0244
253,카페,썸띵블루(Something Blue),전북 군산시 경촌안2길 50,경암동,경암동,063-445-6541
251,한식,나능이버섯백숙군산점,전북 군산시 경촌안2길 25,경암동,경암동,
247,술집,간이역,전북 군산시 경촌4길 22,경암동,경암동,
244,한식,새한맛집,전북 군산시 경촌3길 23,경암동,경암동,063-445-8845
240,술집,그린달빛,전북 군산시 경촌1길 56,경암동,경암동,
236,한식,황제족발,전북 군산시 경촌1길 56,경암동,경암동,063-442-9772
235,술집,밥상과 술상,전북 군산시 경촌1길 56,경암동,경암동,063-446-4584
234,술집,엘배강,전북 군산시 경촌1길 56,경암동,경암동,
233,술집,꼴통맥주,전북 군산시 경촌1길 56,경암동,경암동,063-443-0917
230,치킨,멕시칸치킨,전북 군산시 경촌1길 56,경암동,경암동,
225,간식,이진표베이커리,전북 군산시 경암로 63,경암동,경암동,063-446-7817
222,한식,미가실비횟집,전북 군산시 경암로 61,경암동,경암동,063-443-3356
220,한식,가소,전북 군산시 경암로 58,경암동,경암동,063-442-3132
218,술집,가볍게맥주한잔,전북 군산시 경암로 57,경암동,경암동,
217,한식,통통연탄구이,전북 군산시 경암로 56,경암동,경암동,
216,한식,묵은지감자탕,전북 군산시 경암로 56,경암동,경암동,063-442-3055
215,치킨,동부치킨하우스,전북 군산시 경암로 56,경암동,경암동,
214,한식,수라간,전북 군산시 경암로 55,경암동,경암동,063-442-9426
209,한식,군산칼국수,전북 군산시 경암로 49,경암동,경암동,063-445-9200
208,분식,우리분식,전북 군산시 경암로 48,경암동,경암동,063-445-6279
207,한식,맛스넥하우스,전북 군산시 경암로 48,경암동,경암동,063-442-6644
206,한식,행복한밥상,전북 군산시 경암로 48,경암동,경암동,
202,분식,숙이네김밥,전북 군산시 경암로 48,경암동,경암동,
201,간식,실로암떡집,전북 군산시 경암로 48,경암동,경암동,063-445-1243
200,한식,경포식당,전북 군산시 경암로 48,경암동,경암동,063-445-4454
189,한식,막내식당,전북 군산시 경암3길 16,경암동,경암동,
182,중식,가야장,전북 군산시 경암4길 4,경암동,경암동,063-445-2811
180,분식,우리들분식,전북 군산시 경암4길 3,경암동,경암동,063-463-6353
179,카페,크레용커피컴퍼니,전북 군산시 경암4길 3,경암동,경암동,
175,한식,돈돼지쌈촌마을,전북 군산시 경암3길 53,경암동,경암동,063-442-1842
172,아시아음식,한비하우스,전북 군산시 경암3길 48-40,경암동,경암동,
171,치킨,맛그랑치킨,전북 군산시 경암3길 45,경암동,경암동,063-445-5319
170,한식,고향식당,전북 군산시 경암3길 37,경암동,경암동,
165,술집,비무장지대,전북 군산시 경암3길 18-26,경암동,경암동,063-443-4084
162,술집,오케바리호프,전북 군산시 경암3길 16,경암동,경암동,
161,술집,산들,전북 군산시 경암3길 15,경암동,경암동,063-445-5276
160,술집,간이역,전북 군산시 경암3길 15,경암동,경암동,
158,한식,꼬꼬꽥꽥,전북 군산시 경암2길 24,경암동,경암동,063-464-4943
143,중식,옛날짜장,전북 군산시 개정면 번영로 723,개정동,개정면,063-451-8545
140,양식,라스페라,전북 군산시 개정면 번영로 463,개정동,개정면,
139,한식,발산식당,전북 군산시 개정면 바르메길 62,개정동,개정면,063-451-8088
138,한식,미가식당,전북 군산시 개정면 바르메길 30,개정동,개정면,063-451-8200
137,한식,엄니밥상,전북 군산시 개정면 바르메길 114-6,개정동,개정면,
125,카페,바나나팩토리,전북 군산시 개정면 번영로 461,개정동,개정면,063-452-9479
124,한식,뜨락,전북 군산시 개정면 아동남로 45-1,개정동,개정면,
123,카페,푸르던,전북 군산시 개정면 아동남로 33,개정동,개정면,
122,카페,미라벨(MIRABELL),전북 군산시 개정면 아동남로 128,개정동,개정면,063-452-5867
120,한식,전북민물장어,전북 군산시 개정면 신동화2길 30,개정동,개정면,063-451-0592
117,카페,통사리 333,전북 군산시 개정면 번영로 858,개정동,개정면,
113,카페,그 아침에,전북 군산시 개정면 번영로 749,개정동,개정면,
78,한식,천지장어,전북 군산시 개정면 금강로 498-1,개정동,개정면,
77,한식,계곡가든,전북 군산시 개정면 금강로 470,개정동,개정면,063-453-0608
75,한식,대가꽃게장,전북 군산시 개정면 금강로 466,개정동,개정면,
72,한식,가소앤누갈비,전북 군산시 개정면 구암로 206,개정동,개정면,
71,한식,(농)(유)가소앤누갈비,전북 군산시 개정면 구암로 206,개정동,개정면,
65,카페,오래뜰,전북 군산시 개정면 개정문화길 61-19,개정동,개정면,
64,카페,군산커피마을,전북 군산시 개정면 개정들4길 63,개정동,개정면,063-454-8686
53,한식,개정황금가든,전북 군산시 번영로 411,개정동,개정동,063-451-5295
50,카페,개정동커피집,전북 군산시 번영로 407,개정동,개정동,063-452-4567
46,음식점,밥머꼬닭머꼬,전북 군산시 번영로 345-4,개정동,개정동,
45,카페,더블미,전북 군산시 동개정길 20,개정동,개정동,063-000-0000
44,한식,꿀밥,전북 군산시 동개정길 20,개정동,개정동,063-471-1340
17,한식,운정식당,전북 군산시 중정길 8-2,월명동,개복동,063-446-0891
10,카페,인디무드,전북 군산시 중정길 14,월명동,개복동,
9,한식,힐링과메기전문점,전북 군산시 중정길 11,월명동,개복동,063-445-6878
